id,organization,country_code,country_name,postal_code,city,company_size_category,employees,economic_sector_EN,economic_sector_DE,number_of_balances_org_table,balance_scores
14885,4e solutions GmbH,DE,Germany,70794,Filderstadt,Micro (≤10),3-10,Trade / Consumption,Handel / Konsum,1,{'30-03-2020': 690}
14886,4plus5,DE,Germany,89077,Ulm,Micro (≤10),3-10,Construction / Architecture,Baugewerbe / Architektur,1,
35275,A & K Engemann GbR,DE,Germany,34439,Willebadessen,Micro (≤10),3-10,Nutrition / Agriculture / Forestry,Nahrungsmittel / Land /  Forstwirtschaft,1,
44668,A&P Steuerberatungsgesellschaft mbH,DE,Germany,14480,Potsdam,Small (≤50),11-25,Consulting,Beratung / Consulting,1,{'31-12-2014': 427}
29652,AAP-ARCHITEKTEN ZT-GMBH,AT,Austria,1080,Wien,Small (≤50),11-25,Construction / Architecture,Baugewerbe / Architektur,2,
14887,Abitare,DE,Germany,10829,Berlin,Micro (≤10),3-10,Craft,Handwerk,2,"{'31-05-2017': 367, '30-11-2020': 476}"
46986,"abw – gemeinnützige Gesellschaft für Arbeit, Bildung und Wohnen mbH",DE,Germany,14057,Berlin,Small (≤50),11-25,Education / University / Polytechnic / Schools,Bildung / Universität / FH / Schulen,1,{'31-10-2023': 358}
92361,"Action Waterscape, S.L.",ES,Spain,46200,Paiporta,,,Other,Sonstige,2,{'30-10-2019': 491}
14888,ad fontes,DE,Germany,27624,Geestland,Micro (≤10),3-10,Electrical / Electronics,Elektro / Elektronik,1,
40981,ADAMAH BioHof G. Zoubek Vertriebs KG,AT,Austria,2280,Glinzendorf,Micro (≤10),3-10,Nutrition / Agriculture / Forestry,Nahrungsmittel / Land /  Forstwirtschaft,1,{'30-06-2018': 556}
14973,Adelby 1 Kinder- und Jugenddienste gGmbH,DE,Germany,24937,Flensburg,Large (>250),>250,Health / Social Affairs / Nursing,Gesundheitswesen / Soziales / Pflege,2,"{'30-09-2022': 392, '31-12-2025': 475}"
92389,AFEF-EBC,ES,Spain,37187,Miranda de Azán,,,Other,Sonstige,,
150227,Afier Accountants + Adviseurs,NL,Netherlands,7901 AR,Tynaarlo,Mid (≤250),51-100,Consulting,Beratung / Consulting,1,
30337,Africa Green Tec AG,DE,Germany,63512,Hainburg,Small (≤50),11-25,Energy,Energiewirtschaft,1,
29635,AGENTUR FÜR EVALUATION & QUALITÄTSENTWICKLUNG,CH,Switzerland,9100,Herisau,Micro (≤10),1-2,Consulting,Beratung / Consulting,1,
132863,AGIT mbH,DE,Germany,52074,Aachen,Small (≤50),11-25,Economic Promotion,Wirtschaftsförderung,1,{'31-10-2025': 270}
92421,Agresta Soc. Cooperativa,ES,Spain,38004,Santa Cruz de Tenerife,,,Other,Sonstige,,
92373,Agricología José Manuel Bisetto,ES,Spain,03759,Benidoleig,,,Other,Sonstige,,
36548,"AISENBREY, RICHTER & PARTNER",DE,Germany,10115,Berlin,Micro (≤10),3-10,Consulting,Beratung / Consulting,1,{'31-12-2015': 622}
37075,Aka Merch & Textil GmbH,DE,Germany,50931,Köln,Micro (≤10),1-2,Seminar / Fair Provider,Seminar- / Messeanbieter,1,{'30-11-2023': 324}
58579,Aktion Eine Welt e.V.,DE,Germany,97616,Bad Neustadt,Micro (≤10),1-2,Trade / Consumption,Handel / Konsum,1,{'31-03-2024': 569}
29850,Alex Wissmann,CH,Switzerland,8356,Aadorf / Ettenhausen,Micro (≤10),1-2,Consulting,Beratung / Consulting,1,{'30-04-2023': 377}
164090,AliExpress,ES,Spain,,Minsk,,,,,,
92467,Alive Surf,UK,United Kingdom,BT56 8FQ,Portrush,Micro (≤10),1-2,Other,Sonstige,1,{'01-04-2019': 446}
78313,Allgäu Batterie GmbH & Co. KG,DE,Germany,87490,Haldenwang,Small (≤50),26-50,Electrical / Electronics,Elektro / Elektronik,2,{'31-07-2024': 266}
35674,Allgäu GmbH,DE,Germany,87435,Kempten,Small (≤50),11-25,Other,Sonstige,1,{'31-07-2023': 291}
113132,Allgemengwuel Agence,LU,Luxembourg,4980,Reckingen/Mess,Micro (≤10),1-2,Consulting,Beratung / Consulting,1,{'31-07-2025': 242}
14665,ALLMENDA Social Business eG,AT,Austria,6850,Dornbirn,Micro (≤10),1-2,Services,Dienstleistung,2,"{'30-12-2018': 627, '31-05-2021': 444}"
92491,Aloeysalud,ES,Spain,28027,Madrid,Micro (≤10),1-2,Other,Sonstige,1,{'20-01-2016': 548}
14889,Alpendruck,AT,Austria,6460,Imst,Micro (≤10),3-10,Printing / Paper / Packaging,Druck / Papier / Verpackung,1,{'31-12-2020': 304}
93957,"Alpenland Gemeinnützige Bau-, Wohn- und Siedlungsgenossenschaft reg.Gen.m.b.H.",AT,Austria,3100,St. Pölten,Mid (≤250),51-100,Real Estate / Facility Management,Immobilien / Facility Management,1,{'30-11-2024': 444}
139397,Alpha IC GmbH,DE,Germany,96047,Bamberg,Mid (≤250),51-100,Real Estate / Facility Management,Immobilien / Facility Management,1,{'30-11-2025': 338}
92475,Alter Consulta,ES,Spain,28014,Madrid,Micro (≤10),1-2,Other,Sonstige,,
92443,Altur coop,ES,Spain,03690,Sant Vicent del Raspeig,,,Other,Sonstige,,
14818,"Amann, Ulrike, Raum für Gemeinwesenentwicklung",AT,Austria,6713,Ludesch,Micro (≤10),1-2,Consulting,Beratung / Consulting,3,"{'31-01-2018': 405, '31-07-2020': 489, '31-05-2023': 437}"
91614,AMC Luxembourg,LU,Luxembourg,7521,Mersch,Small (≤50),11-25,Finance,Finanzen,1,{'31-12-2024': 229}
14819,AmVieh-Theater,DE,Germany,33824,Werther (Westfalen),Micro (≤10),3-10,Tourism / Hotel / Catering,Tourismus / Hotel / Gastronomie,1,{'30-03-2021': 702}
14772,ananjo informatiker,DE,Germany,63165,mühlheim am main,Micro (≤10),3-10,EDP / IT,EDV / IT,2,{'31-12-2021': 290}
29214,"Andrea Aldosser, Ganzheitliche Personal- und Organisationsentwicklung",AT,Austria,6361,Hopfgartn,Micro (≤10),1-2,Consulting,Beratung / Consulting,1,{'30-04-2023': 320}
30925,Andreas Heilmann Gartengestaltung,DE,Germany,83349,Palling,Micro (≤10),3-10,Nutrition / Agriculture / Forestry,Nahrungsmittel / Land /  Forstwirtschaft,1,{'31-07-2019': 415}
92507,Angaraveca,ES,Spain,28013,Madrid,Micro (≤10),1-2,Other,Sonstige,1,{'24-05-2018': 840}
92457,Animación y logística cultural S.L.U.,ES,Spain,46017,Valencia,,,Other,Sonstige,2,{'20-10-2020': 348}
37702,ANJA HAIDER-WALLNER/ SMILEVEDA,AT,Austria,7000,Eisenstadt,Micro (≤10),1-2,Consulting,Beratung / Consulting,2,"{'31-12-2015': 480, '30-11-2018': 568}"
79370,Anne Berg – Bewusster Wandel,DE,Germany,53227,Bonn,Micro (≤10),1-2,Consulting,Beratung / Consulting,1,{'31-07-2024': 509}
126462,Annemarie Bink und Fiona Brinker GbR,DE,Germany,27568,Bremerhaven,Micro (≤10),1-2,Trade / Consumption,Handel / Konsum,1,{'31-07-2025': 305}
82864,ANWANDER (Anwander GmbH & Co. KG / Anwander-Waldmann GmbH & Co. KG),DE,Germany,87477,Sulzberg,Small (≤50),26-50,Construction / Architecture,Baugewerbe / Architektur,1,{'31-07-2024': 257}
92455,Aplicaciones Industriales Valencianas S.L.,ES,Spain,46130,Massamagrell,,,Other,Sonstige,,
14820,Apotheke am Goetheplatz,DE,Germany,31582,Nienburg/Weser,Micro (≤10),3-10,Pharma,Medizin / Pharma,1,{'30-10-2020': 577}
164050,Apple,FR,,,Minsk,,,,,,
164351,Apple,GI,,,Minsk,,,,,,
14821,ARBA-BIOPLAN Genossenschaft,CH,Switzerland,8400,Winterthur,Micro (≤10),3-10,Construction / Architecture,Baugewerbe / Architektur,1,{'31-07-2020': 728}
14884,Arbatherm,CH,Switzerland,8408,Winterthur,Micro (≤10),3-10,Electrical / Electronics,Elektro / Elektronik,1,{'30-04-2020': 482}
14822,arbeit plus Salzburg,AT,Austria,5020,Salzburg,Micro (≤10),1-2,Health / Social Affairs / Nursing,Gesundheitswesen / Soziales / Pflege,1,{'30-03-2021': 482}
92371,Arca de Babel S.L,ES,Spain,38004,Santa Cruz de Tenerife,,,Other,Sonstige,,
14737,Architekturbüro Mießl GmbH,DE,Germany,86529,Schrobenhausen Sandzell,Micro (≤10),3-10,Construction / Architecture,Baugewerbe / Architektur,1,{'30-09-2022': 278}
44670,ARGEkultur gemeinnützige GmbH,AT,Austria,5020,Salzburg,Small (≤50),11-25,Art / Culture / Entertainment,Kunst / Kultur / Unterhaltung,1,{'06-09-2018': 521}
37707,Armin Hipper – Büro für Nachhaltigkeit & Wirtschaftsethik,DE,Germany,88099,Neukirch (Bodenseekreis),Micro (≤10),1-2,Consulting,Beratung / Consulting,2,"{'24-03-2016': 262, '30-06-2018': 463}"
14966,Armin Schmelzle,AT,Austria,5161,Elixhausen,Micro (≤10),1-2,Consulting,Beratung / Consulting,2,"{'30-11-2017': 382, '31-01-2022': 464}"
127521,Armin Schmelzle Entwicklungsberatung,AT,Austria,5161,Elixhausen,Micro (≤10),1-2,Consulting,Beratung / Consulting,1,{'31-07-2025': 468}
124478,ars scribendi,DE,Germany,30177,Hannover,Micro (≤10),1-2,Services,Dienstleistung,1,{'31-08-2025': 245}
80265,Artist MesseService und -Bau GmbH & Co. KG,DE,Germany,33104,Paderborn,Small (≤50),11-25,Craft,Handwerk,1,{'31-12-2024': 584}
92489,ArtMarketing SL,ES,Spain,28224,Pozuelo del Alarcón,Micro (≤10),1-2,Other,Sonstige,2,"{'16-12-2015': 625, '25-05-2018': 688}"
109043,ASC Göttingen von 1846 e.V.,DE,Germany,37083,Göttingen,Mid (≤250),51-100,Associations / Societies,Vereine,1,{'28-02-2026': 474}
92391,Asociación Traperos de Emaús Murcia,ES,Spain,30002,Murcia,,,Other,Sonstige,,
92413,Astrotouristing,ES,Spain,38400,Puerto de la Cruz,,,Other,Sonstige,,
67207,Atelier Marianna,AT,Austria,9900,Lienz,Micro (≤10),3-10,Craft,Handwerk,2,"{'31-10-2020': 517, '31-05-2024': 497}"
135370,Atlantic Hotel Sail City GmbH,DE,Germany,28789,Bremerhaven,Mid (≤250),101-250,Tourism / Hotel / Catering,Tourismus / Hotel / Gastronomie,1,
145404,audit.innovation GmbH Wirtschaftsprüfungsgesellschaft,DE,Germany,70182,Deutschland,Micro (≤10),1-2,Finance,Finanzen,1,{'30-11-2025': 200}
14891,AUROBIA GmbH & Co KG,DE,Germany,86919,Utting,Micro (≤10),1-2,Consulting,Beratung / Consulting,3,"{'31-05-2018': 141, '30-04-2023': 151, '30-11-2023': 191}"
140968,authento Vera Boos,DE,Germany,85356,Freising,Micro (≤10),1-2,Consulting,Beratung / Consulting,1,
25099,Auto Rainer GmbH,IT,Italy,39040,Ratschings,Micro (≤10),3-10,Transport / Logistics,Verkehr / Transport / Logistik,1,{'21-12-2022': 354}
31380,avance Unternehmensberatung GmbH,CH,Switzerland,8832,Feusisberg,Micro (≤10),1-2,Consulting,Beratung / Consulting,1,{'30-04-2023': 310}
17277,Avesani Marta,IT,Italy,37124,Verona,Micro (≤10),1-2,Consulting,Beratung / Consulting,1,
34415,AXICA Kongress- und Tagungszentrum  GmbH,DE,Germany,10117,Berlin,Small (≤50),11-25,Seminar / Fair Provider,Seminar- / Messeanbieter,1,{'30-09-2023': 390}
164408,AXICA Kongress- und Tagungszentrum GmbH,DE,Germany,1017,Berlin,Small (≤50),26-50,Services,Dienstleistung,1,
133341,Azienda Agricola Foradori S.s,IT,Italy,38017,Mezzolombardo (TN),Small (≤50),11-25,Nutrition / Agriculture / Forestry,Nahrungsmittel / Land /  Forstwirtschaft,1,
127354,B.A.U.M. Consult GmbH,DE,Germany,59073,Hamm,Small (≤50),11-25,Consulting,Beratung / Consulting,2,"{'30-11-2020': 430, '31-08-2025': 513}"
40970,b.it GmbH,AT,Austria,5300,Hallwang,Micro (≤10),3-10,EDP / IT,EDV / IT,4,"{'30-12-2013': 516, '30-06-2015': 497, '30-06-2018': 716, '28-02-2025': 598}"
14797,Bäckerei Bahde GmbH,DE,Germany,21218,Seevetal,Small (≤50),26-50,Trade / Consumption,Handel / Konsum,1,{'30-11-2021': 609}
14722,Backhaus Cramer,DE,Germany,80313,Gauting,Small (≤50),11-25,Nutrition / Agriculture / Forestry,Nahrungsmittel / Land /  Forstwirtschaft,1,{'30-04-2021': 474}
14666,Backkultur,AT,Austria,6811,Göfis,Micro (≤10),3-10,Craft,Handwerk,1,{'31-05-2021': 453}
129947,Backwarenbetriebe Herbert Nelles OHG,DE,Germany,53332,Bornheim,Mid (≤250),51-100,Craft,Handwerk,1,{'31-05-2025': 256}
80263,Barghorn GmbH & Co. KG,DE,Germany,26919,Brake,Mid (≤250),51-100,Machinery & Plant Engineering,Maschinen- & Anlagenbau,1,{'31-12-2024': 707}
52502,Baril Coatings,NL,Netherlands,5234 GL,’s-Hertogenbosch,Mid (≤250),51-100,Chemistry,Chemie,2,{'31-01-2023': 413}
118474,base – homes for students GmbH,AT,Austria,1190,Wien,Small (≤50),11-25,Real Estate / Facility Management,Immobilien / Facility Management,1,{'31-07-2025': 413}
44805,basilikum – soulfood,AT,Austria,6830,Rankweil,Micro (≤10),3-10,Trade / Consumption,Handel / Konsum,1,{'30-12-2018': 581}
37265,Baukult ZT GmbH,AT,Austria,1150,Wien,Micro (≤10),3-10,Construction / Architecture,Baugewerbe / Architektur,1,{'30-06-2023': 499}
44680,BAUMGARTNER & CO GMBH,AT,Austria,4553,Schlierbach,Small (≤50),26-50,Construction / Architecture,Baugewerbe / Architektur,1,{'31-12-2016': 331}
14893,Bausinger GmbH,DE,Germany,72479,Straßberg,Micro (≤10),1-2,Services,Dienstleistung,2,"{'30-09-2020': 517, '30-06-2023': 616}"
14696,Bayer und Hochdörffer GbR,DE,Germany,82380,Böbing-Grambach,Micro (≤10),1-2,Consulting,Beratung / Consulting,1,{'30-06-2021': 230}
34938,be4energy GmbH,DE,Germany,12555,Berlin,Micro (≤10),3-10,Energy,Energiewirtschaft,2,{'30-09-2023': 239}
19776,Bean United GmbH,DE,Germany,82041,Oberhaching,Micro (≤10),1-2,Trade / Consumption,Handel / Konsum,1,{'31-10-2022': 357}
135008,Bean United GmbH,DE,Germany,82041,Oberhaching,Micro (≤10),3-10,Nutrition / Agriculture / Forestry,Nahrungsmittel / Land /  Forstwirtschaft,1,{'30-09-2025': 374}
37753,Beat Stroo,CH,Switzerland,4312,Magden,Micro (≤10),1-2,Consulting,Beratung / Consulting,1,{'31-12-2015': 542}
84520,"becker druck, F.W. Becker G,bH",DE,Germany,59821,Arnsberg,Small (≤50),26-50,Printing / Paper / Packaging,Druck / Papier / Verpackung,1,{'31-12-2024': 254}
92608,beckers bester GmbH,DE,Germany,37176,Nörten-Hardenberg,Mid (≤250),101-250,Nutrition / Agriculture / Forestry,Nahrungsmittel / Land /  Forstwirtschaft,1,{'31-10-2024': 255}
111951,Beethoven-Haus Bonn,DE,Germany,53111,Bonn,Small (≤50),11-25,Art / Culture / Entertainment,Kunst / Kultur / Unterhaltung,1,{'31-05-2025': 370}
164461,Beigel Steuerberater PartG mbB,DE,Germany,82319,Starnberg,Small (≤50),11-25,Fiscal Advice / Auditing,Steuerberatung / Wirtschaftsprüfung,1,
14824,Berg Anne,DE,Germany,53227,Bonn,Micro (≤10),1-2,Consulting,Beratung / Consulting,2,"{'28-02-2017': 497, '30-09-2020': 557}"
85041,"Berglandkräuter aus Hessen, M. Rehs & U. Kern GbR",DE,Germany,36179,Bebra-Braunhausen,Micro (≤10),3-10,Nutrition / Agriculture / Forestry,Nahrungsmittel / Land /  Forstwirtschaft,1,{'31-12-2024': 492}
14746,BerlinBees Schüler*Innengenossenschaft,DE,Germany,10829,Berlin,Micro (≤10),1-2,Nutrition / Agriculture / Forestry,Nahrungsmittel / Land /  Forstwirtschaft,1,{'30-09-2022': 386}
104183,Bernd Hümmer (freiberufliche Tätigkeit) nicht in obigem Register,DE,Germany,90537,Feucht,Micro (≤10),1-2,Consulting,Beratung / Consulting,1,{'31-07-2025': 416}
14667,Bernhard Oberrauch,IT,Italy,39100,Bozen,Micro (≤10),1-2,Construction / Architecture,Baugewerbe / Architektur,1,{'31-03-2023': 520}
55121,Beschäftigungsförderung Göttingen (kAöR),DE,Germany,37073,Göttingen,Mid (≤250),51-100,Other,Sonstige,1,{'30-11-2023': 427}
44685,BestPractice AG,CH,Switzerland,8500,Frauenfeld,Micro (≤10),1-2,Consulting,Beratung / Consulting,1,{'30-12-2015': 269}
14894,BfG – Genossenschaft für Gemeinwohl,AT,Austria,1050,Wien,Small (≤50),11-25,Services,Dienstleistung,1,{'31-01-2020': 495}
14950,BfG Eigentümer/-innen- und Verwaltungsgenossenschaft eG,AT,Austria,1050,Wien,Small (≤50),11-25,Finance,Finanzen,1,{'28-02-2022': 457}
22408,bhz Stuttgart e.V.,DE,Germany,70567,Stuttgart,Mid (≤250),101-250,Health / Social Affairs / Nursing,Gesundheitswesen / Soziales / Pflege,1,{'31-12-2022': 357}
111948,Bibernelle Bio-Lieferdienst,DE,Germany,06846,Dessau,Micro (≤10),3-10,Nutrition / Agriculture / Forestry,Nahrungsmittel / Land /  Forstwirtschaft,1,{'31-07-2025': 492}
15520,Bichlbäck,AT,Austria,6342,Niederndorf,Small (≤50),11-25,Nutrition / Agriculture / Forestry,Nahrungsmittel / Land /  Forstwirtschaft,1,{'31-05-2022': 402}
84571,Big Picture Consulting GmbH,DE,Germany,82152,Krailling,Micro (≤10),1-2,Consulting,Beratung / Consulting,1,{'31-07-2024': 168}
41214,bio austria – Verein zur Förderung des Biologischen Landbaus,AT,Austria,1040,Wien,Micro (≤10),3-10,Nutrition / Agriculture / Forestry,Nahrungsmittel / Land /  Forstwirtschaft,1,{'30-09-2017': 663}
14825,Bio Hotel Bayerischer Wirt,DE,Germany,86167,Augsburg,Small (≤50),11-25,Tourism / Hotel / Catering,Tourismus / Hotel / Gastronomie,1,{'30-03-2021': 627}
14826,Bio Hotel Eggensberger,DE,Germany,87629,Füssen – Hopfen am See,Small (≤50),26-50,Tourism / Hotel / Catering,Tourismus / Hotel / Gastronomie,1,{'30-03-2021': 654}
64599,Bio Metzgerei Juffinger GmbH,AT,Austria,6335,Thiersee,Small (≤50),26-50,Nutrition / Agriculture / Forestry,Nahrungsmittel / Land /  Forstwirtschaft,1,{'30-11-2024': 504}
127441,Bio-Landgut Fleisch EZG GmbH,DE,Germany,72108,Rottenburg am Neckar,Micro (≤10),3-10,Nutrition / Agriculture / Forestry,Nahrungsmittel / Land /  Forstwirtschaft,1,{'09-08-2025': 389}
38079,Bio-Marktgemeinschaft eG Stemmerhof,DE,Germany,81369,München,Small (≤50),11-25,Trade / Consumption,Handel / Konsum,2,"{'31-12-2014': 596, '31-12-2016': 631}"
44687,BioBauernladen Kremstal GmbH,AT,Austria,4560,Kirchdorf an der Krems,Micro (≤10),3-10,Nutrition / Agriculture / Forestry,Nahrungsmittel / Land /  Forstwirtschaft,1,{'31-03-2017': 645}
133353,Biocaseificio Tomasoni,IT,Italy,25023,Gottolengo (BS),Micro (≤10),3-10,Nutrition / Agriculture / Forestry,Nahrungsmittel / Land /  Forstwirtschaft,1,{'16-06-2024': 406}
92503,Biocosas,ES,Spain,08172,Sant Cugat del Vallés,Micro (≤10),1-2,Other,Sonstige,1,{'22-07-2016': 399}
14721,Bioculture GmbH,DE,Germany,81541,München,Micro (≤10),3-10,Marketing / Avertising / PR,Marketing / Werbung / PR,1,{'30-04-2021': 382}
30326,Biohof Lecker GbR,DE,Germany,83410,Laufen,Micro (≤10),3-10,Nutrition / Agriculture / Forestry,Nahrungsmittel / Land /  Forstwirtschaft,1,{'31-07-2019': 594}
82924,Biohof Lecker GbR,DE,Germany,83410,Laufen,Micro (≤10),3-10,Trade / Consumption,Handel / Konsum,1,{'31-12-2024': 358}
44932,Biohof Reumann,AT,Austria,7042,Antau,Micro (≤10),1-2,Nutrition / Agriculture / Forestry,Nahrungsmittel / Land /  Forstwirtschaft,1,{'30-06-2015': 603}
30110,Biohotel Amadeus,DE,Germany,19053,Schwerin,Micro (≤10),3-10,Tourism / Hotel / Catering,Tourismus / Hotel / Gastronomie,1,{'30-05-2019': 593}
56311,Biohotel Bergkristall,AT,Austria,8971,Rohrmoos,Micro (≤10),3-10,Tourism / Hotel / Catering,Tourismus / Hotel / Gastronomie,1,{'31-12-2023': 415}
14987,BIOHOTEL KUNSTQUARTIER,DE,Germany,90547,Stein,Micro (≤10),3-10,Tourism / Hotel / Catering,Tourismus / Hotel / Gastronomie,1,{'31-12-2021': 674}
56307,Biohotel Rupertus GmbH & CoKG,AT,Austria,5771,Leogang,Small (≤50),11-25,Tourism / Hotel / Catering,Tourismus / Hotel / Gastronomie,1,{'31-12-2023': 459}
14763,Biohotel Schiessentobel,AT,Austria,5164,Seeham,Micro (≤10),3-10,Tourism / Hotel / Catering,Tourismus / Hotel / Gastronomie,1,{'31-12-2021': 571}
56300,Biohotel Stillebach GmgH & CoKG,AT,Austria,6481,St. Leonhard,Micro (≤10),3-10,Tourism / Hotel / Catering,Tourismus / Hotel / Gastronomie,1,{'24-01-2024': 421}
30114,BioHotel und Gastronomie Burg Lenzen,DE,Germany,19309,Lenzen,Small (≤50),11-25,Tourism / Hotel / Catering,Tourismus / Hotel / Gastronomie,1,{'30-05-2019': 616}
40894,biokaiser GmbH,DE,Germany,55252,Mainz-Kastel,Mid (≤250),101-250,Nutrition / Agriculture / Forestry,Nahrungsmittel / Land /  Forstwirtschaft,1,{'31-10-2023': 495}
85412,Bioladen Regenbogen Thomas Wälter,DE,Germany,59821,Arnsberg,Micro (≤10),3-10,Nutrition / Agriculture / Forestry,Nahrungsmittel / Land /  Forstwirtschaft,1,{'31-12-2024': 306}
40983,Bioland e.V.,DE,Germany,55116,Mainz,Micro (≤10),3-10,Nutrition / Agriculture / Forestry,Nahrungsmittel / Land /  Forstwirtschaft,2,"{'30-11-2017': 488, '31-01-2025': 481}"
40985,Bioland Gärtnerei am Hainerbach Harro Colshorn,DE,Germany,83052,Bruckmühl,Micro (≤10),3-10,Nutrition / Agriculture / Forestry,Nahrungsmittel / Land /  Forstwirtschaft,2,"{'30-12-2014': 601, '31-12-2015': 732}"
41043,Bioland Gärtnerei Hecker,DE,Germany,82140,Olching,Micro (≤10),1-2,Nutrition / Agriculture / Forestry,Nahrungsmittel / Land /  Forstwirtschaft,2,"{'31-12-2014': 430, '31-12-2015': 502}"
40988,Bioland Lammertzhof – Fam. Hannen GbR,DE,Germany,41564,Kaarst,Micro (≤10),3-10,Nutrition / Agriculture / Forestry,Nahrungsmittel / Land /  Forstwirtschaft,2,"{'30-12-2015': 627, '31-12-2017': 654}"
85214,Bioland Lammertzhof – Fam. Hannen GbR,DE,Germany,41564,Kaarst,Mid (≤250),51-100,Nutrition / Agriculture / Forestry,Nahrungsmittel / Land /  Forstwirtschaft,1,{'31-12-2024': 661}
44706,Biolandhof Josef Braun,DE,Germany,85354,Freising,Micro (≤10),3-10,Nutrition / Agriculture / Forestry,Nahrungsmittel / Land /  Forstwirtschaft,1,{'30-09-2017': 627}
14706,Biomarkt La Vida e.K.,DE,Germany,86919,Utting a.A.,Micro (≤10),3-10,Trade / Consumption,Handel / Konsum,2,"{'20-05-2021': 493, '13-11-2022': 507}"
14976,Biond GmbH,DE,Germany,34123,Kassel,Mid (≤250),51-100,Services,Dienstleistung,1,{'31-12-2021': 619}
38663,Bioplan GbR Büro für Ökologie und Umweltplanung,DE,Germany,37671,Höxter,Small (≤50),11-25,Services,Dienstleistung,1,{'31-05-2023': 279}
92359,Bioproducts,ES,Spain,12540,Villareal,,,Other,Sonstige,,
92393,Biotremol,ES,Spain,03690,Sant Vicent del Raspeig,,,Other,Sonstige,1,
14761,BioVitalHotel Sommerau,AT,Austria,5423,St. Koloman,Micro (≤10),3-10,Tourism / Hotel / Catering,Tourismus / Hotel / Gastronomie,1,{'31-12-2021': 544}
14937,bittar. worte & zeichen setzen,DE,Germany,10437,Berlin,Micro (≤10),1-2,Services,Dienstleistung,1,{'28-02-2022': 601}
14938,BKK ProVita,DE,Germany,85232,Bergkirchen,Mid (≤250),101-250,Health / Social Affairs / Nursing,Gesundheitswesen / Soziales / Pflege,4,"{'31-12-2017': 374, '30-01-2020': 604, '31-01-2022': 790}"
127384,Blackbit digital Commerce GmbH,DE,Germany,37079,Göttingen,Small (≤50),26-50,Marketing / Avertising / PR,Marketing / Werbung / PR,1,
87387,Blackroll AG,CH,Switzerland,8598,Bottighofen,Mid (≤250),51-100,Health / Social Affairs / Nursing,Gesundheitswesen / Soziales / Pflege,1,{'24-08-2024': 296}
83986,Blank_Canvas,DE,Germany,83607,Holzkirchen,Micro (≤10),1-2,Consulting,Beratung / Consulting,1,{'31-08-2024': 288}
14807,Blattfrisch GmbH,DE,Germany,20253,Hamburg,Micro (≤10),3-10,Trade / Consumption,Handel / Konsum,1,{'30-11-2021': 487}
14765,Blattwerk Gartengestaltung GmbH,DE,Germany,70569,Stuttgart,Small (≤50),11-25,Construction / Architecture,Baugewerbe / Architektur,1,{'31-10-2021': 442}
19688,blp Geo Services GmbH,AT,Austria,4020,Linz,Small (≤50),11-25,Services,Dienstleistung,1,{'30-06-2022': 383}
124367,blueContec GmbH,DE,Germany,55127,Mainz,Micro (≤10),1-2,Consulting,Beratung / Consulting,1,{'31-08-2025': 252}
90787,BMR Human Resources Interim Management,DE,Germany,70184,Stuttgart,Micro (≤10),1-2,HR,Personalwesen / Personalbeschaffung,1,{'31-10-2024': 209}
14895,Bodan,DE,Germany,88662,Überlingen,Mid (≤250),101-250,Trade / Consumption,Handel / Konsum,5,"{'30-06-2024': 583, '30-09-2017': 496}"
44709,Bodengraf GmbH,AT,Austria,5322,Hof/Salzburg,Micro (≤10),1-2,Nutrition / Agriculture / Forestry,Nahrungsmittel / Land /  Forstwirtschaft,1,{'30-09-2017': 543}
135335,borisgloger consulting gmbh,DE,Germany,60327,Frankfurt am Main,Mid (≤250),51-100,Consulting,Beratung / Consulting,1,
92469,Bornholm,DK,Denmark,3760,Gudhjem,Micro (≤10),1-2,Other,Sonstige,,
62105,BOS Balance of Storage Systems,DE,Germany,89231,Neu-Ulm,Small (≤50),26-50,Electrical / Electronics,Elektro / Elektronik,1,{'31-10-2024': 218}
36506,BOSSE WESTPHAL SCHÄFFER Architekten und Sachverständige PartGmbB,DE,Germany,21423,Winsen/Luhe,Micro (≤10),3-10,Construction / Architecture,Baugewerbe / Architektur,1,{'31-12-2017': 423}
17821,Braucommune in Freistadt,AT,Austria,4240,Freistadt,Small (≤50),26-50,Nutrition / Agriculture / Forestry,Nahrungsmittel / Land /  Forstwirtschaft,1,{'31-05-2022': 519}
25791,Brauerei Gutmann,DE,Germany,85135,Titting,Small (≤50),26-50,Nutrition / Agriculture / Forestry,Nahrungsmittel / Land /  Forstwirtschaft,2,"{'30-04-2023': 276, '28-02-2026': 378}"
122626,Brausen GbR,DE,Germany,09112,Chemnitz,Micro (≤10),1-2,Trade / Consumption,Handel / Konsum,1,{'30-11-2025': 168}
56526,Breinlinger Ingenieure,DE,Germany,18532,Tuttlingen,Mid (≤250),51-100,Construction / Architecture,Baugewerbe / Architektur,1,{'31-12-2023': 496}
27524,Brigitte Göltz – Training und Beratung,DE,Germany,88662,Überlingen,Micro (≤10),1-2,Health / Social Affairs / Nursing,Gesundheitswesen / Soziales / Pflege,1,{'28-02-2023': 345}
90816,BRILLENkammer,DE,Germany,10245,Berlin,Micro (≤10),3-10,Craft,Handwerk,1,{'31-08-2024': 472}
34942,Brumaire Verlag,DE,Germany,10999,Berlin,Micro (≤10),3-10,Media,Medien,1,{'30-09-2023': 321}
14896,BTE Tourismus- und Regionalberatung,DE,Germany,10289,Berlin,Small (≤50),11-25,Tourism / Hotel / Catering,Tourismus / Hotel / Gastronomie,2,"{'31-05-2017': 428, '31-10-2020': 443}"
14668,buch7.de GmbH,DE,Germany,86462,Langweid am Lech,Micro (≤10),3-10,Trade / Consumption,Handel / Konsum,1,{'31-12-2020': 517}
14673,Buchbinderei Fuchs,AT,Austria,5760,Saalfelden,Small (≤50),11-25,Printing / Paper / Packaging,Druck / Papier / Verpackung,1,{'30-04-2021': 260}
163399,Bundesakademie für Kulturelle Bildung Wolfenbüttel e. V.,DE,Germany,38304,Wolfenbüttel,Small (≤50),26-50,Art / Culture / Entertainment,Kunst / Kultur / Unterhaltung,1,
115235,Bunte Burger GmbH,DE,Germany,50825,Köln,Small (≤50),11-25,Tourism / Hotel / Catering,Tourismus / Hotel / Gastronomie,1,{'31-05-2025': 488}
90060,Bureau SoSo – Nachhaltiges Grafikdesign,DE,Germany,51067,Köln,Micro (≤10),1-2,Marketing / Avertising / PR,Marketing / Werbung / PR,1,{'31-03-2025': 382}
20449,Bürger-Energie-Genossenschaft Neuburg-Schrobenhausen-Aichach-Eichstätt eG,DE,Germany,86529,Schrobehausen,Micro (≤10),1-2,Energy,Energiewirtschaft,1,{'30-09-2022': 411}
30106,BürgerEnergieGenossenschaft eG,DE,Germany,58300,Wetter (Ruhr),Micro (≤10),3-10,Energy,Energiewirtschaft,1,
20445,Bürgerenergiegenossenschaft im Landkreis Pfaffenhofen a. d. Ilm eG,DE,Germany,85276,Pfaffenhofen,Micro (≤10),1-2,Energy,Energiewirtschaft,1,{'30-09-2022': 441}
40874,BÜRGERSTIFTUNG PFALZ UND NATURHOTEL STIFTSGUT KEYSERMÜHLE,DE,Germany,76889,Klingenmünster,Micro (≤10),3-10,Tourism / Hotel / Catering,Tourismus / Hotel / Gastronomie,1,{'31-03-2017': 656}
36546,Büro für Erneuerbare Energie Ing. Leo Riebenbauer GmbH,AT,Austria,8243,Pinggau,Micro (≤10),3-10,Energy,Energiewirtschaft,1,{'30-06-2015': 564}
14911,Bürogemeinschaft Sehlbach,DE,Germany,10961,Berlin,Micro (≤10),3-10,Health / Social Affairs / Nursing,Gesundheitswesen / Soziales / Pflege,1,{'30-09-2020': 216}
92379,Buscándome Las Habichuelas (BLH),ES,Spain,38206,La Laguna,,,Other,Sonstige,,
41064,Business School Lausanne,CH,Switzerland,1022,Chavannes,Small (≤50),26-50,Education / University / Polytechnic / Schools,Bildung / Universität / FH / Schulen,1,{'31-10-2016': 461}
124365,Business-health,DE,Germany,13507,Berlin,Micro (≤10),1-2,Consulting,Beratung / Consulting,1,{'31-08-2025': 313}
36749,Busse Franchise Kommunikation,DE,Germany,22453,Hamburg,Micro (≤10),1-2,Consulting,Beratung / Consulting,1,
126586,CAES – Consorzio Assicurativo Etico Solidale,IT,Italy,20148,Milano,Micro (≤10),3-10,Waste Disposal,Abfallentsorgung,1,{'01-06-2025': 670}
41321,Café Chrysander,DE,Germany,21029,Hamburg,Micro (≤10),3-10,Other,Sonstige,1,{'31-10-2023': 206}
14775,Cafe Pausenraum,DE,Germany,79108,Freiburg,Micro (≤10),1-2,Services,Dienstleistung,1,{'31-12-2020': 642}
40892,camera obscura GmbH,DE,Germany,10707,Berlin,Micro (≤10),1-2,Media,Medien,1,{'31-08-2023': 480}
124487,camera obscura GmbH,DE,Germany,10707,Berlin,Micro (≤10),3-10,Marketing / Avertising / PR,Marketing / Werbung / PR,1,{'31-08-2025': 202}
64668,Campus National,BE,Belgium,2000,Antwerpen,Micro (≤10),3-10,Education / University / Polytechnic / Schools,Bildung / Universität / FH / Schulen,1,{'30-06-2024': 524}
92511,Can Cet,ES,Spain,08918,Badalona,Micro (≤10),1-2,Other,Sonstige,1,{'25-07-2016': 624}
14897,Cappel,AT,Austria,9991,Dölsach,Micro (≤10),1-2,Consulting,Beratung / Consulting,1,{'31-10-2020': 591}
19285,Cappelletti + Bongiovanni Srl,IT,Italy,47013,Dovadola,Micro (≤10),3-10,Craft,Handwerk,1,{'30-01-2021': 472}
84326,Capri HotelbetriebsGmbH & Co KG,AT,Austria,1020,Wien,Small (≤50),11-25,Tourism / Hotel / Catering,Tourismus / Hotel / Gastronomie,2,"{'28-02-2021': 398, '31-12-2024': 410}"
36659,cardamom,AT,Austria,8160,Weiz,Micro (≤10),3-10,Consulting,Beratung / Consulting,1,{'31-07-2016': 772}
57026,CariKids gGmbH,DE,Germany,50825,Köln,Mid (≤250),51-100,Education / University / Polytechnic / Schools,Bildung / Universität / FH / Schulen,1,{'29-02-2024': 492}
84555,Caritasverband Arnsberg-Sundern e.V.,DE,Germany,59821,Arnsberg,Large (>250),>250,Health / Social Affairs / Nursing,Gesundheitswesen / Soziales / Pflege,1,{'31-12-2024': 324}
73439,Caritasverband für den Landkreis Emmendingen e.V.,DE,Germany,79312,Emmendingen,Mid (≤250),101-250,Health / Social Affairs / Nursing,Gesundheitswesen / Soziales / Pflege,1,{'30-09-2024': 355}
118354,Caritasverband Köln,DE,Germany,50825,Köln,Large (>250),1001-2500,Health / Social Affairs / Nursing,Gesundheitswesen / Soziales / Pflege,1,{'31-05-2025': 336}
87407,Caritasverband Paderborn e.V.,DE,Germany,33098,Paderborn,Large (>250),>250,Health / Social Affairs / Nursing,Gesundheitswesen / Soziales / Pflege,1,{'31-08-2024': 379}
90809,Carry Products GmbH,DE,Germany,10777,Berlin,Micro (≤10),3-10,Trade / Consumption,Handel / Konsum,1,{'31-08-2024': 488}
14759,castello – Wohlfühlhotel in Königsleiten,AT,Austria,5742,Wald im Pinzgau,Micro (≤10),3-10,Tourism / Hotel / Catering,Tourismus / Hotel / Gastronomie,1,{'31-12-2021': 400}
14828,"Catucho GbR (Ulrike &Laura Eckhardt), Rösterei",DE,Germany,27333,Bücken,Micro (≤10),1-2,Nutrition / Agriculture / Forestry,Nahrungsmittel / Land /  Forstwirtschaft,1,
14829,CCC Druck und Medien GmbH,DE,Germany,48147,Münster,Small (≤50),11-25,Internet / Multimedia,Internet / Multimedia,1,
92525,Centro de psicología y Coaching Valencia S.L.,ES,Spain,46183,L’Eliana,Micro (≤10),1-2,Other,Sonstige,1,{'31-12-2023': 215}
117424,Centro Papa Giovanni XXIII Soc. Cooperativa Soc,IT,Italy,60131,Ancona,Small (≤50),26-50,Health / Social Affairs / Nursing,Gesundheitswesen / Soziales / Pflege,1,{'05-05-2024': 383}
117428,Cha Maria Srl Società Benefit,IT,Italy,10020,Lauriano TO,Small (≤50),26-50,Health / Social Affairs / Nursing,Gesundheitswesen / Soziales / Pflege,1,{'05-05-2024': 230}
24834,Chemical Check GmbH,DE,Germany,32839,Steinheim,Small (≤50),26-50,Services,Dienstleistung,2,{'31-10-2025': 363}
92387,Chocolates Artesanos Isabel,ES,Spain,44550,Alcorisa,,,Other,Sonstige,,
14929,Christian Felber,AT,Austria,1070,Wien,Micro (≤10),3-10,Other,Sonstige,2,{'31-01-2025': 440}
14898,Christian Jensen Kolleg,DE,Germany,25821,Breklum,Small (≤50),26-50,Education / University / Polytechnic / Schools,Bildung / Universität / FH / Schulen,2,"{'31-12-2017': 447, '28-02-2021': 528}"
90051,Christian Jensen Kolleg gemeinnützige GmbH Breklum,DE,Germany,25821,Breklum,Small (≤50),11-25,Education / University / Polytechnic / Schools,Bildung / Universität / FH / Schulen,1,{'31-07-2025': 589}
133954,Christian Rüther e.U.,AT,Austria,1070,Wien,,,Consulting,Beratung / Consulting,3,{'31-05-2017': 547}
124336,Christine Ehlers-werterleben,DE,Germany,10555,Berlin,Micro (≤10),1-2,Consulting,Beratung / Consulting,1,{'31-08-2025': 313}
14783,"Christof Bader KG – Fliesen, Kachelöfen, Natursteine",AT,Austria,5640,Bad Gastein,Micro (≤10),3-10,Construction / Architecture,Baugewerbe / Architektur,1,{'31-12-2021': 508}
37751,Christoph Spahn,DE,Germany,76332,Bad Herrenalb,Micro (≤10),1-2,Consulting,Beratung / Consulting,1,{'30-12-2015': 529}
14766,"cibaria GmbH, ökologisch-biologische Vollkornbäckerei",DE,Germany,48155,Münster,Small (≤50),26-50,Craft,Handwerk,3,"{'28-02-2019': 630, '30-11-2021': 635, '30-04-2024': 639}"
92343,Circuitos Aljarafe,ES,Spain,41960,Gines,,,Other,Sonstige,,
59060,Claudia Schleicher | Engagement & Change,DE,Germany,40627,Düsseldorf,Micro (≤10),1-2,Consulting,Beratung / Consulting,1,{'29-02-2024': 386}
92437,Club de Fútbol Popular Orihuela Deportiva,ES,Spain,03300,Orihuela,,,Other,Sonstige,,
14816,CMP Competent Management Partners AG,CH,Switzerland,6333,Hünenberg See,Micro (≤10),1-2,Consulting,Beratung / Consulting,3,"{'31-10-2019': 546, '31-12-2021': 521, '30-06-2025': 549}"
34187,Coaching Zahn,DE,Germany,83301,Traunreut,Micro (≤10),1-2,Services,Dienstleistung,1,{'30-06-2023': 300}
163181,COMES e.V.,DE,Germany,13055,Berlin,Mid (≤250),101-250,Health / Social Affairs / Nursing,Gesundheitswesen / Soziales / Pflege,1,
30127,Condrobs e.V.,DE,Germany,81673,München,Large (>250),>250,Health / Social Affairs / Nursing,Gesundheitswesen / Soziales / Pflege,1,
14989,confideon Unternehmensberatung GmbH,DE,Germany,10823,Berlin,Small (≤50),11-25,Consulting,Beratung / Consulting,2,"{'31-07-2022': 489, '30-11-2025': 493}"
93959,ConPlusUltra GmbH,AT,Austria,3100,St. Pölten,Small (≤50),26-50,Consulting,Beratung / Consulting,1,{'30-11-2024': 487}
14769,conSalis e.Gen.,AT,Austria,5020,Salzburg,Micro (≤10),3-10,Consulting,Beratung / Consulting,1,{'28-02-2021': 518}
14738,Contecta immobilienvewwaltung GmbH,DE,Germany,86156,Augsburg,Small (≤50),11-25,Real Estate / Facility Management,Immobilien / Facility Management,1,{'30-09-2022': 246}
84610,Content5 AG,DE,Germany,81541,München,Small (≤50),11-25,Consulting,Beratung / Consulting,1,{'31-07-2024': 243}
14931,CONTIGO Fairtrade GmbH,DE,Germany,37079,Göttingen,Mid (≤250),101-250,Trade / Consumption,Handel / Konsum,1,{'31-12-2021': 847}
36656,Cornelia Burth,DE,Germany,23056,Hamburg,Micro (≤10),1-2,Consulting,Beratung / Consulting,1,{'28-02-2016': 313}
44720,Corona Bürotechnik GmbH,DE,Germany,12681,Berlin,Micro (≤10),3-10,Electrical / Electronics,Elektro / Elektronik,1,{'30-06-2023': 510}
30962,corsus corporate sustainability GmbH,DE,Germany,22765,Hamburg,Micro (≤10),3-10,Consulting,Beratung / Consulting,3,"{'31-07-2017': 468, '30-06-2018': 671, '30-04-2023': 580}"
153840,corsus corporate sustainability GmbH,DE,Germany,20459,Hamburg,Large (>250),2501-5000,Consulting,Beratung / Consulting,1,
14669,"Cosyma, EPU",DE,Germany,70599,Stuttgart,Micro (≤10),1-2,Consulting,Beratung / Consulting,3,"{'31-10-2020': 567, '31-03-2024': 630}"
92403,Coworking Nomad,ES,Spain,38002,Santa Cruz de Tenerife,,,Other,Sonstige,2,
62168,cramer & müller service GmbH & Co. KG / cramer müller & partner consulting PartG,DE,Germany,60323,Frankfurt am Main,Micro (≤10),3-10,Consulting,Beratung / Consulting,1,{'31-03-2024': 310}
92409,CREARQCIO COOP. V,ES,Spain,46008,Valencia,,,Other,Sonstige,,
44713,Createur de Interieur – Ing. Christian Supola,AT,Austria,7022,Schattendorf,Micro (≤10),1-2,Craft,Handwerk,1,{'31-03-2016': 484}
45149,CRM – Coastal Research & Management,DE,Germany,24159,Kiel,Micro (≤10),3-10,Other,Sonstige,1,{'31-01-2024': 394}
104639,CrossmarX,NL,Netherlands,1001 GD,Amsterdam,Micro (≤10),3-10,Telecommunication,Telekommunikation,1,{'31-03-2025': 432}
92419,Crowd Spain S.L,ES,Spain,38002,Santa Cruz de Tenerife,,,Other,Sonstige,,
40169,Ctn Consulting,AT,Austria,6130,Schwaz,Micro (≤10),1-2,Consulting,Beratung / Consulting,1,{'31-07-2023': 309}
92363,Cuinatur,ES,Spain,12005,Castellón de la Plana,,,Other,Sonstige,2,
14670,Culumnatura,AT,Austria,2115,Ernstbrunn,Small (≤50),11-25,Other,Sonstige,2,"{'31-12-2015': 479, '30-04-2021': 722}"
14830,"Czeczatka, Werner & Partner Steuerberatungsgesellschaft",DE,Germany,35108,Allendorf/Eder,Small (≤50),26-50,Fiscal Advice / Auditing,Steuerberatung / Wirtschaftsprüfung,1,{'30-10-2020': 293}
35297,D-QuESTioN,DE,Germany,16818,Walsleben,,,Education / University / Polytechnic / Schools,Bildung / Universität / FH / Schulen,1,{'30-04-2023': 428}
93961,da-ka hausbetreuungs GmbH,AT,Austria,1220,Wien,Mid (≤250),51-100,Real Estate / Facility Management,Immobilien / Facility Management,1,{'30-11-2024': 571}
140348,Dachstiftung Diakonie,DE,Germany,38518,Gifhorn,Large (>250),2501-5000,Health / Social Affairs / Nursing,Gesundheitswesen / Soziales / Pflege,1,{'31-01-2026': 357}
127566,Dalitz Immobilien GmbH,DE,Germany,53332,Bornheim,Micro (≤10),1-2,Real Estate / Facility Management,Immobilien / Facility Management,1,{'31-05-2025': 340}
104216,Das Diakonische Werk der Evangelischen Landeskirche in Baden e.V.,DE,Germany,76137,Karlsruhe,Mid (≤250),101-250,Health / Social Affairs / Nursing,Gesundheitswesen / Soziales / Pflege,1,{'31-05-2025': 554}
130169,Das Gemüseabo Max Apfelbacher,DE,Germany,53332,Bornheim,Small (≤50),26-50,Trade / Consumption,Handel / Konsum,1,{'31-05-2025': 440}
101888,DAS HELDEN ATELIER,DE,Germany,86504,Merching,Micro (≤10),1-2,Consulting,Beratung / Consulting,1,{'28-02-2025': 272}
45146,DAS ZENTRUM – Marietta Sonja Keller,CH,Switzerland,3048,Worblaufen,Micro (≤10),1-2,Consulting,Beratung / Consulting,1,{'30-06-2015': 219}
102906,Datenschutzberatung Janthur GmbH,DE,Germany,73728,Esslingen,Micro (≤10),3-10,Services,Dienstleistung,1,{'31-01-2025': 312}
62109,Datracon,DE,Germany,70599,Stuttgart,Micro (≤10),1-2,Consulting,Beratung / Consulting,,
64666,de Koer,BE,Belgium,9000,Gent,Micro (≤10),3-10,Art / Culture / Entertainment,Kunst / Kultur / Unterhaltung,1,{'30-06-2024': 546}
44715,De Öko Melkburen GmbH,DE,Germany,24632,Lentföhrden,Micro (≤10),1-2,Nutrition / Agriculture / Forestry,Nahrungsmittel / Land /  Forstwirtschaft,1,{'30-04-2017': 531}
47814,Degree Clothing GmbH,DE,Germany,86511,Schmiechen,Micro (≤10),3-10,Trade / Consumption,Handel / Konsum,1,{'31-10-2023': 342}
92501,Delibera,ES,Spain,08001,Barcelona,Micro (≤10),1-2,Other,Sonstige,1,{'22-07-2016': 581}
14900,Der Fährmann Bestattung und Trauerrituale Bernhard Schöpfer OG,AT,Austria,6410,Telfs,Micro (≤10),3-10,Other,Sonstige,2,"{'31-12-2020': 406, '31-01-2024': 410}"
38694,DER HOLZHOF GmbH  Kunze,AT,Austria,74582,Gerabronn-Dünsbach,Micro (≤10),3-10,Craft,Handwerk,1,{'31-08-2016': 576}
40994,"Der Service Gaertner Gärtnermeister, Reinhard Sperr",AT,Austria,4894,Oberhofen,Micro (≤10),3-10,Nutrition / Agriculture / Forestry,Nahrungsmittel / Land /  Forstwirtschaft,1,{'31-12-2017': 410}
44722,DESIGNKRAFT Werbeagentur,AT,Austria,5026,Salzburg,Micro (≤10),1-2,Marketing / Avertising / PR,Marketing / Werbung / PR,1,{'30-09-2017': 370}
98840,Destination Wattens Regionalentwicklung GmbH,AT,Austria,6112,Wattens,Small (≤50),11-25,Other,Sonstige,1,{'31-03-2025': 403}
55125,Deutsches Theater in Göttingen GmbH,DE,Germany,37073,Göttingen,Mid (≤250),101-250,Art / Culture / Entertainment,Kunst / Kultur / Unterhaltung,1,{'30-11-2023': 426}
47812,deVega Medien GmbH,DE,Germany,86165,Augsburg,Small (≤50),26-50,Printing / Paper / Packaging,Druck / Papier / Verpackung,1,{'31-10-2023': 256}
36827,DI Elke Szalai Planung&Vielfalt,AT,Austria,2700,Wiener Neustadt,Micro (≤10),1-2,Consulting,Beratung / Consulting,1,{'31-03-2016': 588}
36533,DI Siegfried Lerchbaumer,AT,Austria,6700,Bludenz,Micro (≤10),1-2,Construction / Architecture,Baugewerbe / Architektur,1,{'31-12-2014': 534}
14740,Diabetes und Stoffwechselpraxis Wetter,DE,Germany,58300,Wetter (Ruhr),Micro (≤10),3-10,Health / Social Affairs / Nursing,Gesundheitswesen / Soziales / Pflege,1,{'30-06-2021': 151}
75496,Diakonie Düsseldorf e.V.,DE,Germany,40233,Düsseldorf,Large (>250),>250,Other,Sonstige,1,{'31-12-2024': 333}
123176,Diakonie Hasenbergl e. V.,DE,Germany,80933,München,Large (>250),501-1000,Health / Social Affairs / Nursing,Gesundheitswesen / Soziales / Pflege,1,{'30-09-2025': 391}
14954,Diakonie Herzogsägmühle,DE,Germany,86971,Peiting,Large (>250),>250,Health / Social Affairs / Nursing,Gesundheitswesen / Soziales / Pflege,2,"{'31-07-2019': 428, '30-11-2022': 346}"
46983,Diakonieverbund Schweicheln e.V.,DE,Germany,32120,Hiddenhausen,Small (≤50),11-25,Other,Sonstige,2,{'31-10-2023': 395}
132138,Die AboKiste – Werkhof Service GmbH,DE,Germany,44319,Dortmund,Small (≤50),26-50,Trade / Consumption,Handel / Konsum,1,{'02-11-2025': 479}
139906,Die Autoschmiede Ringsberg GmbH,DE,Germany,24977,Ringsberg,Small (≤50),11-25,Craft,Handwerk,1,{'31-01-2026': 335}
52579,Die Bremer Stadtreinigung,DE,Germany,28217,Bremen,Mid (≤250),101-250,Waste Disposal,Abfallentsorgung,1,{'30-04-2024': 358}
14831,die Fleckenbühler Hof Fleckenbühl gGmbH,DE,Germany,35091,Cölbe,Small (≤50),11-25,Health / Social Affairs / Nursing,Gesundheitswesen / Soziales / Pflege,1,{'30-10-2020': 748}
44765,DIE GRÜNEN – GRÜNE ALTERNATIVE TIROL,AT,Austria,6020,Innsbruck,Small (≤50),26-50,Other,Sonstige,1,{'31-12-2015': 718}
44741,Die Grünen im Salzburger Landtag,AT,Austria,5010,Salzburg,Micro (≤10),3-10,Other,Sonstige,1,{'30-09-2017': 639}
44724,Die Grünen Salzburg,AT,Austria,5020,Salzburg,Micro (≤10),3-10,Other,Sonstige,1,{'30-09-2017': 710}
99165,Die Mitmachzentrale e.V.,DE,Germany,70839,Gerlingen,Micro (≤10),1-2,Associations / Societies,Vereine,1,{'31-07-2025': 278}
55987,Die Praxis – Maya Heinrichmeier,DE,Germany,86911,Dießen am Ammersee,Micro (≤10),1-2,Health / Social Affairs / Nursing,Gesundheitswesen / Soziales / Pflege,1,{'21-12-2023': 418}
14762,Die Seitenalm,AT,Austria,5550,Radstadt,Small (≤50),26-50,Tourism / Hotel / Catering,Tourismus / Hotel / Gastronomie,1,
44749,Die Wohnwerkstatt GmbH – Massivholz – Tischlerei Schallmooser,AT,Austria,5020,Salzburg,Micro (≤10),3-10,Craft,Handwerk,1,{'30-09-2017': 762}
14832,Dietzinger+Partner,DE,Germany,83454,Anger,Micro (≤10),3-10,Nutrition / Agriculture / Forestry,Nahrungsmittel / Land /  Forstwirtschaft,1,{'30-10-2020': 539}
14899,Dinkelbeck,DE,Germany,89269,Vöhringen,Micro (≤10),3-10,Nutrition / Agriculture / Forestry,Nahrungsmittel / Land /  Forstwirtschaft,1,
22084,Diözese St. Pölten – Jugendhaus Schacherhof,AT,Austria,3353,Seitenstetten,Micro (≤10),3-10,Other,Sonstige,1,{'30-11-2022': 496}
145526,Dipl.-Ing. H. Bendl GmbH & Co. KG,DE,Germany,89312,Günzburg,Mid (≤250),101-250,Construction / Architecture,Baugewerbe / Architektur,1,{'31-12-2025': 198}
14866,Dirk Posse,DE,Germany,35039,Marburg,Micro (≤10),1-2,Consulting,Beratung / Consulting,1,{'31-05-2020': 507}
53775,DLG – Gemeinnützige Dienstleistungsgesellschaft der Re-gion Weiz G.m.b.H.,AT,Austria,8160,Weiz,Small (≤50),26-50,Health / Social Affairs / Nursing,Gesundheitswesen / Soziales / Pflege,1,{'31-03-2024': 391}
164463,dng die neue gesellschaft,DE,Germany,20354,Hamburg,Micro (≤10),1-2,Services,Dienstleistung,1,
64601,Dödlinger Touristik GmbH,AT,Austria,6391,Fieberbrunn,Small (≤50),11-25,Transport / Logistics,Verkehr / Transport / Logistik,1,{'30-11-2024': 277}
14814,Dorfelektriker Mittelberger GmbH,AT,Austria,6840,Götzis,Mid (≤250),51-100,Electrical / Electronics,Elektro / Elektronik,2,{'31-08-2018': 653}
14833,Dorfladen Häger e.V.,DE,Germany,33824,Werther (Westfalen),Micro (≤10),1-2,Nutrition / Agriculture / Forestry,Nahrungsmittel / Land /  Forstwirtschaft,1,
14744,Dornbirner Sparkasse Bank AG,AT,Austria,6850,Dornbirn,Large (>250),>250,Finance,Finanzen,4,"{'31-10-2016': 340, '30-11-2018': 394, '31-03-2022': 455, '31-05-2024': 484}"
14704,Doro Heckelsmüller,DE,Germany,86899,Landsberg am Lech,Micro (≤10),1-2,Other,Sonstige,1,
22580,doubleSlash Net-Business GmbH,DE,Germany,88046,Friedrichshafen,Mid (≤250),101-250,EDP / IT,EDV / IT,1,{'31-03-2023': 324}
30047,Dr. Alois Mair,AT,Austria,5202,Neumarkt am Wallersee,Micro (≤10),1-2,Health / Social Affairs / Nursing,Gesundheitswesen / Soziales / Pflege,1,
91596,Dr. Arthur Pelchen,DE,Germany,12157,Berlin,Micro (≤10),1-2,Consulting,Beratung / Consulting,1,{'28-02-2025': 534}
90581,Dr. Dr. Behrens Beratung Coaching Training,DE,Germany,70199,Stuttgart,Micro (≤10),1-2,Consulting,Beratung / Consulting,1,{'31-10-2024': 222}
14974,Dr. Gabriele Mönicke,DE,Germany,34134,Kassel,Micro (≤10),1-2,Services,Dienstleistung,1,{'31-05-2022': 386}
41078,Dr. Hingerl & Partner,DE,Germany,85356,München,Micro (≤10),3-10,Consulting,Beratung / Consulting,1,{'31-08-2017': 436}
24528,Dr. Langniß Energie & Analyse,DE,Germany,70176,Stuttgart,Micro (≤10),3-10,Consulting,Beratung / Consulting,1,{'31-01-2023': 371}
37267,Dr. Norbert Wißgott,AT,Austria,3910,Zwettl,Micro (≤10),1-2,Health / Social Affairs / Nursing,Gesundheitswesen / Soziales / Pflege,1,{'30-09-2013': 456}
38150,Dr. Susanne Schmall,DE,Germany,37083,Göttingen,Micro (≤10),1-2,Consulting,Beratung / Consulting,1,{'30-09-2021': 473}
14988,DR. ULRICH WIEK Training & Coaching,DE,Germany,69121,Heidelberg,Micro (≤10),1-2,Consulting,Beratung / Consulting,1,{'30-09-2022': 205}
129564,Drachenstube,DE,Germany,85560,Ebersberg,Micro (≤10),1-2,Trade / Consumption,Handel / Konsum,1,{'31-12-2025': 186}
35676,Dreimäderlhaus,DE,Germany,87629,Füssen-Weissensee,Micro (≤10),3-10,Tourism / Hotel / Catering,Tourismus / Hotel / Gastronomie,1,
28513,DROSG-PLÖCKINGER & PLÖCKINGER OG,AT,Austria,1140,Wien,,,,,,
162155,Druckerei Lokay e.K.,DE,Germany,64354,Reinheim,Small (≤50),26-50,Printing / Paper / Packaging,Druck / Papier / Verpackung,1,
44751,Druckerei Nienstedt GmbH,DE,Germany,22145,Hamburg,Micro (≤10),3-10,Printing / Paper / Packaging,Druck / Papier / Verpackung,1,{'30-04-2017': 428}
14671,Druckerei Zollenspieker,DE,Germany,21073,Hamburg,Micro (≤10),3-10,Printing / Paper / Packaging,Druck / Papier / Verpackung,2,"{'30-04-2017': 607, '31-05-2021': 590}"
38094,dwp eG Fairhandelsgenossenschaft Ravensburg,DE,Germany,88212,Ravensburg,Small (≤50),11-25,Trade / Consumption,Handel / Konsum,1,{'31-12-2015': 674}
37391,DYAS Beratungsges. mbH,DE,Germany,22955,Hoisdorf,Micro (≤10),1-2,Consulting,Beratung / Consulting,1,{'31-07-2023': 418}
14906,Dynamic Governance Führung und Ethik in der Unternehmensentwicklung Petra Ostfeld,DE,Germany,28357,Bremen,Micro (≤10),3-10,Consulting,Beratung / Consulting,1,{'31-12-2020': 424}
46802,e-fect dialog evaluation consulting eG,DE,Germany,10437,Berlin,Micro (≤10),3-10,Consulting,Beratung / Consulting,2,"{'30-06-2019': 616, '31-01-2024': 556}"
15795,EarthWays,BE,Belgium,3010,Kessel-Lo,Micro (≤10),1-2,Consulting,Beratung / Consulting,1,{'31-07-2022': 382}
27428,Easy Mobil GmbH,IT,Italy,39040,Kastelruth,Micro (≤10),1-2,Transport / Logistics,Verkehr / Transport / Logistik,1,{'31-01-2023': 244}
93999,easyconsult GmbH,AT,Austria,1070,Wien,Small (≤50),11-25,EDP / IT,EDV / IT,1,{'30-06-2025': 193}
14936,easySoft. GmbH,DE,Germany,72555,Metzingen,Mid (≤250),51-100,Other,Sonstige,1,{'31-03-2022': 442}
132123,eb24-einfach mehr Service,DE,Germany,44309,Dortmund,Micro (≤10),3-10,Services,Dienstleistung,1,{'25-10-2025': 257}
50170,ECB-Beratung GmbH,DE,Germany,16348,Wandlitz,Micro (≤10),1-2,Consulting,Beratung / Consulting,1,{'30-04-2024': 179}
14672,ECG Ecotopia,SE,Sweden,27392,Tomelilla,Micro (≤10),1-2,Services,Dienstleistung,1,
36666,echoholos,CH,Switzerland,8268,Salenstein,Micro (≤10),1-2,Consulting,Beratung / Consulting,1,{'31-05-2017': 390}
92395,Eco Invéntame,ES,Spain,46230,Alginet,,,Other,Sonstige,,
83988,EcoEmbassy,DE,Germany,85053,Ingolstadt,Micro (≤10),1-2,Consulting,Beratung / Consulting,1,{'31-08-2024': 217}
14792,Ecofit Biofruchtimport GmbH,DE,Germany,70188,Stuttgart,Small (≤50),11-25,Trade / Consumption,Handel / Konsum,1,{'30-11-2021': 349}
14802,Ecosia GmbH,DE,Germany,12047,Berlin,Small (≤50),26-50,Internet / Multimedia,Internet / Multimedia,1,{'31-10-2021': 775}
80267,Edition Progris,DE,Germany,12437,Berlin,Micro (≤10),1-2,Other,Sonstige,1,{'31-12-2024': 488}
14845,Ego Elektrikergenossenschaft,CH,Switzerland,8408,Winterthur,Micro (≤10),3-10,Electrical / Electronics,Elektro / Elektronik,1,
14846,Eigenbetrieb Leben und Wohnen der Landeshauptstadt Stuttgart (ELW),DE,Germany,70565,Stuttgart-Vaihingen,Large (>250),>250,Health / Social Affairs / Nursing,Gesundheitswesen / Soziales / Pflege,1,{'30-12-2019': 408}
14926,Eigenbetrieb Stadtentwässerung Mannheim (EBS Mannheim),DE,Germany,68167,Mannheim,Mid (≤250),101-250,Other,Sonstige,1,
44813,Eissalon Franz Leonardelli KG,AT,Austria,1210,Wien,Micro (≤10),3-10,Tourism / Hotel / Catering,Tourismus / Hotel / Gastronomie,2,"{'30-06-2014': 360, '30-04-2024': 367}"
14847,EL PUENTE GmbH,DE,Germany,31171,Nordstemmen,Small (≤50),26-50,Trade / Consumption,Handel / Konsum,1,{'30-09-2019': 836}
92427,El Sol es vida,ES,Spain,38311,La Orotava,,,Other,Sonstige,,
130850,Elbers Hof GmbH & Co.KG,DE,Germany,29559,Wrestedt,Small (≤50),26-50,Nutrition / Agriculture / Forestry,Nahrungsmittel / Land /  Forstwirtschaft,1,{'31-07-2025': 535}
131810,Elektrizitätswerk Hindelang e.G.,DE,Germany,87541,Bad Hindelang,Small (≤50),11-25,Energy,Energiewirtschaft,1,
14714,elfgen pick gmbh & co. kg,DE,Germany,86152,Augsburg,Micro (≤10),3-10,Media,Medien,2,"{'31-07-2022': 319, '31-07-2025': 286}"
38374,ELVG Bentlage GmbH,AT,Austria,1140,Wien,Small (≤50),11-25,Craft,Handwerk,1,{'30-11-2017': 394}
14849,EM-Chiemgau- Christoph Fischer GmbH,DE,Germany,83071,Stephanskirchen/Högering,Small (≤50),11-25,Trade / Consumption,Handel / Konsum,3,"{'30-10-2020': 639, '31-03-2023': 555, '31-12-2025': 583}"
14850,EM-faktor GmbH – die social profit agentur,DE,Germany,70173,Stuttgart,Small (≤50),11-25,Consulting,Beratung / Consulting,2,"{'31-12-2016': 369, '30-09-2020': 470}"
30132,"embedded linux devices, EXD",AT,Austria,2630,TERNITZ,Micro (≤10),1-2,EDP / IT,EDV / IT,1,{'31-10-2016': 609}
14851,Engel und Brotzge og einfachmoebel,AT,Austria,6971,Hard,Micro (≤10),3-10,Construction / Architecture,Baugewerbe / Architektur,2,"{'30-04-2020': 549, '10-12-2023': 377}"
36671,Engineer M.E. Ing. Markus Eisner,AT,Austria,4030,Linz,Micro (≤10),1-2,Consulting,Beratung / Consulting,1,{'31-03-2016': 318}
92339,Enreda,ES,Spain,41010,Sevilla,,,Other,Sonstige,,
85120,ensian Group GmbH |  elobau GmbH & Co KG,DE,Germany,88299,Leutkirch im Allgäu,Large (>250),>250,Electrical / Electronics,Elektro / Elektronik,4,"{'30-09-2018': 449, '30-06-2020': 449, '31-01-2023': 602, '31-12-2024': 610}"
41022,Entwicklung Gemeinwohl Kunst,CH,Switzerland,8400,Winterthur,Micro (≤10),1-2,Consulting,Beratung / Consulting,1,{'31-01-2024': 385}
55981,Ernährungs-Vitalstoffberatung Lydia Zahn,DE,Germany,86899,Landsberg am Lech,Micro (≤10),1-2,Consulting,Beratung / Consulting,1,{'21-12-2023': 306}
92381,Escuela Ideo,ES,Spain,28049,Alcobendas,,,Other,Sonstige,,
91279,ESN Deutsche Tischtennis Technologie GmbH,DE,Germany,97461,Hofheim in Unterfranken,Mid (≤250),101-250,Chemistry,Chemie,1,{'31-12-2024': 218}
92397,Espais per conviure,ES,Spain,46022,Valencia,,,Other,Sonstige,,
92351,ETIC OnLine S.L.,ES,Spain,46988,Paterna,,,Other,Sonstige,,
92517,Ética patrimonios S.L.U.,ES,Spain,46003,Valencia,Micro (≤10),1-2,Other,Sonstige,1,{'30-10-2019': 625}
92471,Eticus Eticae,ES,Spain,08025,Barcelona,Micro (≤10),1-2,Other,Sonstige,,
40974,ETTL-SOFTWARE GMBH,AT,Austria,4020,Linz,Micro (≤10),3-10,EDP / IT,EDV / IT,1,{'30-12-2013': 595}
46971,Ev. Jugendhilfe Bochum e.V.,DE,Germany,44809,Bochum,Small (≤50),11-25,Education / University / Polytechnic / Schools,Bildung / Universität / FH / Schulen,1,{'31-10-2023': 435}
46969,Ev. Jugendhilfe Geltow e.V.,DE,Germany,14548,Schwielowsee,Small (≤50),26-50,Education / University / Polytechnic / Schools,Bildung / Universität / FH / Schulen,1,{'31-10-2023': 379}
46988,Ev. Jugendhilfe Schweicheln,DE,Germany,32120,Hiddenhausen,Small (≤50),11-25,Education / University / Polytechnic / Schools,Bildung / Universität / FH / Schulen,1,{'31-10-2023': 442}
24525,Eva Dornauer,AT,Austria,6020,Innsbruck,Micro (≤10),1-2,Consulting,Beratung / Consulting,2,"{'15-09-2016': 533, '10-12-2023': 451}"
44955,EVA STEIGER NATURGESTALTUNGEN,AT,Austria,7000,Eisenstadt,Micro (≤10),1-2,Trade / Consumption,Handel / Konsum,1,{'30-12-2015': 526}
39034,Evang. Kirchengemeinde Rosphetal-Mellnau,DE,Germany,35083,Wetter-Oberrosphe,Micro (≤10),1-2,Other,Sonstige,1,{'31-08-2023': 421}
139341,Evangelische Kirchengemeinden Griesheim und Nied,DE,Germany,65934,Frankfurt,Mid (≤250),101-250,Other,Sonstige,1,{'31-12-2025': 381}
22420,Evangelisches Johannesstift Jugendhilfe gGmbH,DE,Germany,13587,Berlin,Large (>250),>250,Health / Social Affairs / Nursing,Gesundheitswesen / Soziales / Pflege,1,{'28-02-2023': 370}
83967,Evelyn Peppler,DE,Germany,91056,Erlangen,Micro (≤10),1-2,Consulting,Beratung / Consulting,1,{'31-08-2024': 365}
139401,Existenzgründerzentrum Ingolstadt GmbH,DE,Germany,85055,Ingolstadt,Micro (≤10),3-10,Consulting,Beratung / Consulting,1,{'30-11-2025': 48}
111469,Experts & Talents Center of HR Excellence GmbH,DE,Germany,04107,Leipzig,Small (≤50),11-25,Consulting,Beratung / Consulting,,
113857,Experts & Talents Center of HR Excellence GmbH,DE,Germany,04107,Leipzig,Small (≤50),11-25,Consulting,Beratung / Consulting,1,{'31-07-2025': 257}
37700,EZ-Akademie | Vitale Menschen Unternehmen Gemeinden (Verein),AT,Austria,3072,Kasten bei Böheimkirchen,Micro (≤10),1-2,Consulting,Beratung / Consulting,1,{'31-05-2017': 462}
14852,F & P Stock Solution GmbH,DE,Germany,14612,Falkensee,Small (≤50),26-50,Trade / Consumption,Handel / Konsum,1,
131651,Fachhochschule Dortmund,DE,Germany,44139,Dortmund,Large (>250),501-1000,Education / University / Polytechnic / Schools,Bildung / Universität / FH / Schulen,1,{'31-01-2026': 422}
14805,Fahnen-Gärtner GmbH,AT,Austria,5730,Mittersill,Mid (≤250),51-100,,,2,"{'31-12-2021': 450, '31-05-2024': 453}"
44753,Fair Handels GmbH,AT,Austria,6020,Innsbruck,Micro (≤10),3-10,Trade / Consumption,Handel / Konsum,1,{'15-09-2016': 630}
96971,fair:möbeln,DE,Germany,83334,Inzell,Micro (≤10),1-2,Consulting,Beratung / Consulting,1,{'31-12-2024': 326}
14953,fairagent Int. FAI UG (haftungsbeschränkt),DE,Germany,13086,Berlin,Micro (≤10),1-2,Real Estate / Facility Management,Immobilien / Facility Management,1,{'30-09-2022': 202}
14726,Fairmittler Stefan Gmeiner e.U.,AT,Austria,6861,Alberschwende,Micro (≤10),1-2,Printing / Paper / Packaging,Druck / Papier / Verpackung,1,{'31-05-2021': 303}
38098,Fairmondo eG,DE,Germany,10999,Berlin,Small (≤50),11-25,Trade / Consumption,Handel / Konsum,1,{'30-11-2016': 648}
30139,Familienferienanlage Gut Nisdorf GmbH,DE,Germany,18445,Nisdorf,Micro (≤10),3-10,Tourism / Hotel / Catering,Tourismus / Hotel / Gastronomie,1,{'30-05-2019': 541}
14742,Farbenmühle mcdrent GmbH & Co.KG,DE,Germany,45468,Mülheim,Micro (≤10),3-10,Construction / Architecture,Baugewerbe / Architektur,1,
35296,"FARCAP Faire Mode gGmbH, Fürth",DE,Germany,90762,Fürth,,,Textile,Textilbranche,2,"{'30-06-2023': 625, '30-09-2025': 647}"
45948,Fastenopfer,CH,Switzerland,6002,Luzern,Small (≤50),26-50,Other,Sonstige,1,{'31-10-2023': 544}
90744,Faunt,DE,Germany,50823,Köln,Micro (≤10),1-2,Trade / Consumption,Handel / Konsum,1,
163006,FBI,NO,,,Minsk,,,,,,
135620,FC St. Pauli von 1910 e.V.,DE,Germany,20359,Hamburg,Large (>250),251-500,Associations / Societies,Vereine,1,{'31-12-2025': 527}
133339,Feelera Srl società benefit,IT,Italy,25122,Brescia,Micro (≤10),3-10,EDP / IT,EDV / IT,1,{'16-06-2024': 194}
111111,Fegerl Consulting Studio Salzburg,AT,Austria,5102,Anthering,Micro (≤10),1-2,Consulting,Beratung / Consulting,1,{'28-02-2025': 299}
37740,Felix Oesch – Beratungen Gallusberg GmbH,CH,Switzerland,9402,Mörschwil,Micro (≤10),1-2,Consulting,Beratung / Consulting,1,{'31-03-2016': 439}
44755,Ferienhof Möller,DE,Germany,24632,Lentföhrden,Micro (≤10),1-2,Tourism / Hotel / Catering,Tourismus / Hotel / Gastronomie,1,{'30-04-2017': 504}
29723,FH Burgenland,AT,Austria,7000,Eisenstadt,Mid (≤250),51-100,Education / University / Polytechnic / Schools,Bildung / Universität / FH / Schulen,2,"{'16-06-2016': 440, '31-05-2019': 473}"
14804,FIBUR GmbH,DE,Germany,10117,Berlin,Micro (≤10),3-10,Insurance,Versicherung,1,{'31-10-2021': 498}
14728,Fischer´s EM-Chiemgau – Christoph Fischer GmbH,DE,Germany,83071,Stephanskirchen,Micro (≤10),1-2,,,,
110257,Flipped Job Market,DK,Denmark,10997,Berlin,Micro (≤10),1-2,Services,Dienstleistung,1,{'31-03-2025': 430}
47495,Flores Farm GmbH,DE,Germany,70180,Stuttgart,,,Nutrition / Agriculture / Forestry,Nahrungsmittel / Land /  Forstwirtschaft,1,{'29-02-2024': 585}
101017,Flotte Karotte,DE,Germany,44866,Bochumg,Small (≤50),26-50,Trade / Consumption,Handel / Konsum,1,{'08-12-2024': 402}
124386,Flower Factory,DE,Germany,10555,Berlin,Micro (≤10),3-10,Trade / Consumption,Handel / Konsum,1,{'31-08-2025': 253}
14815,FnF Mannheimer Gesellschaft zur Förderung von Arbeitsplätzen,DE,Germany,68159,Mannheim,Small (≤50),26-50,Tourism / Hotel / Catering,Tourismus / Hotel / Gastronomie,1,
14776,focus-energie,DE,Germany,79104,Freiburg,Micro (≤10),3-10,Craft,Handwerk,1,{'31-12-2020': 644}
14901,Fohlenhof Astner,AT,Austria,9782,Nikolsdorf,Micro (≤10),1-2,Nutrition / Agriculture / Forestry,Nahrungsmittel / Land /  Forstwirtschaft,2,"{'31-10-2020': 441, '31-10-2023': 463}"
92495,Folgado,ES,Spain,46017,Valencia,Micro (≤10),1-2,Other,Sonstige,1,{'20-10-2022': 547}
23225,followfood GmbH,DE,Germany,88045,Friedrichshafen,Small (≤50),26-50,Nutrition / Agriculture / Forestry,Nahrungsmittel / Land /  Forstwirtschaft,1,{'31-08-2023': 719}
72957,FONDAZIONE MIRAFIORI,IT,Italy,10127,Torino,Micro (≤10),3-10,Health / Social Affairs / Nursing,Gesundheitswesen / Soziales / Pflege,1,{'29-07-2023': 540}
14998,Forst Baden-Württemberg (ForstBW),DE,Germany,72074,Tübingen – Bebenhausen,Large (>250),>250,Nutrition / Agriculture / Forestry,Nahrungsmittel / Land /  Forstwirtschaft,2,"{'31-08-2022': 577, '31-12-2024': 609}"
84747,forStory GmbH,DE,Germany,81539,München,Micro (≤10),3-10,Media,Medien,1,{'31-07-2024': 344}
36697,FORUM BERUFSBILDUNG MÜNCHEN KARL THIESSEN,DE,Germany,83527,Haag i. OB,Small (≤50),11-25,Consulting,Beratung / Consulting,2,"{'31-12-2013': 418, '31-12-2014': 494}"
14801,Forum Futura UG,DE,Germany,10405,Berlin,Micro (≤10),3-10,Seminar / Fair Provider,Seminar- / Messeanbieter,1,{'31-10-2021': 477}
14834,Foto Flausen,AT,Austria,5020,Salzburg,Micro (≤10),1-2,Services,Dienstleistung,1,{'30-03-2021': 393}
143258,FOX & FOX OG,AT,Austria,3231,St. Margarethen an der Sierning,Micro (≤10),1-2,Marketing / Avertising / PR,Marketing / Werbung / PR,1,{'31-10-2025': 151}
127813,Fraktion BÜNDNIS 90/DIE GRÜNEN im Bayerischen Landtag,DE,Germany,81675,München,Mid (≤250),51-100,Other,Sonstige,1,{'31-10-2025': 270}
25435,framtid GmbH,DE,Germany,22299,Hamburg,Micro (≤10),3-10,Insurance,Versicherung,1,{'30-04-2023': 512}
56685,Franz Leonardelli KG,AT,Austria,1210,Wien,Micro (≤10),3-10,Tourism / Hotel / Catering,Tourismus / Hotel / Gastronomie,,
33071,Freiburg Institut,DE,Germany,79106,Freiburg,Micro (≤10),3-10,Consulting,Beratung / Consulting,1,{'31-05-2023': 610}
35657,Freilich Unverpackt – Stefanie Grömmer & Martin Kensy Gbr,DE,Germany,87509,Immenstadt,Micro (≤10),3-10,Trade / Consumption,Handel / Konsum,1,{'31-07-2023': 410}
14835,Frobenius-Foisner-Holzeis Steuerberatung GmbH,DE,Germany,83435,Bad Reichenhall,Micro (≤10),3-10,Fiscal Advice / Auditing,Steuerberatung / Wirtschaftsprüfung,1,{'30-10-2020': 258}
25018,Fugger Reisen KG d. Volgger Werner & Co.,IT,Italy,39049,Sterzing,Micro (≤10),3-10,Transport / Logistics,Verkehr / Transport / Logistik,1,{'21-12-2022': 263}
14975,Führen mit… Urte Töpfer,DE,Germany,10827,Berlin,Micro (≤10),1-2,Consulting,Beratung / Consulting,3,"{'30-10-2019': 451, '31-05-2022': 438, '28-09-2025': 412}"
92481,Fundació Institut Guttman,ES,Spain,08916,Badalona,Micro (≤10),1-2,Other,Sonstige,,
92499,Fundación Horta Sud,ES,Spain,46900,Torrent,Micro (≤10),1-2,Other,Sonstige,1,{'21-03-2017': 685}
72941,Fundraiserperpassione srl sb,IT,Italy,3454,ggrreg,Micro (≤10),3-10,Seminar / Fair Provider,Seminar- / Messeanbieter,1,{'29-07-2023': 478}
133266,Fundraiserperpassione srl sb,IT,Italy,36030,Caldogno (VI),Micro (≤10),1-2,Consulting,Beratung / Consulting,1,{'01-06-2025': 467}
35678,Füssen Tourismus und Marketing,DE,Germany,87629,Füssen,Small (≤50),26-50,Tourism / Hotel / Catering,Tourismus / Hotel / Gastronomie,1,{'31-07-2023': 265}
143130,Futour,DE,Germany,22850,Norderstedt,Micro (≤10),1-2,Tourism / Hotel / Catering,Tourismus / Hotel / Gastronomie,1,{'31-12-2025': 213}
87410,GAB Gesellschaft für Arbeits- und Berufsförderung gGmbH,DE,Germany,33607,Bielefeld,Small (≤50),26-50,Health / Social Affairs / Nursing,Gesundheitswesen / Soziales / Pflege,1,{'31-08-2024': 271}
36711,Gaby Belz GmbH,CH,Switzerland,8032,Zürich,Micro (≤10),1-2,Consulting,Beratung / Consulting,1,{'31-03-2017': 486}
92385,GAE comunidades,ES,Spain,38639,Santa Cruz de Tenerife,,,Other,Sonstige,,
14994,Gandler Risk Management,AT,Austria,5730,Mittersill,Small (≤50),11-25,Insurance,Versicherung,2,{'31-10-2021': 446}
33062,Gardion UG,DE,Germany,79098,Freiburg,Micro (≤10),3-10,EDP / IT,EDV / IT,1,{'31-05-2023': 360}
41039,GartenLeben GmbH,DE,Germany,91161,Hilpoltstein,Micro (≤10),3-10,Nutrition / Agriculture / Forestry,Nahrungsmittel / Land /  Forstwirtschaft,1,{'31-12-2015': 589}
44820,GÄRTNEREI LÖWENZAHN,DE,Germany,86934,Reichling,Micro (≤10),1-2,Nutrition / Agriculture / Forestry,Nahrungsmittel / Land /  Forstwirtschaft,1,{'30-06-2015': 651}
14813,GBG – Mannheimer Wohnungsbaugesellschaft mbH,DE,Germany,68167,Mannheim,Mid (≤250),101-250,Real Estate / Facility Management,Immobilien / Facility Management,1,
29166,Gebäudeservice Wodara GmbH,DE,Germany,12681,Berlin,Mid (≤250),51-100,Services,Dienstleistung,2,{'30-06-2023': 300}
14863,Gebhard Moser,AT,Austria,6713,Ludesch,Micro (≤10),1-2,Consulting,Beratung / Consulting,4,"{'30-11-2014': 267, '31-01-2018': 403, '30-04-2020': 418, '31-05-2023': 409}"
29892,GefAA TELECONSULT UG (haftungsbeschränkt),DE,Germany,12489,Berlin,Micro (≤10),1-2,Consulting,Beratung / Consulting,2,"{'31-12-2017': 247, '31-08-2020': 322}"
14904,Gemeinde Kirchanschöring,DE,Germany,83417,Kirchanschöring,Micro (≤10),3-10,Public Administration,Öffentliche Verwaltung,1,{'31-10-2020': 588}
14928,Gemeinde Mäder,AT,Austria,6841,Mäder,Small (≤50),26-50,Public Administration,Öffentliche Verwaltung,2,"{'31-08-2019': 487, '31-01-2022': 567}"
29889,Gemeinde Nenzing,AT,Austria,6710,Nenzing,Mid (≤250),51-100,Public Administration,Öffentliche Verwaltung,1,{'31-08-2019': 425}
30096,Gemeindeverband für Abfallwirtschaft und Umweltschutz – Umweltverband,AT,Austria,6850,Dornbirn,Micro (≤10),3-10,Public Administration,Öffentliche Verwaltung,1,
78957,GEMEINHARDT SERVICE GmbH,DE,Germany,04741,Roßwein,Small (≤50),26-50,Construction / Architecture,Baugewerbe / Architektur,2,"{'31-10-2022': 377, '31-12-2024': 375}"
82868,Gemeinschaft Sulzbrunn eG,DE,Germany,87477,Sulzbrunn,Micro (≤10),3-10,Other,Sonstige,1,{'31-07-2024': 445}
45011,Gemeinschaft zur Förderung und Vernetzung der freien Künste Bochums e.V.,DE,Germany,44793,Bochum,Micro (≤10),1-2,Art / Culture / Entertainment,Kunst / Kultur / Unterhaltung,1,{'30-11-2023': 425}
62156,Gemeinschaftskrankenhaus Havelhöhe,DE,Germany,14089,Berlin,Large (>250),>250,Health / Social Affairs / Nursing,Gesundheitswesen / Soziales / Pflege,1,{'31-08-2024': 367}
17841,Gemeinwohl-Ökonomie Berlin-Brandenburg e.V.,DE,Germany,10999,Berlin,Micro (≤10),1-2,Associations / Societies,Vereine,1,{'31-08-2022': 422}
22119,Gemeinwohlagentur Rubatscher Dagmar,AT,Austria,6176,Völs,Micro (≤10),1-2,Consulting,Beratung / Consulting,1,{'31-10-2022': 680}
14930,"Gemüsekiste, Hartmann & Rönicke OHG",DE,Germany,30966,Hemmingen,Mid (≤250),51-100,Trade / Consumption,Handel / Konsum,1,
14654,Genusshandwerker,DE,Germany,40235,Düsseldorf,Micro (≤10),1-2,Craft,Handwerk,2,{'31-03-2018': 520}
23246,GeoTeam Gesellschaft für umweltgerechte Land- und Wasserwirtschaft mbH,DE,Germany,95444,Bayreuth,Micro (≤10),3-10,Services,Dienstleistung,2,"{'30-06-2023': 386, '30-09-2025': 464}"
20569,Gerd Lauermann,DE,Germany,22765,Hamburg,Micro (≤10),1-2,Consulting,Beratung / Consulting,2,"{'30-09-2017': 396, '28-02-2023': 539}"
14946,Gerd Pöll,DE,Germany,34128,Kassel,Micro (≤10),1-2,Consulting,Beratung / Consulting,1,{'31-03-2022': 435}
14960,Gerlinde Lamberty,DE,Germany,35083,Wetter-Oberrosphe,Small (≤50),11-25,Consulting,Beratung / Consulting,2,"{'31-01-2022': 334, '01-06-2024': 568}"
14836,germanBroker.net Aktiengesellschaft,DE,Germany,58097,Hagen,Small (≤50),26-50,Finance,Finanzen,2,
14837,Gertec GmbH Ingenieurgesellschaft,DE,Germany,45327,Essen,Small (≤50),11-25,Services,Dienstleistung,2,{'30-09-2024': 375}
54126,Gertruden-Hof,DE,Germany,56575,Weißenthurm,Small (≤50),11-25,Nutrition / Agriculture / Forestry,Nahrungsmittel / Land /  Forstwirtschaft,1,{'29-02-2024': 569}
52993,Geschw. Steiner Felseralm GmbH & Co.KG.,AT,Austria,5562,Obertauern,Micro (≤10),3-10,Tourism / Hotel / Catering,Tourismus / Hotel / Gastronomie,1,{'15-11-2023': 320}
14773,Gesellschaft für angewandte Kommunalforschung,DE,Germany,35037,Marburg,Small (≤50),11-25,Consulting,Beratung / Consulting,3,"{'30-04-2019': 427, '31-10-2021': 529, '31-08-2024': 569}"
125273,Gesellschaft für Wirtschaftsförderung und Stadtentwicklung Göttingen mbH,DE,Germany,37085,Göttingen,Mid (≤250),51-100,Public Administration,Öffentliche Verwaltung,1,{'28-02-2026': 391}
36874,GESVIT Karl Steinwender e.U.,AT,Austria,8322,Fladnitz im Raabtal,Micro (≤10),1-2,Consulting,Beratung / Consulting,1,{'31-12-2015': 323}
14943,Giesinger Biermanufaktur und Spez. Braugesellschaft mbH,DE,Germany,81539,München,Small (≤50),11-25,Craft,Handwerk,1,{'31-07-2022': 246}
14655,Gitta Walchner,DE,Germany,79249,Merzhausen,Micro (≤10),1-2,Consulting,Beratung / Consulting,3,{'31-05-2021': 443}
145512,Gitta Walchner,DE,Germany,79249,Merzhausen,Micro (≤10),1-2,Consulting,Beratung / Consulting,1,{'30-11-2025': 610}
36724,global values,DE,Germany,85614,Kirchseeon,Micro (≤10),1-2,Consulting,Beratung / Consulting,1,{'30-12-2014': 580}
51013,GM Software Systeme GmbH,AT,Austria,5020,Salzburg,Micro (≤10),1-2,EDP / IT,EDV / IT,1,{'31-10-2023': 289}
24842,Goldeimer gGmbH,DE,Germany,20357,Hamburg,Micro (≤10),3-10,Services,Dienstleistung,1,{'30-04-2023': 733}
40896,Goldmund Kommunikation,DE,Germany,13503,Berlin,Micro (≤10),1-2,Media,Medien,1,{'31-08-2023': 440}
165419,Google,DE,Germany,,Minsk,,,,,,
38102,GÖTTIN DES GLÜCKS eG.,AT,Austria,1020,Wien,Micro (≤10),3-10,Trade / Consumption,Handel / Konsum,3,"{'31-12-2014': 636, '31-12-2015': 641, '31-08-2017': 674}"
110900,Göttinger Sport- und Freizeit Verwaltungs GmbH,DE,Germany,37073,Göttingen,Mid (≤250),101-250,Services,Dienstleistung,1,{'28-02-2026': 335}
84129,Gottwald Finanznavigator,DE,Germany,34233,Fuldatal,Micro (≤10),1-2,Consulting,Beratung / Consulting,1,{'30-09-2024': 232}
38692,Graf GmbH,DE,Germany,79400,Kandern,Small (≤50),11-25,Craft,Handwerk,1,{'31-12-2015': 398}
24840,Graf Metternich-Quellen Karl Schöttker KG,DE,Germany,32839,Steinheim,Small (≤50),26-50,Nutrition / Agriculture / Forestry,Nahrungsmittel / Land /  Forstwirtschaft,1,
124473,Gräflich Bernstorff´sche Betriebe,DE,Germany,29471,Gartow,Small (≤50),26-50,Nutrition / Agriculture / Forestry,Nahrungsmittel / Land /  Forstwirtschaft,1,{'31-03-2025': 558}
92377,Grasaica S.L.,ES,Spain,38611,Granadilla,,,Other,Sonstige,,
92369,Green Urban Data SL,ES,Spain,46024,Valencia,,,Other,Sonstige,,
143125,greencentive gUG,DE,Germany,50827,Köln,Micro (≤10),1-2,Services,Dienstleistung,1,{'31-12-2025': 317}
19081,Greenpeace e.V.,DE,Germany,20457,Hamburg,Large (>250),>250,Services,Dienstleistung,2,"{'30-11-2019': 653, '31-10-2022': 707}"
45871,Greenpeace Schweiz,CH,Switzerland,8036,Zürich,Mid (≤250),51-100,Other,Sonstige,1,{'31-10-2023': 731}
133351,Greenplanner srl società benefit,IT,Italy,20139,Milano,Micro (≤10),1-2,Media,Medien,1,
44759,GreenPrint Osttirol e. U.,AT,Austria,9900,Lienz,Micro (≤10),3-10,Printing / Paper / Packaging,Druck / Papier / Verpackung,1,{'31-05-2018': 408}
157021,GREENs Unlimited GmbH,DE,Germany,10967,Berlin,Mid (≤250),51-100,Tourism / Hotel / Catering,Tourismus / Hotel / Gastronomie,1,
64887,GreenWebspace  Riedmatten It Solutions e.U.,AT,Austria,1040,Wien,Micro (≤10),1-2,EDP / IT,EDV / IT,1,{'31-05-2024': 445}
78364,Gregor Meister,DE,Germany,04275,Leipzig,Micro (≤10),1-2,Services,Dienstleistung,1,{'31-08-2024': 422}
29813,Grenzstrom Vindved GmbH & CoKG,DE,Germany,25923,Ellhöft,Micro (≤10),3-10,Energy,Energiewirtschaft,1,{'31-08-2019': 564}
14750,grimm Vermögensberatung,DE,Germany,82538,Geretsried,Micro (≤10),1-2,Finance,Finanzen,1,{'31-07-2021': 570}
44761,GRONAU PHOTOGRAPHIE – Brigitte und Emanuel Gronau GbR,DE,Germany,82362,Weilheim,Micro (≤10),1-2,Consulting,Beratung / Consulting,1,{'31-12-2015': 424}
14838,Gruber+Haumer Landschaftsarchitektur.OG,AT,Austria,6706,Bürs,Micro (≤10),1-2,Construction / Architecture,Baugewerbe / Architektur,1,{'30-04-2020': 568}
19684,Grüne Erde GmbH,AT,Austria,4644,Scharnstein,Large (>250),>250,Trade / Consumption,Handel / Konsum,2,"{'31-01-2019': 749, '30-06-2022': 747}"
82926,Grünland der Bioladen,DE,Germany,29410,Salzwedel,Small (≤50),11-25,Trade / Consumption,Handel / Konsum,1,{'31-12-2024': 327}
92365,Grupo La Plana,ES,Spain,12549,Betxì,,,Other,Sonstige,2,{'31-12-2018': 536}
157458,GT Emission Solutions UG,DE,Germany,47533,Kleve,Small (≤50),11-25,Services,Dienstleistung,1,
36903,Gugler GmbH,AT,Austria,3390,Melk/Donau,Mid (≤250),51-100,Printing / Paper / Packaging,Druck / Papier / Verpackung,2,"{'31-12-2013': 549, '31-08-2024': 531}"
92425,Guia Natura Eco Tourism,ES,Spain,38690,El Retamar,,,Other,Sonstige,,
14933,Gunz Warenhandels GmbH,AT,Austria,6841,Mäder,Mid (≤250),51-100,Trade / Consumption,Handel / Konsum,1,{'31-01-2022': 332}
14839,Gut Sonnenhausen GmbH & Co. KG,DE,Germany,85625,Glonn,Small (≤50),26-50,Tourism / Hotel / Catering,Tourismus / Hotel / Gastronomie,1,{'30-03-2021': 605}
22388,Gute Frücht,AT,Austria,6161,Natters,Micro (≤10),1-2,Nutrition / Agriculture / Forestry,Nahrungsmittel / Land /  Forstwirtschaft,1,{'31-10-2022': 848}
29154,Gute Leute Beratung Brigitte Jacobs-Hombeuel,DE,Germany,53227,Bonn,Micro (≤10),1-2,Consulting,Beratung / Consulting,1,{'31-03-2023': 342}
42107,GWÖ – Gemeinwohl-Ökonomie GmbH,AT,Austria,1060,Wien,Micro (≤10),1-2,Consulting,Beratung / Consulting,1,
45874,GWÖ Schweiz,CH,Switzerland,8400,Winterthur,Micro (≤10),1-2,Other,Sonstige,1,{'31-10-2023': 656}
14840,h+m Garten und Landschaft,DE,Germany,83367,Petting,Micro (≤10),3-10,Nutrition / Agriculture / Forestry,Nahrungsmittel / Land /  Forstwirtschaft,1,{'30-10-2020': 488}
14745,HABICHT+PARTNER,DE,Germany,47800,Krefeld,Micro (≤10),1-2,Printing / Paper / Packaging,Druck / Papier / Verpackung,1,{'30-06-2021': 574}
36525,hamburger immobilienberater Regine Rega-Lindner und Stefan Wendt-Reese GbR,DE,Germany,21147,Hamburg,Micro (≤10),3-10,Construction / Architecture,Baugewerbe / Architektur,1,{'31-01-2018': 464}
23161,Hans Meyer,DE,Germany,12103,Berlin,Micro (≤10),1-2,Real Estate / Facility Management,Immobilien / Facility Management,1,{'31-01-2023': 316}
14812,Hans Stockmar GmbH & Co.KG,DE,Germany,24568,Kaltenkirchen,Small (≤50),26-50,Other,Sonstige,3,"{'30-04-2022': 554, '31-01-2024': 560, '28-02-2026': 597}"
87524,hansekonzept Dirk Rosenstock,DE,Germany,22869,Schenefeld,Micro (≤10),1-2,Consulting,Beratung / Consulting,1,{'30-11-2024': 342}
86947,Hara Do | Institut für Wachstum UG,DE,Germany,51597,Morsbach,Micro (≤10),1-2,Consulting,Beratung / Consulting,1,{'30-09-2024': 336}
14947,Harald Thurner,AT,Austria,5730,Mittersill,Micro (≤10),1-2,Consulting,Beratung / Consulting,3,"{'30-06-2017': 438, '31-12-2021': 426, '28-02-2025': 251}"
118847,"Haus Dschulnigg, Annemarie Kerrer",AT,Austria,5741,Neukirchen,Micro (≤10),1-2,Tourism / Hotel / Catering,Tourismus / Hotel / Gastronomie,1,{'30-04-2025': 354}
77329,Haus Luise,DE,Germany,87672,Roßhaupten,Micro (≤10),1-2,Tourism / Hotel / Catering,Tourismus / Hotel / Gastronomie,2,"{'31-01-2022': 372, '31-07-2024': 496}"
22385,Haus of Commons,AT,Austria,6020,Innsbruck,Micro (≤10),1-2,Real Estate / Facility Management,Immobilien / Facility Management,1,{'31-10-2022': 722}
139403,Haustechnik Hofer GmbH,DE,Germany,84104,Rudelzhausen,Small (≤50),11-25,Craft,Handwerk,1,
35298,"Hauswirtschaftliches Service-Team GmbH, Baiersdorf",DE,Germany,91083,Baiersdorf,,,Services,Dienstleistung,1,{'30-06-2023': 333}
52862,Havelmi eG,DE,Germany,14770,Brandenburg an der Havel,Micro (≤10),1-2,Nutrition / Agriculture / Forestry,Nahrungsmittel / Land /  Forstwirtschaft,1,{'31-03-2024': 438}
35300,HBplus Dinkelscherben GmbH Steuerberatungsgesellschaft,DE,Germany,86424,Dinkelscherben,,,Fiscal Advice / Auditing,Steuerberatung / Wirtschaftsprüfung,1,{'31-07-2022': 142}
32995,Headgate,AT,Austria,6723,Blons,Micro (≤10),1-2,Consulting,Beratung / Consulting,3,"{'31-03-2019': 427, '31-05-2023': 503}"
41060,Heckel Engineering & Projektdienstleistungen neu,DE,Germany,93466,Chamerau,Small (≤50),11-25,Machinery & Plant Engineering,Maschinen- & Anlagenbau,1,{'30-06-2015': 498}
163584,Heiligenfeld GmbH,DE,Germany,97688,Bad Kissingen,Large (>250),501-1000,Health / Social Affairs / Nursing,Gesundheitswesen / Soziales / Pflege,1,
73618,HeimatERBE GmbH,DE,Germany,46236,Bottrop,Micro (≤10),3-10,Nutrition / Agriculture / Forestry,Nahrungsmittel / Land /  Forstwirtschaft,1,{'30-09-2024': 406}
30091,Heinrich Michael Wansch,AT,Austria,5134,Schwand im Innkreis,Micro (≤10),3-10,Craft,Handwerk,1,{'30-09-2018': 330}
14695,Heinz Ziegenbein GmbH & Co. KG,DE,Germany,73614,Schorndorf,Micro (≤10),3-10,Textile,Textilbranche,1,{'31-01-2021': 298}
92349,HELIA Cooperativa Valenciana,ES,Spain,46810,Enguera,,,Other,Sonstige,,
14902,Helmut Kähler,DE,Germany,29223,Celle,Micro (≤10),1-2,Consulting,Beratung / Consulting,1,{'31-03-2020': 300}
132143,Help2007 Dortmund UG (haftungsbeschränkt),DE,Germany,44329,Dortmund,Small (≤50),11-25,Services,Dienstleistung,1,{'02-11-2025': 371}
162456,Henze Boron Nitride Products AG,DE,Germany,87493,Lauben,Mid (≤250),51-100,Industry,Industrie,1,
14732,Herzstück Horgau eG i.G.,DE,Germany,86497,Horgau,Micro (≤10),3-10,Trade / Consumption,Handel / Konsum,1,{'31-07-2022': 243}
124805,Hiestermann & Frömchen GmbH,DE,Germany,35390,Gießen,Micro (≤10),3-10,Market Research,Marktforschung,1,{'31-07-2025': 246}
113802,Hitzacker/Dorf eG,DE,Germany,29456,Hitzacker,Micro (≤10),1-2,Real Estate / Facility Management,Immobilien / Facility Management,1,{'31-03-2025': 714}
30149,HNO Praxis Dr. Ioannis Charalampakis,DE,Germany,84028,Landshut,Micro (≤10),3-10,Pharma,Medizin / Pharma,1,{'31-07-2023': 269}
14923,Hobbyhimmel,DE,Germany,70469,Stuttgart – Feuerbach,Micro (≤10),3-10,Associations / Societies,Vereine,1,{'30-09-2020': 625}
41070,Hochschule Bremen,DE,Germany,28199,Bremen,Small (≤50),11-25,Education / University / Polytechnic / Schools,Bildung / Universität / FH / Schulen,1,{'30-11-2016': 448}
112863,Hof am Weiher AG und Öko- Marktgemeinschaft Saar-Pfalz-Hunsrück GmbH,DE,Germany,66871,Albessen,Small (≤50),26-50,Nutrition / Agriculture / Forestry,Nahrungsmittel / Land /  Forstwirtschaft,1,{'30-06-2025': 644}
97748,Hofbauernhof Laden GbR,DE,Germany,72290,Lossburg,Small (≤50),11-25,Trade / Consumption,Handel / Konsum,1,{'31-12-2024': 315}
51046,Hoffnungszeichen | Sign of Hope e.V.,DE,Germany,78467,Konstanz,Small (≤50),11-25,Services,Dienstleistung,1,{'30-04-2024': 557}
40822,Hofgut Eichigt GmbH,DE,Germany,08626,Eichigt,Mid (≤250),101-250,Nutrition / Agriculture / Forestry,Nahrungsmittel / Land /  Forstwirtschaft,1,{'30-11-2023': 291}
98748,Hofmann & Drews GbR,DE,Germany,18059,Rostock,Micro (≤10),1-2,Tourism / Hotel / Catering,Tourismus / Hotel / Gastronomie,1,{'31-08-2025': 294}
36877,Holger Stützle IT- & Organisationsberatung,DE,Germany,22043,Hamburg,Micro (≤10),1-2,Consulting,Beratung / Consulting,1,{'30-09-2017': 334}
36728,Höller Seminare,AT,Austria,8625,Turnau,Micro (≤10),1-2,Consulting,Beratung / Consulting,1,{'30-04-2016': 619}
24898,Holzer Bus GmbH,IT,Italy,39030,Sexten,Small (≤50),11-25,Transport / Logistics,Verkehr / Transport / Logistik,1,{'21-12-2022': 194}
119258,Holzmanufaktur Rottweil GmbH,DE,Germany,78628,Rottweil,Mid (≤250),51-100,Craft,Handwerk,1,{'30-06-2025': 375}
36730,homann colormanagement,DE,Germany,10365,Berlin,Micro (≤10),1-2,Consulting,Beratung / Consulting,1,{'31-12-2016': 332}
14992,Horst Haas Prototypen,DE,Germany,86932,Pürgen-Lengenfeld,Micro (≤10),3-10,Industry,Industrie,1,{'13-11-2022': 171}
92355,Horta de Rajolar,ES,Spain,12549,Betxí,,,Other,Sonstige,,
84783,Hotel & Restaurant Menge,DE,Germany,59821,Arnsberg,Micro (≤10),3-10,Tourism / Hotel / Catering,Tourismus / Hotel / Gastronomie,1,{'31-12-2024': 305}
40871,Hotel Balance,CH,Switzerland,1922,Les Granges,Micro (≤10),3-10,Tourism / Hotel / Catering,Tourismus / Hotel / Gastronomie,1,{'30-06-2017': 644}
14841,"Hotel Garmischer Hof, Seiwald-von Thurn GmbH",DE,Germany,82467,Garmisch-Partenkirchen,Small (≤50),26-50,Tourism / Hotel / Catering,Tourismus / Hotel / Gastronomie,1,{'30-03-2021': 603}
56298,Hotel Grafenast GmbH,AT,Austria,6136,Pill,Micro (≤10),3-10,Tourism / Hotel / Catering,Tourismus / Hotel / Gastronomie,1,{'24-01-2024': 424}
30317,Hotel Gutshaus Stellshagen,DE,Germany,23948,Stellshagen,Mid (≤250),51-100,Tourism / Hotel / Catering,Tourismus / Hotel / Gastronomie,1,{'30-05-2019': 692}
143250,Hotel Kothmühle GmbH,AT,Austria,3364,Neuhofen an der Ybbs,Small (≤50),26-50,Tourism / Hotel / Catering,Tourismus / Hotel / Gastronomie,1,{'31-10-2025': 331}
56302,Hotel Leutascherhof – Wandl OHG,AT,Austria,6105,Leutasch,Small (≤50),11-25,Tourism / Hotel / Catering,Tourismus / Hotel / Gastronomie,1,{'24-01-2024': 409}
52985,Hotel Melanie GmbH,AT,Austria,5071,Wals,Micro (≤10),3-10,Tourism / Hotel / Catering,Tourismus / Hotel / Gastronomie,1,{'15-11-2023': 331}
126575,Hotel Olympic Srl SB,IT,Italy,38036,San Giovanni di Fassa – Vigo (TN),Small (≤50),11-25,Tourism / Hotel / Catering,Tourismus / Hotel / Gastronomie,1,{'12-12-2024': 277}
56309,Hotel Steineggerhof Resch Kurt & CoKG,IT,Italy,39053,Steinegg,Small (≤50),11-25,Tourism / Hotel / Catering,Tourismus / Hotel / Gastronomie,1,{'31-12-2023': 419}
14985,Hotel Villa Orange,DE,Germany,60318,Frankfurt,Small (≤50),11-25,Tourism / Hotel / Catering,Tourismus / Hotel / Gastronomie,1,{'31-12-2021': 551}
92367,Hotel Voramar,ES,Spain,12560,Benicassim,,,Other,Sonstige,2,
52990,Hotel zur Post GmbH,AT,Austria,5020,Salzburg,Micro (≤10),3-10,Tourism / Hotel / Catering,Tourismus / Hotel / Gastronomie,1,{'15-11-2023': 470}
131825,Hotel-Restaurant Adler e.K.,DE,Germany,87534,Oberstaufen,Small (≤50),26-50,Tourism / Hotel / Catering,Tourismus / Hotel / Gastronomie,1,{'31-07-2025': 196}
14723,hpkj | heilpädagogisch-psychotherapeutische Kinder- und Jugendhilfe e.V.,DE,Germany,80797,München,Mid (≤250),101-250,Health / Social Affairs / Nursing,Gesundheitswesen / Soziales / Pflege,2,"{'31-03-2021': 595, '31-07-2024': 542}"
101128,HPP,AT,Austria,6382,Kirchdorf in Tirol,Micro (≤10),3-10,Trade / Consumption,Handel / Konsum,1,{'31-12-2024': 21}
51682,HR Pioneers GmbH,DE,Germany,50823,Köln,Small (≤50),11-25,Consulting,Beratung / Consulting,1,{'29-02-2024': 289}
14656,Humanistic Management Practices – HMP Gerd Hofielen,DE,Germany,14129,Berlin,Micro (≤10),1-2,Consulting,Beratung / Consulting,4,"{'31-12-2015': 535, '31-05-2017': 466, '28-02-2021': 407, '30-09-2023': 311}"
14748,Husumer Horizonte,DE,Germany,25813,Husum,Mid (≤250),51-100,Health / Social Affairs / Nursing,Gesundheitswesen / Soziales / Pflege,1,{'30-11-2021': 373}
124183,Husumer Horizonte,DE,Germany,25813,Husum,Mid (≤250),101-250,Health / Social Affairs / Nursing,Gesundheitswesen / Soziales / Pflege,1,
135365,Huth Metallbau GmbH & Co. KG,DE,Germany,28719,Bremerhaven,Small (≤50),26-50,Craft,Handwerk,1,
88846,i+m Naturkosmetik Berlin GmbH,DE,Germany,10405,Berlin,Small (≤50),11-25,Trade / Consumption,Handel / Konsum,1,{'30-09-2025': 607}
80269,IB Bernsteinzimmer Immobilienverwaltung GmbH,DE,Germany,13187,Berlin,Micro (≤10),1-2,Real Estate / Facility Management,Immobilien / Facility Management,1,{'31-12-2024': 757}
14959,IBB Ingenieurbüro Bernstetter,DE,Germany,83533,Edling,Micro (≤10),1-2,Consulting,Beratung / Consulting,1,{'31-01-2022': 244}
44781,IBOR AG CNC-Zerspanung,CH,Switzerland,6218,Ettiswil,Small (≤50),11-25,Industry,Industrie,1,{'31-12-2015': 227}
62113,ICF Germany Charter Chapter e.V,DE,Germany,82024,Taufkirchen,Micro (≤10),3-10,Consulting,Beratung / Consulting,,
101568,iCONDU GmbH,DE,Germany,85055,Ingolstadt,Micro (≤10),3-10,Consulting,Beratung / Consulting,1,{'31-07-2025': 420}
157602,IDFS Sp. z o.o.,PL,Poland,60-689,POZNAŃ,Micro (≤10),3-10,EDP / IT,EDV / IT,1,
33281,IFSM,DE,Germany,D-56203,Höhr-Grenzhausen,Micro (≤10),3-10,Consulting,Beratung / Consulting,1,{'30-09-2023': 231}
35299,IFUB GmbH,DE,Germany,80331,München,,,Construction / Architecture,Baugewerbe / Architektur,1,{'30-11-2023': 467}
19536,Ilse Lang,AT,Austria,8051,Lieboch,Micro (≤10),1-2,Consulting,Beratung / Consulting,2,"{'31-12-2015': 485, '30-09-2022': 497}"
135374,Im-jaich oHG,DE,Germany,28789,Bremerhaven,Mid (≤250),101-250,Tourism / Hotel / Catering,Tourismus / Hotel / Gastronomie,1,
92497,Imanol Medrano de Azpeitia,ES,Spain,28014,Madrid,Micro (≤10),1-2,Other,Sonstige,1,{'21-02-2016': 441}
80677,Imdahl-Institut,DE,Germany,78628,Rottweil,Micro (≤10),1-2,Consulting,Beratung / Consulting,1,{'31-07-2024': 448}
44783,Impact Hub Munich GmbH,DE,Germany,81371,München,Micro (≤10),3-10,Other,Sonstige,1,{'31-12-2017': 613}
92435,IMPRESUM GRAFICAS LITOLEMA S.L.,ES,Spain,46006,Valencia,,,Other,Sonstige,1,
61933,IMPROVE-Bildung mit Zukunft,AT,Austria,1220,Wien,Micro (≤10),1-2,Education / University / Polytechnic / Schools,Bildung / Universität / FH / Schulen,1,{'30-04-2024': 245}
50336,IMPULSGEBEREI,DE,Germany,83734,Hausham,Micro (≤10),1-2,Consulting,Beratung / Consulting,1,{'31-10-2023': 334}
140188,IMPULSGEBEREI,DE,Germany,83734,Hausham,Micro (≤10),1-2,Consulting,Beratung / Consulting,1,{'31-12-2025': 495}
126541,Indaco Team,IT,Italy,//,//,Micro (≤10),3-10,Consulting,Beratung / Consulting,2,"{'12-05-2023': 336, '01-06-2025': 311}"
14796,INFO GmbH,DE,Germany,35423,Lich,Micro (≤10),3-10,Consulting,Beratung / Consulting,3,"{'31-12-2021': 310, '31-12-2023': 493, '31-12-2025': 554}"
92347,INFORATGE S.C,ES,Spain,46680,Algemesi,,,Other,Sonstige,,
19540,Ing. Robert Graf Unternehmensberatung,AT,Austria,1230,Wien,Micro (≤10),1-2,Consulting,Beratung / Consulting,1,{'30-09-2022': 422}
14767,Ing. Robert Thoma G.m.b.H.,AT,Austria,5531,Eben/Pg.,Micro (≤10),1-2,Construction / Architecture,Baugewerbe / Architektur,1,{'28-02-2021': 503}
14743,Ingenieurbüro für Bautechnik,DE,Germany,58300,Wetter (Ruhr),Micro (≤10),1-2,Construction / Architecture,Baugewerbe / Architektur,1,
131829,Ingenieurbüro Mayer AG,DE,Germany,87724,Ottobeuren,Mid (≤250),101-250,Construction / Architecture,Baugewerbe / Architektur,1,
36865,Ingenieurbüro Schlagmann,DE,Germany,41460,Neuss,Micro (≤10),1-2,Consulting,Beratung / Consulting,1,{'31-03-2016': 605}
92411,Iniciativas industriales de Tenerife Siglo XXI S.l,ES,Spain,38400,Puerto de la Cruz,,,Other,Sonstige,,
82684,innovia gem GmbH,AT,Austria,6020,Innsbruck,Small (≤50),26-50,Health / Social Affairs / Nursing,Gesundheitswesen / Soziales / Pflege,2,"{'28-02-2021': 623, '31-07-2024': 707}"
33004,inoio gmbh,DE,Germany,20357,Hamburg,Small (≤50),11-25,EDP / IT,EDV / IT,1,{'31-07-2023': 388}
83223,Institut für Nachhaltigkeit – Institute for Sustainability,DE,Germany,90402,Nürnberg,Micro (≤10),1-2,Consulting,Beratung / Consulting,1,{'30-09-2024': 390}
36733,Institut für Zukunftskompetenzen e.U.,AT,Austria,9556,Liebenfels,Micro (≤10),1-2,Consulting,Beratung / Consulting,1,
92483,Institut Provençana,ES,Spain,08901,L’Hospitalet de Llobregat,Micro (≤10),1-2,Other,Sonstige,,
14739,Integra e.V.,DE,Germany,58300,Wetter,Mid (≤250),51-100,Associations / Societies,Vereine,1,{'30-06-2021': 443}
160753,integrate-it Netzwerke GmbH,DE,Germany,13355,Berlin,Small (≤50),26-50,EDP / IT,EDV / IT,1,
44785,Intercoiffeur Erich,AT,Austria,8184,Anger,Micro (≤10),3-10,Craft,Handwerk,1,{'08-04-2014': 619}
129566,Interfacewerk GmbH,DE,Germany,91230,Happurg,Small (≤50),11-25,EDP / IT,EDV / IT,1,{'31-12-2025': 502}
36906,interlink marketing e. U. Anna Oladejo,AT,Austria,1220,Wien,Micro (≤10),1-2,Consulting,Beratung / Consulting,1,{'30-11-2018': 368}
76896,International School Augsburg -ISA- gAG,DE,Germany,86152,Augsburg,Mid (≤250),51-100,Education / University / Polytechnic / Schools,Bildung / Universität / FH / Schulen,1,{'31-01-2025': 278}
29821,Irene Müller,NL,Netherlands,3551,Utrecht,Micro (≤10),1-2,Construction / Architecture,Baugewerbe / Architektur,1,{'30-09-2019': 380}
133344,IRIS Soc. Coop. Agricola,IT,Italy,26030,Calvatone (CR),Micro (≤10),3-10,Nutrition / Agriculture / Forestry,Nahrungsmittel / Land /  Forstwirtschaft,1,{'16-06-2024': 546}
92433,ISABA PROJETS S.A.,ES,Spain,46290,Alcàsser,,,Other,Sonstige,,
32425,Ivo Knoll,AT,Austria,9500,Villach,Micro (≤10),1-2,Services,Dienstleistung,1,{'31-08-2023': 344}
78324,JanKoTec – Zukunft. Nachhaltig. Gestalten.,DE,Germany,07646,Weißbach,Micro (≤10),1-2,Consulting,Beratung / Consulting,1,{'30-09-2024': 357}
14657,Jaritz- Welten verbinden,AT,Austria,9020,Klagenfurt am Wörthersee,Micro (≤10),1-2,Consulting,Beratung / Consulting,2,{'31-05-2017': 496}
36736,JELINEK AKADEMIE e.U.,AT,Austria,2352,Gumpoldskirchen,Micro (≤10),1-2,Consulting,Beratung / Consulting,1,{'30-06-2015': 301}
44816,Jochen Lindenfeld Agentur für Kommunikation,DE,Germany,60529,Frankfurt am Main,Micro (≤10),1-2,Consulting,Beratung / Consulting,1,{'30-04-2019': 377}
14705,Jochen Siebel,DE,Germany,86899,Landsberg am Lech,Micro (≤10),1-2,Consulting,Beratung / Consulting,2,"{'20-05-2021': 332, '31-07-2023': 456}"
14903,Johanna Paul,DE,Germany,13357,Berlin,Micro (≤10),1-2,Consulting,Beratung / Consulting,4,"{'31-05-2020': 649, '31-05-2023': 391}"
153644,Johannesstift Diakonie Jugendhilfe gGmbH,DE,Germany,13587,Berlin,Large (>250),251-500,Health / Social Affairs / Nursing,Gesundheitswesen / Soziales / Pflege,1,
14843,Jonathan Seminarhotel,DE,Germany,83339,Chieming/Hart,Small (≤50),11-25,Tourism / Hotel / Catering,Tourismus / Hotel / Gastronomie,1,{'31-07-2019': 483}
50759,Josef Sigl e.U.,AT,Austria,5162,Obertrum am See,Small (≤50),26-50,Trade / Consumption,Handel / Konsum,1,
14948,Judith Gunkel Unternehmensberatung,DE,Germany,22309,Hamburg,Micro (≤10),1-2,Services,Dienstleistung,1,{'31-03-2022': 502}
32984,Judith Landes Training – Beratung – Mediation,DE,Germany,83128,Halfing,Micro (≤10),1-2,Consulting,Beratung / Consulting,1,{'30-06-2023': 342}
14658,Jürgen Linsenmaier,DE,Germany,73630,Remshalden,Micro (≤10),1-2,Consulting,Beratung / Consulting,1,{'28-02-2021': 245}
36536,JUSTUS MATTHIAS – ARCHITEKTEN,DE,Germany,14057,Berlin,Micro (≤10),1-2,Construction / Architecture,Baugewerbe / Architektur,1,{'30-11-2016': 414}
30144,Juwelier Ernst-Walter Poser,DE,Germany,41515,Grevenbroich,Micro (≤10),3-10,Trade / Consumption,Handel / Konsum,1,{'31-03-2019': 357}
44787,K.u.F. Drack GmbH & Co KG,AT,Austria,4643,Pettenbach,Small (≤50),26-50,Craft,Handwerk,1,{'31-12-2016': 443}
65212,K2 Engineering GmbH,DE,Germany,38542,Leiferde,Mid (≤250),51-100,Consulting,Beratung / Consulting,1,{'30-06-2024': 284}
36746,KAIROS – WIRKUNGSFORSCHUNG & ENTWICKLUNG GEMEINNÜTZIGE GMBH,AT,Austria,6900,Bregenz,Micro (≤10),3-10,Consulting,Beratung / Consulting,1,{'31-12-2015': 737}
35274,Kaiser & Kühne Freizeitgeräte GmbH,DE,Germany,27324,Eystrup,Mid (≤250),51-100,Other,Sonstige,2,{'30-06-2023': 352}
40219,Kaiser Haus GmbH & Co. KG,DE,Germany,37696,Marienmünster,Micro (≤10),3-10,Construction / Architecture,Baugewerbe / Architektur,1,{'31-05-2023': 79}
14760,Kaiserhof Anif  Hotel-Restaurant-Bar,AT,Austria,5081,Anif,Small (≤50),11-25,Tourism / Hotel / Catering,Tourismus / Hotel / Gastronomie,1,{'31-12-2021': 436}
92505,Kaleidos,ES,Spain,28010,Madrid,Micro (≤10),1-2,Other,Sonstige,1,{'24-05-2018': 612}
29726,Kaltenegger & Partner Architekten ZT GmbH,AT,Austria,8160,Weiz,Micro (≤10),3-10,Construction / Architecture,Baugewerbe / Architektur,1,{'31-07-2016': 680}
65752,Kanzlei Besser Steuerberatungsgesellschaft mbH,DE,Germany,12203,Berlin,Micro (≤10),3-10,Fiscal Advice / Auditing,Steuerberatung / Wirtschaftsprüfung,1,{'31-07-2024': 202}
36527,KARDEA GmbH,AT,Austria,7222,Rohrbach,Micro (≤10),1-2,Construction / Architecture,Baugewerbe / Architektur,1,{'31-12-2015': 341}
14808,Karl Siegel Produktions GmbH & Co. KG,DE,Germany,21682,Stade,Small (≤50),26-50,Industry,Industrie,1,{'30-11-2021': 444}
14659,Karla Schimmel,BE,Belgium,9040,Gent,Micro (≤10),1-2,Consulting,Beratung / Consulting,1,{'21-03-2021': 278}
25482,KarmaKonsum Christoph Harrach,DE,Germany,32805,Horn-Bad Meinberg,Micro (≤10),1-2,Consulting,Beratung / Consulting,1,{'28-02-2023': 501}
36951,Karsten Geisler,DE,Germany,50735,Köln,Micro (≤10),1-2,Media,Medien,1,{'30-11-2023': 353}
41051,Kartoffelkombinat – der Verein e.V.,DE,Germany,80997,München,Small (≤50),11-25,Nutrition / Agriculture / Forestry,Nahrungsmittel / Land /  Forstwirtschaft,1,{'31-12-2017': 712}
101564,Katharina Fiedler,DE,Germany,85072,Eichstätt,Micro (≤10),1-2,Services,Dienstleistung,1,
14844,KBW Katholisches Kreisbildungswerk,DE,Germany,83278,Traunstein,Micro (≤10),3-10,Health / Social Affairs / Nursing,Gesundheitswesen / Soziales / Pflege,1,{'31-07-2019': 400}
80325,Kenneth Alexander Grodotzki,DE,Germany,45468,Mülheim an der Ruhr,Micro (≤10),1-2,Consulting,Beratung / Consulting,1,{'30-09-2024': 278}
83226,Kieferorthopädie Löwenzahn,DE,Germany,96317,Kronach,Micro (≤10),3-10,Health / Social Affairs / Nursing,Gesundheitswesen / Soziales / Pflege,1,{'30-09-2024': 107}
131839,Kiehne GmbH & Co KG,DE,Germany,87527,Ofterschwang,Small (≤50),11-25,Tourism / Hotel / Catering,Tourismus / Hotel / Gastronomie,1,{'31-07-2025': 135}
14941,Kiezbett GbR,DE,Germany,10247,Berlin,Micro (≤10),1-2,Trade / Consumption,Handel / Konsum,1,{'28-02-2022': 751}
46711,Kinder lernen Leben gGmbH,DE,Germany,12629,Berlin,Mid (≤250),101-250,Education / University / Polytechnic / Schools,Bildung / Universität / FH / Schulen,1,{'31-10-2023': 352}
41207,Kirchner Konstruktionen GmbH,DE,Germany,88250,Weingarten,Mid (≤250),101-250,Automotive / Automotive supplier,Automobil / Automobilzulieferer,3,"{'30-06-2015': 247, '26-04-2016': 272, '31-10-2018': 312}"
14752,kiss the inuit,DE,Germany,50670,Köln,Micro (≤10),3-10,Textile,Textilbranche,1,{'30-06-2021': 673}
112044,Kissing und Team GmbH & CO KG,DE,Germany,58706,Menden,Small (≤50),11-25,Trade / Consumption,Handel / Konsum,1,{'30-09-2025': 318}
44856,klasse idee gGmbH,DE,Germany,30655,Hannover,Micro (≤10),3-10,Tourism / Hotel / Catering,Tourismus / Hotel / Gastronomie,1,{'30-09-2016': 462}
110308,Klaus Stuckert GmbH und Co. KG,DE,Germany,30171,Hannover,Micro (≤10),3-10,Craft,Handwerk,1,{'31-10-2025': 281}
38607,Kleeschulte Erden GmbH & Co. KG,DE,Germany,59602,Rüthen,Small (≤50),26-50,Nutrition / Agriculture / Forestry,Nahrungsmittel / Land /  Forstwirtschaft,1,{'31-03-2024': 315}
38107,KLEIDERgrün,AT,Austria,6800,Feldkirch,Micro (≤10),3-10,Trade / Consumption,Handel / Konsum,1,{'30-12-2018': 571}
14964,kleindienst outdoor-assisted-development,AT,Austria,3822,Karlstein,Micro (≤10),1-2,Consulting,Beratung / Consulting,3,"{'30-09-2014': 563, '31-03-2018': 577, '31-05-2022': 495}"
14854,Kleinwechter & Bröker GmbH,DE,Germany,48329,Havixbeck,Small (≤50),11-25,Craft,Handwerk,1,
14967,klien + team Holistische Organisationsberatung,AT,Austria,5303,Thalgau,Micro (≤10),1-2,Consulting,Beratung / Consulting,3,"{'31-03-2016': 563, '31-01-2022': 686, '31-07-2025': 592}"
41522,Klima Kontor – Planung und Beratung GmbH,DE,Germany,22529,Hamburg,Micro (≤10),3-10,Services,Dienstleistung,1,{'31-10-2023': 591}
135372,Klimahaus Betriebsgesellschaft mbH,DE,Germany,28789,Bremerhaven,Mid (≤250),101-250,Tourism / Hotel / Catering,Tourismus / Hotel / Gastronomie,1,
152353,Klinglwirt,DE,Germany,81669,München,Micro (≤10),3-10,Tourism / Hotel / Catering,Tourismus / Hotel / Gastronomie,1,
56534,Kloster Kirchberg – Berneuchener Verein,DE,Germany,7212,Sulz am Neckar,Small (≤50),26-50,Education / University / Polytechnic / Schools,Bildung / Universität / FH / Schulen,1,
36912,KLUFAMILY Familie & Beruf Management GmbH,AT,Austria,1020,Wien,Micro (≤10),1-2,Consulting,Beratung / Consulting,1,{'31-12-2015': 474}
14855,"Knakruegge, Lutz",DE,Germany,79539,Lörrach,Micro (≤10),1-2,Consulting,Beratung / Consulting,3,"{'30-12-2013': 427, '31-05-2020': 406, '30-05-2020': 406}"
44803,KOCHUNDSIMON GbR,DE,Germany,78462,Konstanz,Micro (≤10),1-2,Consulting,Beratung / Consulting,1,{'31-05-2017': 290}
83190,Kollar GmbH,AT,Austria,3180,Lilienfeld,Small (≤50),26-50,Craft,Handwerk,1,{'30-11-2024': 557}
118513,KölnBäder GmbH,DE,Germany,50676,Köln,Large (>250),251-500,Sports / Fitness / Beauty,Sport / Fitness / Beauty,1,{'31-05-2025': 377}
36753,Koloo Projects,AT,Austria,1010,Wien,Micro (≤10),1-2,Consulting,Beratung / Consulting,1,{'30-04-2018': 432}
55127,Kommunale Dienste Göttingen (KDG) kAöR,DE,Germany,37073,Göttingen,Mid (≤250),51-100,Other,Sonstige,1,{'30-11-2023': 342}
14660,Kortz Konfliktspezialisten,DE,Germany,14806,Bad Belzig,Micro (≤10),1-2,Consulting,Beratung / Consulting,2,"{'31-05-2017': 594, '31-01-2021': 627}"
39616,Krämerei am Markt,DE,Germany,57462,Olpe,Micro (≤10),3-10,Trade / Consumption,Handel / Konsum,1,{'31-03-2024': 354}
82407,KREUZER Medien GmbH,DE,Germany,04103,Leipzig,Micro (≤10),3-10,Media,Medien,1,
106077,Križevci Entrepreneurship Center,HR,Croatia,48260,Križevci,Micro (≤10),3-10,Consulting,Beratung / Consulting,1,{'31-08-2025': 238}
33611,kuhs architekten,DE,Germany,79100,Freiburg,Micro (≤10),3-10,Construction / Architecture,Baugewerbe / Architektur,1,{'31-05-2023': 454}
18100,Kulturquartier Münster GmbH,DE,Germany,48157,Münster,Micro (≤10),3-10,Art / Culture / Entertainment,Kunst / Kultur / Unterhaltung,2,"{'28-02-2019': 707, '31-08-2022': 717}"
14784,Kulturverein Schloss Goldegg,AT,Austria,5622,Goldegg,Micro (≤10),3-10,Art / Culture / Entertainment,Kunst / Kultur / Unterhaltung,1,{'31-12-2021': 658}
131833,Kurbetriebe Oberstdorf,DE,Germany,87561,Oberstdorf,Small (≤50),26-50,Tourism / Hotel / Catering,Tourismus / Hotel / Gastronomie,1,{'31-07-2025': 201}
161865,Kurhaus Schärding Barmherzige Brüder,AT,Austria,4780,Schärding am Inn,Mid (≤250),51-100,Tourism / Hotel / Catering,Tourismus / Hotel / Gastronomie,1,
14945,Kurt Egger – eku-konstruktiv,AT,Austria,5201,Seekirchen am Wallersee,Micro (≤10),1-2,Consulting,Beratung / Consulting,3,"{'30-06-2017': 348, '31-12-2021': 557}"
14921,KV&P Unternehmensberatung,DE,Germany,28879,Grasberg,Micro (≤10),3-10,Fiscal Advice / Auditing,Steuerberatung / Wirtschaftsprüfung,1,
14661,La Perla,IT,Italy,39033,Colvara,Mid (≤250),51-100,Tourism / Hotel / Catering,Tourismus / Hotel / Gastronomie,1,
92445,La Urdimbre,ES,Spain,41001,Sevilla,,,Other,Sonstige,,
153690,LABORATORIO ECOTECH S.R.L.,UR,Uruguay,12400,Montevideo,Small (≤50),11-25,Industry,Industrie,1,
89051,Lafim-Diakonie a.V.,DE,Germany,14467,Potsdam,Large (>250),>250,Health / Social Affairs / Nursing,Gesundheitswesen / Soziales / Pflege,1,{'30-11-2024': 330}
92353,Lago Becu SL,ES,Spain,03892,Cocentaina,,,Other,Sonstige,,
62102,lahaye tiedemann gestalten GbR,DE,Germany,89073,Ulm,Micro (≤10),1-2,Marketing / Avertising / PR,Marketing / Werbung / PR,1,{'31-10-2024': 595}
14793,"Landesverband Amateurtheater Baden-Württemberg e.V.,",DE,Germany,70327,Stuttgart,Micro (≤10),3-10,Art / Culture / Entertainment,Kunst / Kultur / Unterhaltung,1,
14662,Landgut Stober Kontor GmbH & Co. Betriebs KG,DE,Germany,14641,Nauen OT Groß Behnitz,Mid (≤250),51-100,Tourism / Hotel / Catering,Tourismus / Hotel / Gastronomie,2,{'30-04-2021': 690}
33279,Landimmobilien,DE,Germany,79780,Stühlingen-Mauchen,Micro (≤10),1-2,Real Estate / Facility Management,Immobilien / Facility Management,1,{'31-05-2023': 454}
25485,Landkreis Marburg-Biedenkopf / Eigenbetrieb Jugend- und Kulturförderung,DE,Germany,35043,Marburg,Micro (≤10),3-10,Public Administration,Öffentliche Verwaltung,1,{'28-02-2023': 332}
78890,lands,DE,Germany,48143,Münster,Micro (≤10),1-2,Services,Dienstleistung,2,"{'28-02-2019': 781, '31-07-2024': 626}"
44809,LANG HOLZWÄRME GMBH,AT,Austria,7023,Pöttelsdorf,Micro (≤10),3-10,Craft,Handwerk,1,{'30-12-2015': 325}
14756,Laube sozial-psychiatrische Aktivitäten GmbH,AT,Austria,5400,Hallein,Mid (≤250),101-250,Health / Social Affairs / Nursing,Gesundheitswesen / Soziales / Pflege,2,"{'06-09-2018': 348, '28-02-2022': 289}"
24522,LEBARTE  Johannes Falch,AT,Austria,6800,Feldkirch,Micro (≤10),3-10,Craft,Handwerk,3,"{'31-05-2016': 567, '30-04-2020': 549, '10-12-2023': 364}"
36531,LebensArt  GbR,DE,Germany,85356,Freising,Micro (≤10),3-10,Construction / Architecture,Baugewerbe / Architektur,1,{'31-12-2017': 685}
25428,Lebenshilfe Brakel gGmbH,DE,Germany,33034,Brakel,Mid (≤250),101-250,Other,Sonstige,1,
82906,Lebenshilfe Ostallgäu-Kaufbeuren e.V.,DE,Germany,87600,Kaufbeuren,Large (>250),>250,Health / Social Affairs / Nursing,Gesundheitswesen / Soziales / Pflege,1,{'31-07-2024': 374}
19870,Lebenshilfe Tirol gem. GmbH,AT,Austria,6020,Innsbruck,Large (>250),>250,Health / Social Affairs / Nursing,Gesundheitswesen / Soziales / Pflege,2,"{'15-09-2016': 542, '28-02-2023': 312}"
30357,Lebensraum Holz GmbH,DE,Germany,83043,Bad Aibling,Micro (≤10),3-10,Construction / Architecture,Baugewerbe / Architektur,1,{'31-08-2019': 303}
79094,Lebuco e.U.,AT,Austria,4040,Linz,Micro (≤10),1-2,Consulting,Beratung / Consulting,1,{'31-03-2025': 355}
52981,Lederer Boutique Hotel,AT,Austria,5710,Kaprun,Micro (≤10),3-10,Tourism / Hotel / Catering,Tourismus / Hotel / Gastronomie,1,{'15-11-2023': 236}
129847,LEDtec GmbH,DE,Germany,33142,Büren,Small (≤50),11-25,Electrical / Electronics,Elektro / Elektronik,2,
112820,Lehm-Laden GmbH & Co. KG,DE,Germany,29456,Hitzacker,Micro (≤10),3-10,Trade / Consumption,Handel / Konsum,1,{'31-03-2025': 651}
20244,Lekido,IT,Italy,39011,Lana,Micro (≤10),1-2,Health / Social Affairs / Nursing,Gesundheitswesen / Soziales / Pflege,1,{'31-05-2021': 152}
14857,Lenz Consulting,AT,Austria,6830,Rankweil,Micro (≤10),1-2,Consulting,Beratung / Consulting,4,"{'10-09-2014': 289, '31-01-2018': 449, '30-04-2020': 459, '31-07-2023': 440}"
163027,Leocor gGmbH,DE,Germany,80997,München,Micro (≤10),3-10,Consulting,Beratung / Consulting,1,
117420,Leotron Srl Società Benefit,IT,Italy,37138,Verona,Small (≤50),11-25,Trade / Consumption,Handel / Konsum,1,{'05-05-2024': 254}
36799,LernSINN erlebBAR e.V.,DE,Germany,14656,Brieselang,Micro (≤10),1-2,Consulting,Beratung / Consulting,1,{'30-11-2016': 612}
14755,"LEWANDOWSKI Beratung, Analyse, Entwicklung",DE,Germany,50674,Köln,Micro (≤10),1-2,Consulting,Beratung / Consulting,2,{'30-09-2020': 640}
127545,LichteGeschichte,DE,Germany,04103,Leipzig,Micro (≤10),1-2,Marketing / Avertising / PR,Marketing / Werbung / PR,1,{'28-09-2025': 314}
14978,Lichtenborner Kräuteer,DE,Germany,37181,Hardegsen-Lichtenborn,Micro (≤10),1-2,Nutrition / Agriculture / Forestry,Nahrungsmittel / Land /  Forstwirtschaft,1,{'31-12-2021': 777}
14733,liesLotte MEDIEN VERLAG,DE,Germany,86169,Augsburg,Micro (≤10),3-10,Media,Medien,2,"{'31-07-2022': 282, '31-07-2023': 406}"
14788,Lilly Deutschland GmbH,DE,Germany,61352,Bad Homburg,Large (>250),501-1000,Health / Social Affairs / Nursing,Gesundheitswesen / Soziales / Pflege,3,"{'31-01-2022': 318, '31-12-2023': 371, '28-02-2026': 428}"
92515,Limonium Canarias SL,ES,Spain,35018,Las Palmas de Gran Canaria,Micro (≤10),1-2,Other,Sonstige,1,{'30-09-2015': 764}
22837,Lindig Coaching-Wachstum-Integraton,DE,Germany,51491,Overath,Micro (≤10),1-2,Consulting,Beratung / Consulting,1,{'31-03-2023': 344}
51855,Liot Kunststofftechnik,AT,Austria,9991,Dölsach,Small (≤50),11-25,Craft,Handwerk,2,"{'31-10-2020': 215, '31-12-2023': 284}"
92487,LMC,ES,Spain,46022,Valencia,Micro (≤10),1-2,Other,Sonstige,1,{'16-06-2016': 470}
93873,Lotta Karotta Bio-Lieferservice OHG,DE,Germany,37130,Gleichen-Rittmarshausen,Small (≤50),26-50,Nutrition / Agriculture / Forestry,Nahrungsmittel / Land /  Forstwirtschaft,1,{'31-10-2024': 411}
23252,Luisenburg Festspiele,DE,Germany,95632,Wunsiedel,Small (≤50),26-50,Art / Culture / Entertainment,Kunst / Kultur / Unterhaltung,1,
19686,Lux Bau GmbH,AT,Austria,3170,Hainfeld,Mid (≤250),101-250,Construction / Architecture,Baugewerbe / Architektur,2,"{'30-06-2022': 399, '30-11-2024': 498}"
36803,LWP Institut Hannover,DE,Germany,30453,Hannover,Micro (≤10),1-2,Consulting,Beratung / Consulting,1,{'30-09-2016': 497}
92429,Mª Jesús Pérez Domínguez,ES,Spain,38003,Santa Cruz de Tenerife,,,Other,Sonstige,,
14858,Maas Naturwaren GmbH,DE,Germany,33334,Gütersloh,Mid (≤250),101-250,Textile,Textilbranche,1,
19279,Macrolibrarsi di Golden Books S.r.l.,IT,Italy,47521,Cesena,Mid (≤250),51-100,Trade / Consumption,Handel / Konsum,1,{'30-01-2021': 418}
36805,Mae Terra – Seminare Anne Tscharmann & Robert Pilak,AT,Austria,7022,Schattendorf,Micro (≤10),1-2,Consulting,Beratung / Consulting,1,{'31-03-2016': 605}
104921,Mag. Daniela Christine Schwaiger,AT,Austria,5400,Hallein,Micro (≤10),1-2,Consulting,Beratung / Consulting,1,{'28-09-2025': 440}
45837,Mag. Dr. Martin Sturmer,AT,Austria,5110,Oberndorf,Micro (≤10),1-2,Marketing / Avertising / PR,Marketing / Werbung / PR,1,
22392,Mag. Michael Zitterl,AT,Austria,6065,Thaur,Micro (≤10),1-2,Consulting,Beratung / Consulting,1,{'31-10-2022': 760}
35301,MAG. VERENA FLORIAN,AT,Austria,1020,Wien,,,Consulting,Beratung / Consulting,1,
19538,Maga Ulli Fejer,AT,Austria,8111,Gratwein-Straßengel,Micro (≤10),1-2,Consulting,Beratung / Consulting,1,{'30-09-2022': 438}
156929,MAJORMAJOR Design Co. Schönbörner – Beerwart Gbr,DE,Germany,70376,Stuttgart,Micro (≤10),1-2,Marketing / Avertising / PR,Marketing / Werbung / PR,1,
44823,MAKAvA delighted GmbH,AT,Austria,8010,Graz,Micro (≤10),3-10,Nutrition / Agriculture / Forestry,Nahrungsmittel / Land /  Forstwirtschaft,1,{'31-07-2016': 624}
14859,Malerei Wülser und Partner GmbH,CH,Switzerland,8405,Winterthur,Small (≤50),11-25,Craft,Handwerk,2,"{'31-12-2015': 446, '30-04-2020': 443}"
44825,Malermeister Andree Antosch,DE,Germany,22769,Hamburg,Small (≤50),11-25,Craft,Handwerk,1,{'30-04-2017': 300}
30355,Malteser Hilfsdienst gemeinnützige GmbH,DE,Germany,83278,Traunstein,Mid (≤250),51-100,Health / Social Affairs / Nursing,Gesundheitswesen / Soziales / Pflege,1,{'31-07-2019': 371}
14860,Malzfabrik,DE,Germany,12103,Berlin,Small (≤50),11-25,Art / Culture / Entertainment,Kunst / Kultur / Unterhaltung,1,
14905,Manfred Jotter – Besser Wirtschaften,DE,Germany,20357,Hamburg,Micro (≤10),1-2,Consulting,Beratung / Consulting,2,"{'31-05-2017': 448, '20-09-2020': 603}"
28515,Manfred Kofranek,AT,Austria,1090,Wien,,,,,3,
163545,Manuela Höfner – Das Aufräumfest,DE,Germany,12555,Berlin,Micro (≤10),1-2,Services,Dienstleistung,1,
44827,MaranVEGAN GmbH,AT,Austria,1060,Wien,Micro (≤10),3-10,Trade / Consumption,Handel / Konsum,1,{'31-12-2018': 655}
40996,Margit  und Josef Mayr-Lamm,AT,Austria,4511,Alhaming,Micro (≤10),3-10,Nutrition / Agriculture / Forestry,Nahrungsmittel / Land /  Forstwirtschaft,2,"{'28-09-2013': 598, '31-03-2016': 638}"
37705,Maria Henkys ShopConsult-NRW,DE,Germany,40597,Düsseldorf-Benrath,Micro (≤10),1-2,Consulting,Beratung / Consulting,1,{'30-11-2015': 543}
64670,Maria-Elisabeth Belpaire,BE,Belgium,2018,Antwerpen,Micro (≤10),1-2,Other,Sonstige,1,{'30-06-2024': 531}
150760,Marianne Voit Coaching-Training-Supervision,DE,Germany,86558,Hohenwart,Micro (≤10),1-2,Consulting,Beratung / Consulting,1,{'31-03-2026': 330}
30151,Marianne Voit-Lipowsky,DE,Germany,86558,Hohenwart,Micro (≤10),1-2,Consulting,Beratung / Consulting,1,{'31-07-2023': 423}
92459,Marketeasing,ES,Spain,08338,Premià de Dalt,Micro (≤10),1-2,Other,Sonstige,,
27489,Märkisches Landbrot GmbH,DE,Germany,12057,Berlin,Small (≤50),26-50,Craft,Handwerk,4,"{'31-03-2015': 652, '31-03-2017': 689, '31-03-2019': 773, '31-10-2023': 756}"
85360,Markt5- Der regionale Concept Store,DE,Germany,59759,Arnsberg,Micro (≤10),1-2,Trade / Consumption,Handel / Konsum,1,{'31-12-2024': 255}
24844,Markthalle Betriebsgesellschaft mbH,DE,Germany,20095,Hamburg,Small (≤50),26-50,Trade / Consumption,Handel / Konsum,1,{'30-04-2023': 298}
32323,Markus Hölzl,DE,Germany,81827,München,Micro (≤10),1-2,Consulting,Beratung / Consulting,1,{'30-04-2023': 281}
14861,Marmed GmbH,DE,Germany,35091,Cölbe,Small (≤50),11-25,Pharma,Medizin / Pharma,1,{'30-10-2020': 458}
124369,Maßstab Diamant GmbH,DE,Germany,32584,Löhne,Small (≤50),26-50,Marketing / Avertising / PR,Marketing / Werbung / PR,1,{'31-08-2025': 193}
14764,Mathias Winkler – Nachhaltige Finanzlösungen,DE,Germany,81543,München,Micro (≤10),1-2,Finance,Finanzen,1,{'31-07-2021': 463}
14735,Mathis Spenglerei GmbH,AT,Austria,6844,Altach,Small (≤50),11-25,Craft,Handwerk,1,{'31-05-2021': 180}
14747,Matthias Brunk,DE,Germany,53129,Bonn,Micro (≤10),1-2,Consulting,Beratung / Consulting,1,{'31-10-2021': 473}
35669,Mattlihaus KG,DE,Germany,87541,Oberjoch,Small (≤50),11-25,Tourism / Hotel / Catering,Tourismus / Hotel / Gastronomie,1,{'31-07-2023': 455}
139399,media4nature GmbH,DE,Germany,90425,Nürnberg,Micro (≤10),1-2,Marketing / Avertising / PR,Marketing / Werbung / PR,1,{'30-11-2025': 141}
48622,Medus des Andreas Gögele & Co. KG,IT,Italy,39012,Meran/o,Small (≤50),11-25,Printing / Paper / Packaging,Druck / Papier / Verpackung,1,{'28-02-2022': 249}
80060,"MehrWert GmbH für Finanzberatung und Vermittlung, Bamberg",DE,Germany,96047,Bamberg,Micro (≤10),3-10,Finance,Finanzen,1,{'31-10-2024': 325}
55101,mehrWerte Unternehmensentwicklung,AT,Austria,1140,Wien,Micro (≤10),1-2,Consulting,Beratung / Consulting,3,{'31-01-2024': 613}
44832,Meierei Horst eG,DE,Germany,25358,Horst (Holstein),Small (≤50),11-25,Nutrition / Agriculture / Forestry,Nahrungsmittel / Land /  Forstwirtschaft,1,{'30-04-2017': 419}
14803,Mein Grundeinkommen e.V. (gemeinnützig),DE,Germany,12053,Berlin,Small (≤50),11-25,Health / Social Affairs / Nursing,Gesundheitswesen / Soziales / Pflege,1,{'31-10-2021': 540}
14862,Mein Kindskopf UG,DE,Germany,83324,Ruhpolding,Micro (≤10),1-2,Health / Social Affairs / Nursing,Gesundheitswesen / Soziales / Pflege,1,{'30-10-2020': 426}
35292,"Meister Küfner Nusseckenmanufaktur, Nürnberg",DE,Germany,90461,Nürnberg,,,Craft,Handwerk,2,"{'30-06-2023': 351, '30-09-2025': 368}"
45835,Meisterfloristik Oberndorf,AT,Austria,5110,Oberndorf,Micro (≤10),3-10,Craft,Handwerk,1,{'30-06-2024': 320}
14817,Melchinger Systemhaus UG (haftungsbeschränkt),DE,Germany,71126,Gäufelden,Micro (≤10),1-2,Consulting,Beratung / Consulting,1,{'31-12-2021': 288}
24896,Mellauner S.r.l.,IT,Italy,39042,Brixen,Micro (≤10),3-10,Transport / Logistics,Verkehr / Transport / Logistik,1,{'31-01-2023': 257}
92465,Mellowmove,PT,Portugal,2640-206,Encarnação,Micro (≤10),1-2,Other,Sonstige,,
36811,mentalenz Corinna Lütsch & Carsten Schaeffer GbR,DE,Germany,22417,Hamburg,Micro (≤10),1-2,Consulting,Beratung / Consulting,1,{'31-07-2017': 399}
82677,Meraner Weinhaus – PUR Südtirol,IT,Italy,39011,Lana,Mid (≤250),51-100,Trade / Consumption,Handel / Konsum,1,
44845,Mercacultura GmbH,AT,Austria,8181,St. Ruprecht an der Raab,Micro (≤10),3-10,Trade / Consumption,Handel / Konsum,1,{'31-07-2016': 541}
163538,Mercè Ardiaca · simultans®,DE,Germany,10961,Berlin,Micro (≤10),1-2,Services,Dienstleistung,1,
29734,Metzler Käse – Molke GmbH,AT,Austria,6863,Egg,Small (≤50),11-25,Nutrition / Agriculture / Forestry,Nahrungsmittel / Land /  Forstwirtschaft,2,"{'31-05-2016': 568, '30-06-2019': 407}"
14790,mg: mannheimer gründungszentren gmbh,DE,Germany,68163,Mannheim,Small (≤50),26-50,Real Estate / Facility Management,Immobilien / Facility Management,1,{'28-02-2022': 230}
14798,Michael Selig – Berater für Organisation und Transformation,DE,Germany,74594,Kreßberg,Micro (≤10),1-2,Consulting,Beratung / Consulting,1,{'31-12-2021': 473}
37755,Michael Vongerichten,DE,Germany,14119,Berlin,Micro (≤10),1-2,Consulting,Beratung / Consulting,1,{'31-03-2017': 478}
37758,Michael Weiss,AT,Austria,8144,Tobelbad,Micro (≤10),1-2,Consulting,Beratung / Consulting,1,{'31-10-2016': 329}
143252,Michael Winkler,AT,Austria,2391,Kaltenleutgeben,Micro (≤10),3-10,Craft,Handwerk,1,{'31-10-2025': 348}
147396,Michaelshof Hepsisau,DE,Germany,"73,235",Weilheim an der Teck,Small (≤50),26-50,Health / Social Affairs / Nursing,Gesundheitswesen / Soziales / Pflege,1,{'31-12-2025': 443}
14961,Mick Petersmann,DE,Germany,20259,Hamburg,Micro (≤10),1-2,Consulting,Beratung / Consulting,1,{'30-04-2022': 525}
22381,mICU-Alps GmbH,AT,Austria,6060,Hall in Tirol,Micro (≤10),3-10,Health / Social Affairs / Nursing,Gesundheitswesen / Soziales / Pflege,1,{'31-10-2022': 653}
80072,"MINOVA Information Services GmbH, Würzburg",DE,Germany,97072,Würzburg,Small (≤50),11-25,EDP / IT,EDV / IT,1,{'31-10-2024': 221}
48630,MITTELBERGER & CO OHG,IT,Italy,39100,Bozen/Bolzano/Bulsan,Small (≤50),11-25,Craft,Handwerk,1,{'30-12-2020': 482}
14809,Mobility Center GmbH,DE,Germany,04107,Leipzig,Small (≤50),11-25,Transport / Logistics,Verkehr / Transport / Logistik,2,"{'31-01-2022': 454, '31-01-2025': 479}"
14725,MobilSpiel e.V.,DE,Germany,81379,München,Small (≤50),26-50,Education / University / Polytechnic / Schools,Bildung / Universität / FH / Schulen,1,{'31-03-2021': 458}
15588,"Möckernkiez Genossenschaft für selbstverwaltetes, soziales und ökologisches Wohnen eG",DE,Germany,10963,Berlin,Micro (≤10),3-10,Real Estate / Facility Management,Immobilien / Facility Management,1,{'30-09-2022': 510}
14995,Mode & Sport Moreau GesmbH,AT,Austria,5710,Kaprun,Small (≤50),11-25,Trade / Consumption,Handel / Konsum,2,"{'31-10-2017': 384, '31-10-2021': 390}"
14940,Moin Bio Backwaren GmbH,DE,Germany,25348,Glückstadt,Small (≤50),26-50,Craft,Handwerk,2,"{'28-02-2022': 533, '31-01-2025': 642}"
75629,mondo buchhandlung,DE,Germany,33602,Bielefeld,Micro (≤10),1-2,Trade / Consumption,Handel / Konsum,1,{'30-11-2024': 348}
30038,Monika Riedl Christallmanufaktur,AT,Austria,5303,Thalgau,Micro (≤10),3-10,Art / Culture / Entertainment,Kunst / Kultur / Unterhaltung,1,{'30-09-2018': 448}
14963,monomeer. Alles ohne Plastik,DE,Germany,78467,Konstanz,Micro (≤10),1-2,Trade / Consumption,Handel / Konsum,1,{'31-05-2022': 443}
44182,Monteverde Cooperativa Sociale di Solidarietà – Onlus,IT,Italy,37030,Badia Calavena,Small (≤50),26-50,Health / Social Affairs / Nursing,Gesundheitswesen / Soziales / Pflege,1,{'12-05-2023': 452}
133262,Monteverde Cooperativa Sociale di Solidarietà – Onlus,IT,Italy,37030,Badia Calavena (VR),Small (≤50),26-50,Health / Social Affairs / Nursing,Gesundheitswesen / Soziales / Pflege,1,
74013,Müller & Mooseder Unternehmensberatung,DE,Germany,85221,Dachau,Micro (≤10),1-2,Consulting,Beratung / Consulting,1,{'30-11-2024': 200}
14663,Müller Bau GmbH & Co KG,AT,Austria,6844,A-Altach,Small (≤50),26-50,Construction / Architecture,Baugewerbe / Architektur,1,{'30-06-2021': 249}
14736,MÜLLER Ofenbau Bertram u. Harald Müller GesnbR,AT,Austria,6713,Ludesch,Micro (≤10),3-10,Craft,Handwerk,1,{'31-05-2021': 297}
78430,müller ofenbau gmbh,AT,Austria,6713,Ludesch,Micro (≤10),3-10,Craft,Handwerk,1,{'30-11-2024': 336}
14864,"Müller, Horst",DE,Germany,81675,München,Micro (≤10),1-2,Consulting,Beratung / Consulting,2,"{'31-12-2015': 614, '31-03-2020': 506}"
33857,München kocht!,DE,Germany,80339,München,Micro (≤10),1-2,Services,Dienstleistung,2,{'30-11-2023': 232}
30299,Münchner Aids- Hilfe e.V.,DE,Germany,80337,München,Small (≤50),26-50,Health / Social Affairs / Nursing,Gesundheitswesen / Soziales / Pflege,1,{'30-11-2019': 456}
46973,Münsterland gGmbH,DE,Germany,48565,Steinfurt,Small (≤50),11-25,Education / University / Polytechnic / Schools,Bildung / Universität / FH / Schulen,1,{'31-10-2023': 487}
56536,Mutpol – Diakonische Jugendhilfe Tuttlingen,DE,Germany,78532,Tuttlingen,Large (>250),>250,Health / Social Affairs / Nursing,Gesundheitswesen / Soziales / Pflege,1,
84899,MYCB1 Group B.V.,NL,Netherlands,1098,XG Amsterdam,Micro (≤10),3-10,Pharma,Medizin / Pharma,1,{'31-01-2025': 187}
143254,myssion consulting gmbh,AT,Austria,1030,Wien,Micro (≤10),3-10,Consulting,Beratung / Consulting,1,{'31-10-2025': 148}
36608,"N-Motion, Röhrle & Henle Partnerschaftsgesellschaft",DE,Germany,89073,Ulm,Micro (≤10),1-2,Consulting,Beratung / Consulting,1,{'31-01-2024': 417}
14955,n.e.s.t. Bauprojektierung und Vermietung AG,DE,Germany,72070,Tübingen,Micro (≤10),1-2,Construction / Architecture,Baugewerbe / Architektur,4,"{'31-05-2022': 506, '30-11-2023': 541, '30-04-2024': 580}"
14810,Nack Büroeinrichtungen GmbH,DE,Germany,22041,Hamburg,Micro (≤10),3-10,Trade / Consumption,Handel / Konsum,1,{'30-11-2021': 395}
36813,Nagl-Pölzer Consulting,AT,Austria,2393,Sittendorf,Micro (≤10),1-2,Consulting,Beratung / Consulting,1,{'30-08-2015': 375}
92399,Natura cultura y servicios ambientales S.L.,ES,Spain,46901,Torrent,,,Other,Sonstige,,
132141,Naturbackstube Kreis e.K.,DE,Germany,44229,Dortmund,Micro (≤10),3-10,Craft,Handwerk,1,{'02-11-2025': 434}
14993,naturblau+++ Die Werteagentur,DE,Germany,78359,Orsingen-Nenzingen,Micro (≤10),3-10,Marketing / Avertising / PR,Marketing / Werbung / PR,2,{'31-05-2017': 522}
35302,nature and progress,DE,Germany,79585,Steinen Endenbzrg,,,Consulting,Beratung / Consulting,1,{'30-04-2023': 490}
35652,Naturerlebniszentrum Allgäu,DE,Germany,87527,Sonthofen,Micro (≤10),1-2,Education / University / Polytechnic / Schools,Bildung / Universität / FH / Schulen,1,{'31-07-2023': 373}
44949,Naturgarten Schönegge Schönegge GmbH,DE,Germany,85405,Nandlstadt,Micro (≤10),3-10,Nutrition / Agriculture / Forestry,Nahrungsmittel / Land /  Forstwirtschaft,1,{'31-12-2017': 732}
92832,Naturkost Elkershausen GmbH,DE,Germany,37079,Göttingen,Mid (≤250),101-250,Trade / Consumption,Handel / Konsum,1,{'31-10-2024': 421}
24848,Naturkost Nord Großhandelsgesellschaft mbH,DE,Germany,21218,Seevetal / Hittfeld,Mid (≤250),51-100,Trade / Consumption,Handel / Konsum,1,{'30-04-2023': 502}
14979,Naturkost Querbeet,DE,Germany,34132,Kassel,Micro (≤10),3-10,Trade / Consumption,Handel / Konsum,1,{'31-12-2021': 744}
14865,natürlich unverpackt,DE,Germany,48145,Münster,Micro (≤10),1-2,Nutrition / Agriculture / Forestry,Nahrungsmittel / Land /  Forstwirtschaft,1,
82913,Naturpark Nagelfluhkette e.V.,DE,Germany,87509,Immenstad-Bühl,Micro (≤10),3-10,Other,Sonstige,1,{'31-07-2024': 371}
56313,Naturresort Gerbehof,DE,Germany,88048,Friedrichshafen,Micro (≤10),3-10,Tourism / Hotel / Catering,Tourismus / Hotel / Gastronomie,1,{'31-12-2023': 536}
140204,NAUST HUNECKE und Partner CPA mbH,DE,Germany,58636,Iselohn,Mid (≤250),51-100,Consulting,Beratung / Consulting,1,{'30-09-2025': 266}
14712,"NAVISANA eG, seit 2019 GbR",DE,Germany,50858,Köln,Micro (≤10),3-10,Health / Social Affairs / Nursing,Gesundheitswesen / Soziales / Pflege,1,{'30-04-2021': 316}
21570,Nell-Breuning-Haus,DE,Germany,52134,Herzogenrath,Small (≤50),26-50,Education / University / Polytechnic / Schools,Bildung / Universität / FH / Schulen,2,"{'31-01-2023': 331, '28-02-2026': 427}"
14771,Nellie Nashorn Soziokultur gGmbH,DE,Germany,79539,Lörrach,Micro (≤10),3-10,Art / Culture / Entertainment,Kunst / Kultur / Unterhaltung,1,{'30-11-2021': 408}
84749,NEST Architekten GbR,DE,Germany,81673,München,Micro (≤10),3-10,Construction / Architecture,Baugewerbe / Architektur,1,{'31-07-2024': 395}
38110,Nets.werk Steyr – Nachhaltig leben,AT,Austria,4400,Steyr,Micro (≤10),1-2,Trade / Consumption,Handel / Konsum,1,{'31-12-2014': 615}
132147,netz.NRW – Verband für Ökologie und soz. Wirtschaften e.V.,DE,Germany,44147,Dortmund,Micro (≤10),3-10,Services,Dienstleistung,1,{'02-11-2025': 568}
68060,Netzwerk Geburt und Familie e.V.,DE,Germany,80337,München,Small (≤50),26-50,Health / Social Affairs / Nursing,Gesundheitswesen / Soziales / Pflege,2,"{'31-03-2021': 527, '31-07-2024': 606}"
129576,Netzwert Partner GmbH,DE,Germany,81476,München,Micro (≤10),3-10,Consulting,Beratung / Consulting,1,{'31-12-2025': 368}
79708,"Neumarkter Lammsbräu, Gebr. Ehrnsperger KG",DE,Germany,92318,Neumarkt,Mid (≤250),101-250,Nutrition / Agriculture / Forestry,Nahrungsmittel / Land /  Forstwirtschaft,1,{'30-09-2024': 577}
160755,nexus Institut GmbH,DE,Germany,12203,Berlin,Small (≤50),11-25,Research / Development / Science,Forschung / Entwicklung / Wissenschaft,1,
36892,Nikolaus Teixeira communications & design,DE,Germany,82049,Pullach,Micro (≤10),1-2,Printing / Paper / Packaging,Druck / Papier / Verpackung,1,{'30-10-2018': 433}
14674,Nils Wittke,DE,Germany,10717,Berlin,Micro (≤10),1-2,Consulting,Beratung / Consulting,2,{'31-05-2021': 515}
37056,Nina Baresch,AT,Austria,2000,Stockerau,Micro (≤10),1-2,Health / Social Affairs / Nursing,Gesundheitswesen / Soziales / Pflege,1,{'31-12-2014': 491}
131662,Nivona Apparate GmbH,DE,Germany,90449,Nürnberg,Mid (≤250),51-100,Trade / Consumption,Handel / Konsum,1,{'31-10-2025': 132}
58436,NL 1,NL,Netherlands,12345,,Mid (≤250),51-100,Construction / Architecture,Baugewerbe / Architektur,,
59391,No Time To Waste (Snew),NL,Netherlands,5281 RE,Boxtel,Small (≤50),11-25,Electrical / Electronics,Elektro / Elektronik,1,{'31-01-2023': 688}
18598,Novatec Consulting GmbH,DE,Germany,70771,Leinfelden-Echterdingen,Mid (≤250),101-250,Consulting,Beratung / Consulting,2,{'31-10-2022': 239}
98918,noventum consulting GmbH,DE,Germany,48155,Münster,Mid (≤250),101-250,Consulting,Beratung / Consulting,1,{'31-07-2025': 263}
14942,NoviTech e.U.,AT,Austria,5020,Salzburg,Micro (≤10),3-10,Trade / Consumption,Handel / Konsum,2,"{'30-09-2017': 416, '31-03-2022': 312}"
61590,nowwork GbR,DE,Germany,70178,Stuttgart,Micro (≤10),1-2,Services,Dienstleistung,1,{'30-09-2024': 427}
112674,Oasia GbR,DE,Germany,29456,Hitzacker,Micro (≤10),1-2,Trade / Consumption,Handel / Konsum,1,{'31-03-2025': 516}
23248,Objekt-Service GmbH,DE,Germany,95497,Goldkronach,Micro (≤10),3-10,Textile,Textilbranche,1,{'30-06-2023': 308}
45955,öbu – der Verband für nachhaltiges Wirtschaften (Verein),CH,Switzerland,8005,Zürich,Micro (≤10),3-10,Other,Sonstige,1,{'31-10-2023': 452}
44998,oceanBASIS GmbH,DE,Germany,24159,Kiel,Small (≤50),11-25,Other,Sonstige,1,{'31-01-2024': 432}
92513,Oceanográfica,ES,Spain,35219,El Goro,Micro (≤10),1-2,Other,Sonstige,2,"{'30-08-2015': 787, '30-10-2020': 767}"
14949,OeAD-WohnraumverwaltungsGmbH,AT,Austria,1010,Wien,Mid (≤250),51-100,Other,Sonstige,6,"{'30-10-2014': 575, '31-03-2018': 541, '31-01-2021': 432, '31-03-2022': 520, '31-03-2024': 527, '30-11-2025': 494}"
14676,Oekofrost,DE,Germany,12109,Berlin,Small (≤50),11-25,Nutrition / Agriculture / Forestry,Nahrungsmittel / Land /  Forstwirtschaft,4,"{'31-03-2014': 520, '31-01-2018': 613, '31-01-2021': 709, '29-02-2024': 718}"
129590,OH LA LAQUA GmbH,DE,Germany,80469,München,Micro (≤10),3-10,Trade / Consumption,Handel / Konsum,1,{'31-12-2025': 168}
20027,OIKOPOLIS Participations SA,LU,Luxembourg,5365,Munsbach,Large (>250),>250,Trade / Consumption,Handel / Konsum,3,"{'31-10-2016': 633, '28-02-2019': 712, '28-02-2023': 669}"
14720,Öko & Fair Umweltzentrum Gauting,DE,Germany,82131,Gauting,Micro (≤10),1-2,Services,Dienstleistung,1,
14677,Ökofairbau,DE,Germany,94116,Hutthurm,Micro (≤10),1-2,Construction / Architecture,Baugewerbe / Architektur,1,{'31-01-2021': 209}
84568,Ökokiste Bosshammersch Hof,DE,Germany,35274,Großseelheim,Small (≤50),26-50,Nutrition / Agriculture / Forestry,Nahrungsmittel / Land /  Forstwirtschaft,1,{'31-12-2024': 668}
101028,Ökokiste Kößnach GmbH & Co. KG,DE,Germany,94356,Kirchroth,Small (≤50),11-25,Trade / Consumption,Handel / Konsum,1,{'31-12-2024': 296}
80062,"Ökokiste Schwarzach e.K., Schwarzach a. Main",DE,Germany,97359,Schwarzach,Small (≤50),11-25,Nutrition / Agriculture / Forestry,Nahrungsmittel / Land /  Forstwirtschaft,1,{'31-10-2024': 424}
144485,Ökologisch-Demokratische Partei  LV Berlin,DE,Germany,10409,Berlin,Large (>250),5001-10000,Other,Sonstige,1,{'31-12-2025': 334}
144356,Ökologisch-Demokratische Partei  ÖDP,DE,Germany,97070,Würzburg,Large (>250),5001-10000,Other,Sonstige,1,{'31-12-2025': 362}
36824,Ökomarkt Verbraucher- und Agrarberatung e.V.,DE,Germany,20259,Hamburg,Micro (≤10),3-10,Consulting,Beratung / Consulting,1,{'28-02-2016': 510}
14678,Ökoring Handels GmbH,DE,Germany,82291,Mammendorf,Mid (≤250),101-250,Trade / Consumption,Handel / Konsum,3,"{'30-06-2015': 541, '31-07-2021': 499, '30-09-2024': 578}"
44858,Oktoberdruck AG,DE,Germany,10245,Berlin,Micro (≤10),3-10,Printing / Paper / Packaging,Druck / Papier / Verpackung,1,{'31-12-2015': 557}
36947,Oliver Kirchhof,DE,Germany,50968,Köln,Micro (≤10),1-2,Consulting,Beratung / Consulting,1,{'30-11-2023': 295}
41902,Oliver Tunnat,DE,Germany,33154,Salzkotten,Micro (≤10),1-2,Consulting,Beratung / Consulting,1,{'30-11-2023': 439}
14679,Omnicert Umweltgutachter GmbH,DE,Germany,93077,Bad Abbach,Micro (≤10),3-10,Consulting,Beratung / Consulting,2,"{'31-01-2021': 502, '28-02-2023': 441}"
64664,Onze-Lieve-Vrouwekathedraal Antwerpen,BE,Belgium,2000,Antwerpen,Small (≤50),11-25,Tourism / Hotel / Catering,Tourismus / Hotel / Gastronomie,1,{'30-06-2024': 326}
14778,Organiced Kitchen,DE,Germany,10557,Berlin,Small (≤50),11-25,Tourism / Hotel / Catering,Tourismus / Hotel / Gastronomie,1,{'28-02-2022': 631}
22589,Organisationsberatung Annelen Schulze Höing,DE,Germany,13469,Berlin,Micro (≤10),1-2,Consulting,Beratung / Consulting,1,{'28-02-2023': 300}
37748,Otto Raich,AT,Austria,4452,Ternberg,Micro (≤10),1-2,Consulting,Beratung / Consulting,1,{'24-03-2016': 306}
14716,Outward Bound gGmbH,DE,Germany,87645,Schwangau,Micro (≤10),3-10,Health / Social Affairs / Nursing,Gesundheitswesen / Soziales / Pflege,1,{'31-07-2022': 316}
44860,OWUS Berlin-Brandenburg e.V.,DE,Germany,10243,Berlin,Micro (≤10),1-2,Associations / Societies,Vereine,1,{'31-12-2017': 522}
72205,P1 Consulting GmbH,DE,Germany,33602,Bielefeld,Micro (≤10),3-10,Consulting,Beratung / Consulting,1,{'31-01-2025': 228}
14782,PAP Pongauer ArbeitsProjekt,AT,Austria,5620,Schwarzach,Small (≤50),26-50,Health / Social Affairs / Nursing,Gesundheitswesen / Soziales / Pflege,1,{'31-12-2021': 583}
40111,PAPERBOATS Lenja Rother,DE,Germany,20251,Hamburg,Micro (≤10),1-2,Consulting,Beratung / Consulting,1,{'30-11-2023': 385}
30305,PARITÄTISCHE Sozialpsychiatrisches Zentrum München gGmbH,DE,Germany,81737,München,Mid (≤250),51-100,Health / Social Affairs / Nursing,Gesundheitswesen / Soziales / Pflege,1,{'30-11-2019': 425}
14680,Parkhotel Frank,DE,Germany,87561,Oberstorf,Mid (≤250),51-100,Tourism / Hotel / Catering,Tourismus / Hotel / Gastronomie,1,{'31-01-2021': 421}
59402,Parktheater Eindhoven,NL,Netherlands,5615 CN,Eindhoven,Mid (≤250),51-100,Art / Culture / Entertainment,Kunst / Kultur / Unterhaltung,1,
92479,Pauma,ES,Spain,31015,Pamplona,Micro (≤10),1-2,Other,Sonstige,,
14741,PCH-Fischer GmbH & Co. KG,DE,Germany,58300,Wetter (Ruhr),Micro (≤10),1-2,Consulting,Beratung / Consulting,1,
14697,Pelzl Beratung & Umsetzung,DE,Germany,28719,Bremen,Micro (≤10),1-2,Consulting,Beratung / Consulting,2,{'31-07-2021': 461}
96610,peppair GmbH,DE,Germany,88239,Wangen im Allgäu,Micro (≤10),1-2,Consulting,Beratung / Consulting,1,{'31-01-2025': 138}
44864,PersonalDock GmbH,DE,Germany,22335,Hamburg,Micro (≤10),3-10,HR,Personalwesen / Personalbeschaffung,1,{'28-02-2016': 421}
19534,Perspektivatelier,AT,Austria,1060,Wien,Micro (≤10),1-2,Consulting,Beratung / Consulting,2,"{'31-10-2016': 528, '31-08-2022': 503}"
36677,Peter Eschner,AT,Austria,1180,Wien,Micro (≤10),1-2,Consulting,Beratung / Consulting,1,{'31-08-2018': 511}
14681,Peter Frank,DE,Germany,72074,Tübingen,Micro (≤10),1-2,Consulting,Beratung / Consulting,2,"{'30-11-2020': 437, '30-11-2024': 496}"
14682,Peter Weiss Stiftung (PWS)Literaturfestival,DE,Germany,10115,Berlin,Micro (≤10),3-10,Printing / Paper / Packaging,Druck / Papier / Verpackung,1,{'31-08-2020': 355}
25426,Petersilchen GmbH,DE,Germany,32839,Steinheim,Mid (≤250),51-100,Nutrition / Agriculture / Forestry,Nahrungsmittel / Land /  Forstwirtschaft,2,
92357,Piben Fruits,ES,Spain,12540,Villareal,,,Other,Sonstige,,
44173,Pineta Hotels,IT,Italy,38012,Predaia,Small (≤50),26-50,Tourism / Hotel / Catering,Tourismus / Hotel / Gastronomie,1,
126556,Pineta Nature Resort Srl,IT,Italy,38010,Tavon – Trento,Small (≤50),26-50,Tourism / Hotel / Catering,Tourismus / Hotel / Gastronomie,1,{'12-12-2024': 356}
14951,Pizzinini Busreisen,IT,Italy,39042,Brixen,Small (≤50),26-50,Craft,Handwerk,1,{'31-12-2021': 344}
27430,Pizzinini Mobility GmbH,IT,Italy,39042,Brixen,Micro (≤10),3-10,Transport / Logistics,Verkehr / Transport / Logistik,1,{'31-01-2023': 335}
124379,Planungsbüro Drobka GmbH,DE,Germany,14806,Bad Belzig,Small (≤50),11-25,Services,Dienstleistung,1,{'31-08-2025': 95}
92423,Playamar y Turismo,ES,Spain,07458,Santa Margalida,,,Other,Sonstige,,
79534,playfulmind GmbH,DE,Germany,95494,Gesees,Micro (≤10),1-2,Consulting,Beratung / Consulting,1,{'30-11-2024': 153}
30768,Points Gesellschaft für digitale Informationssysteme mbH,DE,Germany,70188,Stuttgart,Small (≤50),11-25,EDP / IT,EDV / IT,1,{'30-06-2023': 273}
14683,Polarstern,DE,Germany,80337,München,Small (≤50),11-25,Energy,Energiewirtschaft,2,"{'31-03-2021': 434, '31-03-2023': 516}"
150465,Polarstern GmbH,DE,Germany,80337,München,Small (≤50),26-50,Energy,Energiewirtschaft,1,{'31-01-2026': 599}
85373,POLIFANT Stuttgart gGmbH,DE,Germany,71229,Leonberg,Mid (≤250),101-250,Education / University / Polytechnic / Schools,Bildung / Universität / FH / Schulen,1,{'30-11-2024': 415}
92451,Pou de Beca,ES,Spain,12194,Vall d’Alba,,,Other,Sonstige,,
96975,PRÄSENTATIONSWERK,DE,Germany,60385,Frankfurt am Main,Micro (≤10),1-2,Consulting,Beratung / Consulting,1,{'31-12-2024': 371}
14727,Praxisgemeinschaft AMEDEA,DE,Germany,86943,Thaining,Micro (≤10),1-2,Health / Social Affairs / Nursing,Gesundheitswesen / Soziales / Pflege,1,{'20-05-2021': 386}
14867,Praxisgemeinschaft Fridolfing,DE,Germany,83413,Fridolfing,Small (≤50),11-25,Pharma,Medizin / Pharma,1,{'31-07-2019': 373}
132125,presigno GmbH,DE,Germany,44263,Dortmund,Micro (≤10),3-10,Marketing / Avertising / PR,Marketing / Werbung / PR,1,{'25-10-2025': 330}
14907,Prior1 GmbH,DE,Germany,53757,St. Augustin,Small (≤50),26-50,Construction / Architecture,Baugewerbe / Architektur,3,"{'31-12-2020': 336, '31-08-2023': 403}"
14908,Private Hortgruppe Mobile,AT,Austria,6460,Imst,Micro (≤10),3-10,Health / Social Affairs / Nursing,Gesundheitswesen / Soziales / Pflege,1,{'31-12-2020': 480}
14753,Privatpraxis für Psychotherapie und Supervision,DE,Germany,42659,Solingen,Micro (≤10),1-2,Consulting,Beratung / Consulting,1,{'30-06-2021': 521}
111664,Pro Basketball Göttingen GmbH,DE,Germany,37081,Göttingen,Small (≤50),26-50,Sports / Fitness / Beauty,Sport / Fitness / Beauty,1,
90862,Pro Raum GmbH,DE,Germany,50285,Köln,Micro (≤10),1-2,Craft,Handwerk,1,{'31-03-2025': 319}
64591,PRO-PLAN GmbH,AT,Austria,6370,Kitzbühel,Micro (≤10),3-10,Energy,Energiewirtschaft,1,{'30-11-2024': 370}
127454,pro… gemeinsam bauen und leben eG,DE,Germany,70188,Stutttgart,Micro (≤10),3-10,Construction / Architecture,Baugewerbe / Architektur,1,{'09-08-2025': 322}
143246,PROCESS-M GmbH,AT,Austria,1140,Purkersdorf,Micro (≤10),1-2,Consulting,Beratung / Consulting,1,{'31-10-2025': 274}
92401,Produccions Metrònoms S.L.,ES,Spain,12002,Castelló de la Plana,,,Other,Sonstige,,
40588,ProEngeno GmbH & Co. KG,DE,Germany,26844,Jemgum,Micro (≤10),3-10,Energy,Energiewirtschaft,1,{'31-01-2024': 291}
36684,Prof. Dr. Bernd Fittkau,DE,Germany,22337,Hamburg,Micro (≤10),1-2,Consulting,Beratung / Consulting,1,
40119,Prof. Dr. Bernd Hümmer,DE,Germany,90537,Feucht,,,Consulting,Beratung / Consulting,1,{'30-11-2022': 207}
120252,Profilwerkstatt GmbH,DE,Germany,64295,Darmstadt,Mid (≤250),51-100,Marketing / Avertising / PR,Marketing / Werbung / PR,1,{'30-11-2025': 223}
14710,Proiectio,DE,Germany,64295,Darmstadt,Micro (≤10),1-2,Consulting,Beratung / Consulting,1,{'31-05-2021': 333}
40298,PROMA Versicherungsmakler GmbH & Co.KG,DE,Germany,89343,Jettingen-Scheppach,Small (≤50),11-25,Finance,Finanzen,1,{'30-09-2023': 316}
99328,prosa Architektur+Stadtplanung BDA,DE,Germany,64283,Darmstadt,Small (≤50),11-25,Construction / Architecture,Baugewerbe / Architektur,2,{'31-07-2025': 432}
151681,pusch & Partner,DE,Germany,23570,lübeck,,,,,,
21191,Qaizen GmbH,DE,Germany,44141,Dortmund,Micro (≤10),1-2,Consulting,Beratung / Consulting,1,{'31-01-2023': 267}
30309,qnipp GmbH,AT,Austria,7064,Oslip,Micro (≤10),3-10,EDP / IT,EDV / IT,1,{'30-09-2018': 483}
44867,Quartiermeister – korrekter Konsum GmbH,DE,Germany,10999,Berlin,Micro (≤10),3-10,Trade / Consumption,Handel / Konsum,1,{'31-12-2017': 665}
44869,Quatsch mit Soße – Stefanie Griesse,DE,Germany,30173,Hannover,Micro (≤10),1-2,Tourism / Hotel / Catering,Tourismus / Hotel / Gastronomie,1,{'30-09-2016': 407}
36830,QuintLog e.U.,AT,Austria,1020,Wien,Micro (≤10),1-2,Consulting,Beratung / Consulting,1,{'31-12-2018': 597}
38704,R.U.S.Z. Franchising GmbH,AT,Austria,1140,Wien,Small (≤50),11-25,Craft,Handwerk,1,{'30-07-2018': 598}
44871,RABOLD UND CO. e.U.,AT,Austria,7400,Oberwart,Micro (≤10),3-10,Consulting,Beratung / Consulting,1,{'31-05-2019': 495}
40880,Rad-Hof Erfurt,DE,Germany,99084,Erfurt,Micro (≤10),1-2,Tourism / Hotel / Catering,Tourismus / Hotel / Gastronomie,1,{'31-12-2015': 651}
29769,Radio München gUG,DE,Germany,81547,München,Micro (≤10),3-10,Media,Medien,1,
32904,Radio Next Generation GmbH & Co. KG (Sender egoFM),DE,Germany,80807,München,Small (≤50),11-25,Media,Medien,2,"{'30-04-2023': 418, '31-07-2025': 498}"
80067,"radius UG, Ihr Fahrrad-Kurier in Würzburg",DE,Germany,97070,Würzburg,Micro (≤10),3-10,Transport / Logistics,Verkehr / Transport / Logistik,1,{'31-10-2024': 426}
35304,Rahm Projektmanagement Schlüsselfertigbau GmbH,DE,Germany,70374,Stuttgart,,,Construction / Architecture,Baugewerbe / Architektur,1,{'31-03-2023': 252}
56171,Raidboxes GmbH,DE,Germany,48153,Münster,Small (≤50),26-50,EDP / IT,EDV / IT,1,{'31-08-2024': 256}
14711,Raiffeisenbank Lech am Arlberg eGen,AT,Austria,6764,Lech,Small (≤50),11-25,Finance,Finanzen,7,"{'30-04-2014': 329, '30-04-2015': 329, '30-04-2017': 419, '30-04-2019': 462, '30-04-2021': 483, '31-05-2023': 534, '30-04-2025': 572}"
82244,Raiffeisenbank Region St. Pölten eGen,AT,Austria,3100,St. Pölten,Mid (≤250),101-250,Banking,Banken,1,{'31-10-2024': 284}
14700,Randegger Ottilien-Quelle GmbH,DE,Germany,78244,Gottmadingen,Small (≤50),11-25,Nutrition / Agriculture / Forestry,Nahrungsmittel / Land /  Forstwirtschaft,1,{'30-09-2021': 365}
36834,RARENA Dr. Ralf Resch Nachhaltigkeitsberatung,DE,Germany,41462,Neuss,Micro (≤10),1-2,Consulting,Beratung / Consulting,1,{'31-03-2016': 599}
37746,Raum für Bewusst Sein GmbH,CH,Switzerland,8005,Zürich,Micro (≤10),1-2,Consulting,Beratung / Consulting,1,{'28-02-2015': 635}
36543,RAUM.WERTcc DIin Ursula Spannberger,AT,Austria,5020,Salzburg,Micro (≤10),1-2,Construction / Architecture,Baugewerbe / Architektur,1,{'30-06-2017': 490}
14968,RAUM.WERTcc Ursula Spannberger,AT,Austria,5020,Salzburg,Micro (≤10),1-2,Construction / Architecture,Baugewerbe / Architektur,1,{'31-01-2022': 642}
44771,Raumausstatter Hegemann,DE,Germany,48308,Senden-Bösensell,Micro (≤10),3-10,Craft,Handwerk,1,{'28-02-2019': 260}
124736,Rauszeit Agentur,CH,Switzerland,4107,Ettingen (Basel-Landschaft),Micro (≤10),1-2,Consulting,Beratung / Consulting,1,{'30-06-2025': 520}
44874,ray facility management group Nils Bogdol GmbH,DE,Germany,49451,Holdorf,Mid (≤250),51-100,Real Estate / Facility Management,Immobilien / Facility Management,1,{'28-02-2019': 463}
126876,rebio Regionale BIOLAND-Erzeugergemeinschaft GmbH,DE,Germany,72108,Rottenburg am Neckar,Small (≤50),26-50,Nutrition / Agriculture / Forestry,Nahrungsmittel / Land /  Forstwirtschaft,1,{'09-08-2025': 435}
33861,Reformhaus Mayr e.K.,DE,Germany,81241,München,Mid (≤250),51-100,Trade / Consumption,Handel / Konsum,1,{'30-11-2023': 353}
23715,Regensburg Tourismus GmbH (RTG),DE,Germany,93055,Regensburg,Small (≤50),26-50,Public Administration,Öffentliche Verwaltung,2,"{'28-02-2023': 526, '31-01-2025': 458}"
14684,Regina Sörgel,DE,Germany,91781,Weißenburg,Micro (≤10),1-2,Education / University / Polytechnic / Schools,Bildung / Universität / FH / Schulen,1,{'31-05-2023': 384}
68219,Regionaldirektion Martin Bantle e.K.,DE,Germany,78462,Konstanz,Micro (≤10),3-10,Insurance,Versicherung,1,{'30-06-2024': 417}
14909,Regionalenergie Osttirol reg. Gen. m.b.H.,AT,Austria,9900,Lienz,Micro (≤10),3-10,Energy,Energiewirtschaft,2,"{'31-10-2020': 479, '31-01-2024': 554}"
30153,Regionalkollektiv eG,DE,Germany,84034,Landshut,Micro (≤10),3-10,Nutrition / Agriculture / Forestry,Nahrungsmittel / Land /  Forstwirtschaft,1,{'31-07-2023': 473}
29660,REGIOS EG,DE,Germany,83022,Rosenheim,Micro (≤10),3-10,Finance,Finanzen,1,{'31-12-2015': 604}
36662,Reinhard Decker  Unternehmensberater,AT,Austria,6835,Dafins,Micro (≤10),1-2,Consulting,Beratung / Consulting,2,"{'31-05-2016': 458, '30-11-2024': 433}"
53438,Reishofers Pasch UG,DE,Germany,83533,Edling,,,Consulting,Beratung / Consulting,1,{'31-10-2023': 242}
19282,Remedia di Satanassi & Bosch Società Agricola S.S.,IT,Italy,47027,Sarsina,Small (≤50),26-50,Nutrition / Agriculture / Forestry,Nahrungsmittel / Land /  Forstwirtschaft,1,{'30-01-2021': 626}
82902,renergie Allgäu e.V.,DE,Germany,87439,Kempten,Small (≤50),11-25,Consulting,Beratung / Consulting,1,{'31-07-2024': 567}
90814,REUTER × BOBETH,DE,Germany,10961,Berlin,Micro (≤10),3-10,Marketing / Avertising / PR,Marketing / Werbung / PR,1,{'31-08-2024': 412}
29753,ReWiG München eG,DE,Germany,81667,München,Micro (≤10),3-10,Services,Dienstleistung,2,"{'31-12-2013': 469, '30-06-2015': 564}"
14924,Reyerhof,DE,Germany,70567,Stuttgart,Micro (≤10),3-10,Nutrition / Agriculture / Forestry,Nahrungsmittel / Land /  Forstwirtschaft,1,{'30-03-2020': 745}
122149,Rheinsberger Preussenquelle GmbH,DE,Germany,16831,Rheinsberg,Small (≤50),11-25,Nutrition / Agriculture / Forestry,Nahrungsmittel / Land /  Forstwirtschaft,1,{'31-10-2025': 453}
118851,Rieder.Steuer.Beratung,AT,Austria,5721,Piesendorf,Micro (≤10),3-10,Fiscal Advice / Auditing,Steuerberatung / Wirtschaftsprüfung,1,{'30-04-2025': 405}
127451,Robi Wache Architekten GmbH,DE,Germany,70199,Stuttgart,Micro (≤10),3-10,Construction / Architecture,Baugewerbe / Architektur,1,{'09-08-2025': 340}
150945,Rofin Gewerbepark Eberswalde,DE,Germany,16227,Eberswalde,Micro (≤10),3-10,Real Estate / Facility Management,Immobilien / Facility Management,1,
14970,rolf dingethal organisations- und managemententwicklung,DE,Germany,71263,Weil der Stadt,Micro (≤10),1-2,Consulting,Beratung / Consulting,1,{'25-02-2020': 353}
87389,Rolf Schanz Gmbh – Schanz Bänder,DE,Germany,72116,Mössingen,Micro (≤10),3-10,Industry,Industrie,1,
29832,Roseli Gonzalves,DE,Germany,28215,Bremen,Micro (≤10),1-2,Consulting,Beratung / Consulting,1,{'31-05-2019': 384}
83738,RÖSTTROMMEL GMBH KAFFEERÖSTEREI,DE,Germany,90429,Nürnberg,Small (≤50),26-50,Trade / Consumption,Handel / Konsum,1,{'30-09-2024': 154}
35305,Rosy Green Wool GbR – Rosmary Stegmann und Patrick Gruban,DE,Germany,80538,München,,,Trade / Consumption,Handel / Konsum,1,{'31-07-2023': 548}
55440,Rudolf Eckel Federnfabrik,DE,Germany,57368,Lennestadt,Small (≤50),26-50,Industry,Industrie,1,{'31-03-2024': 216}
44937,Rudolf Steiner Haus Hamburg e.V.,DE,Germany,20148,Hamburg,Micro (≤10),3-10,Associations / Societies,Vereine,1,{'28-02-2016': 405}
130935,RUNA REISEN GmbH,DE,Germany,33803,Steinhagen,Small (≤50),11-25,Tourism / Hotel / Catering,Tourismus / Hotel / Gastronomie,1,{'31-10-2025': 281}
92345,Ruth Palomero S.L.,ES,Spain,46114,Cullera,,,Other,Sonstige,,
163148,rw-cct GmbH,DE,Germany,86874,Tussenhausen-Zaisertshofen,,,Consulting,Beratung / Consulting,6,"{'31-05-2021': 535, '30-09-2022': 478}"
14944,Sabine Lehner – MARKENwerkstatt,AT,Austria,5020,Salzburg,Micro (≤10),1-2,Consulting,Beratung / Consulting,3,"{'31-08-2017': 327, '31-12-2021': 556, '28-02-2025': 406}"
35671,SÄBU Holzbau GmbH,DE,Germany,87640,Biessenhofen,Small (≤50),26-50,Construction / Architecture,Baugewerbe / Architektur,1,{'23-07-2023': 277}
14868,Sachranger Dorfladen UG,DE,Germany,83229,Aschau,Micro (≤10),1-2,Trade / Consumption,Handel / Konsum,1,{'30-10-2020': 643}
20289,Sächsische Aufbaubank – Förderbank,DE,Germany,01069,Dresden,Large (>250),>250,Banking,Banken,1,{'31-05-2023': 370}
35306,SAD Nahverkehr AG,IT,Italy,39100,Bozen,,,Transport / Logistics,Verkehr / Transport / Logistik,1,
44178,Sadesign SNC,IT,Italy,38123,Mattarello,Micro (≤10),3-10,Services,Dienstleistung,1,{'12-12-2021': 224}
126578,Sadesign SNC,IT,Italy,38123,Trento,Small (≤50),11-25,Trade / Consumption,Handel / Konsum,1,{'12-12-2024': 526}
14925,Samariterstiftung,DE,Germany,72622,Nürtingen,Large (>250),>250,Health / Social Affairs / Nursing,Gesundheitswesen / Soziales / Pflege,3,"{'30-09-2019': 623, '30-06-2022': 482, '30-09-2024': 575}"
14910,Sanoll,AT,Austria,6422,Stams,Micro (≤10),3-10,Sports / Fitness / Beauty,Sport / Fitness / Beauty,2,"{'15-09-2016': 528, '31-12-2020': 581}"
17818,Saphenus Medical Technology GmbH,AT,Austria,3500,Krems,Micro (≤10),3-10,Medical Engineering,Medizintechnik,1,{'31-03-2022': 305}
92407,SAPIENS ENERGÍA COOP. V.,ES,Spain,46529,Canet d’en Berenguer,,,Other,Sonstige,,
44939,satis&fy AG,DE,Germany,59368,Werne,Mid (≤250),101-250,Other,Sonstige,1,{'06-05-2016': 247}
36838,sattler energie consulting gmbh,AT,Austria,4810,gmunden,Micro (≤10),3-10,Consulting,Beratung / Consulting,1,{'30-12-2016': 302}
44942,Schachinger Logistik Holding GmbH,AT,Austria,4063,Hörsching,Large (>250),>250,Transport / Logistics,Verkehr / Transport / Logistik,1,{'31-03-2016': 314}
14982,Schachtelhalm UG,DE,Germany,37213,Witzenhaiusen,Micro (≤10),3-10,Trade / Consumption,Handel / Konsum,1,{'31-12-2021': 769}
14869,Schäfer Installationen,DE,Germany,32805,Horn-Bad Meinberg,Micro (≤10),3-10,Craft,Handwerk,2,{'31-03-2024': 512}
126130,Schamong GmbH & Co. KG,DE,Germany,50825,Köln,Small (≤50),11-25,Nutrition / Agriculture / Forestry,Nahrungsmittel / Land /  Forstwirtschaft,1,{'31-10-2025': 248}
73570,SCHELP MEDIATION,DE,Germany,30173,Hannover,Micro (≤10),1-2,Services,Dienstleistung,1,{'30-06-2024': 602}
30083,SCHINDEL UND HOLZ,AT,Austria,9900,Lienz,Mid (≤250),51-100,Construction / Architecture,Baugewerbe / Architektur,1,{'31-05-2018': 475}
36845,schink-kantoku,DE,Germany,10318,Berlin,Micro (≤10),1-2,Consulting,Beratung / Consulting,1,{'30-11-2016': 408}
44946,Schirnhofer Gesellschaft m.b.H.,AT,Austria,8224,Kaindorf bei Hartberg,Large (>250),>250,Nutrition / Agriculture / Forestry,Nahrungsmittel / Land /  Forstwirtschaft,1,{'30-06-2015': 442}
30380,Schlaraffenburger Streuobstagentur,DE,Germany,63776,Mömbris,Micro (≤10),3-10,Nutrition / Agriculture / Forestry,Nahrungsmittel / Land /  Forstwirtschaft,1,{'30-04-2023': 413}
20441,Schloss Blumenthal Gmbh & Co. KG,DE,Germany,86551,Aichach-Klingen,Small (≤50),26-50,Tourism / Hotel / Catering,Tourismus / Hotel / Gastronomie,1,{'30-09-2022': 467}
87413,Schloss Hamborn Rudolf Steiner Werkgemeinschaft e.V.,DE,Germany,33178,Borchen,Mid (≤250),101-250,Health / Social Affairs / Nursing,Gesundheitswesen / Soziales / Pflege,1,{'31-08-2024': 574}
14914,Schloss Tempelhof eG,DE,Germany,74594,Kreßberg,Micro (≤10),3-10,Real Estate / Facility Management,Immobilien / Facility Management,1,{'30-04-2020': 783}
152355,Schlosshotel & Gasthaus Blumenthal GmbH & Co. KG,DE,Germany,86551,Aichach,Small (≤50),26-50,Tourism / Hotel / Catering,Tourismus / Hotel / Gastronomie,1,
39550,Schmedshof,DE,Germany,36320,Kirtorf-Heimertshausen,Micro (≤10),1-2,Nutrition / Agriculture / Forestry,Nahrungsmittel / Land /  Forstwirtschaft,1,{'31-03-2024': 326}
93954,Schöberl & Pöll GmbH,AT,Austria,1020,Wien,Micro (≤10),3-10,Construction / Architecture,Baugewerbe / Architektur,1,{'30-11-2024': 568}
14730,Schubert Bio & Vollwert Bäckerei GmbH & Co KG,DE,Germany,86153,Augsburg,Mid (≤250),101-250,Nutrition / Agriculture / Forestry,Nahrungsmittel / Land /  Forstwirtschaft,1,{'31-07-2022': 349}
112013,Schulte Verpackungs-Systeme GmbH,DE,Germany,58675,Hemer,Mid (≤250),51-100,Printing / Paper / Packaging,Druck / Papier / Verpackung,1,
115631,Schütte Baumarkt GmbH & Roggan KG,DE,Germany,29439,Lüchow,Small (≤50),26-50,Trade / Consumption,Handel / Konsum,1,{'31-03-2025': 316}
33863,"Schwabinger Automobil Haus, Gebr. Herrmann GmbH & Co KG",DE,Germany,80807,München,Micro (≤10),1-2,Other,Sonstige,1,{'30-11-2023': 285}
90359,Schwarzer Business Quality,DE,Germany,35440,Linden,Micro (≤10),1-2,Consulting,Beratung / Consulting,1,{'31-10-2024': 246}
25346,Schwarzseher GmbH,DE,Germany,26121,Oldenburg,Micro (≤10),3-10,Marketing / Avertising / PR,Marketing / Werbung / PR,1,{'28-02-2022': 573}
93101,sd vybrant GmbH,DE,Germany,80637,München,Micro (≤10),3-10,Market Research,Marktforschung,1,{'28-02-2025': 300}
92405,Seco Durán S.L.,ES,Spain,38190,Santa Cruz de Tenerife,,,Other,Sonstige,,
129598,Secur Solutions GmbH,DE,Germany,82166,Gräfelfing,Mid (≤250),101-250,Services,Dienstleistung,1,{'31-12-2025': 180}
14996,Sehen und Hören Maurer GmbH,AT,Austria,5730,Mittersill,Small (≤50),11-25,Trade / Consumption,Handel / Konsum,2,"{'31-10-2015': 398, '31-10-2021': 529}"
14912,Seifenmanufaktur-Neururer gmbh,AT,Austria,6441,Umhausen,Micro (≤10),1-2,Sports / Fitness / Beauty,Sport / Fitness / Beauty,1,{'31-12-2020': 331}
25101,Seiwald KG des Seiwald Klaus & Co.,IT,Italy,39030,Gsies,Small (≤50),11-25,Transport / Logistics,Verkehr / Transport / Logistik,1,{'21-12-2022': 319}
41057,SEKEM Holding for Investment S.A.E. 3,DE,Germany,11361,Cairo,Large (>250),>250,Nutrition / Agriculture / Forestry,Nahrungsmittel / Land /  Forstwirtschaft,1,{'31-12-2013': 632}
14939,Seminarhaus deinsdorf e.V.,DE,Germany,91249,Weigendorf,Micro (≤10),3-10,Education / University / Polytechnic / Schools,Bildung / Universität / FH / Schulen,1,{'31-05-2022': 488}
56033,Sempact AG,DE,Germany,86899,Landsberg am Lech,Micro (≤10),3-10,Consulting,Beratung / Consulting,2,"{'21-12-2023': 310, '30-06-2024': 307}"
55129,Seniorenzentrum Göttingen gGmbH,DE,Germany,37083,Göttingen,Mid (≤250),101-250,Health / Social Affairs / Nursing,Gesundheitswesen / Soziales / Pflege,1,{'30-11-2023': 360}
92441,Seniors Vida Sostenible,ES,Spain,03001,Alicante,,,Other,Sonstige,,
124371,senne products GmbH,DE,Germany,33161,Hövelhof,Mid (≤250),51-100,Other,Sonstige,1,{'31-08-2025': 261}
24893,SERBUS KG des Christof Haidacher & Co.,IT,Italy,39032,Sand in Taufers,Mid (≤250),51-100,Transport / Logistics,Verkehr / Transport / Logistik,1,{'21-12-2022': 325}
36869,SERI Nachhaltigkeitsforschungs und –kommunikations GmbH,DE,Germany,90459,Nürnberg,Small (≤50),11-25,Consulting,Beratung / Consulting,1,{'31-12-2013': 609}
44711,Service für Haus & Garten Markus Brandl,AT,Austria,8010,Graz,Micro (≤10),1-2,Craft,Handwerk,1,{'30-04-2015': 501}
14870,SES Stadtentwässerung Stuttgart,DE,Germany,70178,Stuttgart,Large (>250),>250,Public Administration,Öffentliche Verwaltung,2,"{'30-04-2020': 430, '31-08-2024': 504}"
32906,SFP Architekten GmbH,DE,Germany,70199,Stuttgart,Small (≤50),11-25,Construction / Architecture,Baugewerbe / Architektur,1,{'31-03-2023': 284}
92415,Shine Psicología y Coaching S.L,ES,Spain,38320,La Laguna,,,Other,Sonstige,,
41402,siebold/hamburg messebau gmbh,DE,Germany,22525,Hamburg,Small (≤50),26-50,Services,Dienstleistung,1,{'31-10-2023': 367}
25016,Silbernagl Markus GmbH,IT,Italy,39040,Seis,Small (≤50),11-25,Transport / Logistics,Verkehr / Transport / Logistik,1,{'21-12-2022': 314}
127444,silberzebra gmbh,DE,Germany,79106,Freiburg im Breisgau,Micro (≤10),3-10,EDP / IT,EDV / IT,1,{'09-08-2025': 253}
24903,SiMobil GmbH,IT,Italy,39040,Seis-Kastelruth,Mid (≤250),51-100,Transport / Logistics,Verkehr / Transport / Logistik,1,{'21-12-2022': 344}
19542,Simon Brechel Nachhaltigkeitsmanagement,DE,Germany,64289,Darmstadt,Micro (≤10),1-2,Consulting,Beratung / Consulting,2,{'31-10-2023': 258}
90090,Simon Veith | Nachhaltige Fotografie,DE,Germany,50677,Köln,Micro (≤10),1-2,Media,Medien,1,{'31-03-2025': 482}
29802,sinnovation – nachhaltig entwickeln,DE,Germany,51069,Köln,Micro (≤10),1-2,Consulting,Beratung / Consulting,3,"{'31-01-2021': 415, '30-04-2023': 518, '31-08-2025': 585}"
36997,sinnwerkstatt Medienagentur GmbH,DE,Germany,10999,Berlin,Micro (≤10),3-10,Media,Medien,1,{'30-11-2016': 591}
118507,SK SESSELKAMPAGNE GmbH,DE,Germany,50678,Köln,Micro (≤10),3-10,Trade / Consumption,Handel / Konsum,1,{'31-03-2025': 355}
37715,Smaranda Beate Keller Smart Work Design,DE,Germany,81669,München,Micro (≤10),1-2,Consulting,Beratung / Consulting,1,{'25-04-2016': 454}
25344,smile! Solutions GmbH,DE,Germany,10585,Berlin,Micro (≤10),3-10,Services,Dienstleistung,1,{'28-02-2022': 377}
14731,Snehotta Pflegeteam,DE,Germany,86381,Krumbach,Micro (≤10),3-10,Health / Social Affairs / Nursing,Gesundheitswesen / Soziales / Pflege,1,{'31-07-2022': 250}
127018,Snehotta Pflegeteam,DE,Germany,86381,Krumbach,Mid (≤250),101-250,Services,Dienstleistung,1,{'30-11-2025': 294}
72960,Società Mutua Piemonte ETS,IT,Italy,11064,Pinerolo (TO),Micro (≤10),3-10,Health / Social Affairs / Nursing,Gesundheitswesen / Soziales / Pflege,1,{'29-07-2023': 538}
126590,Società Mutua Piemonte ETS,IT,Italy,10064,Pinerolo (TO),Micro (≤10),3-10,Health / Social Affairs / Nursing,Gesundheitswesen / Soziales / Pflege,1,{'01-06-2025': 569}
14965,SODI – Solidaritätsdienst International e. V.,DE,Germany,10317,Berlin,Micro (≤10),3-10,Other,Sonstige,1,{'28-02-2022': 531}
92431,Solange A. Ottonello Tuya,ES,Spain,38002,Santa Cruz de Tenerife,,,Other,Sonstige,,
143248,SOLAR 4 YOU Consulting Ges.m.b.H.,AT,Austria,2340,Mödling,Micro (≤10),3-10,Construction / Architecture,Baugewerbe / Architektur,1,{'31-10-2025': 481}
124375,SOLVIS GmbH,DE,Germany,38112,Braunschweig,Mid (≤250),101-250,Industry,Industrie,1,{'31-08-2025': 224}
101562,Sommerland YogaKultur Erbach,DE,Germany,89155,Erbach,Micro (≤10),1-2,Sports / Fitness / Beauty,Sport / Fitness / Beauty,1,{'31-07-2025': 255}
14734,Sonnendruck GmbH,DE,Germany,69168,Wiesloch,Small (≤50),11-25,Printing / Paper / Packaging,Druck / Papier / Verpackung,3,"{'28-06-2015': 337, '31-10-2016': 359, '31-10-2021': 495}"
14708,Sonnentor Kräuterhandelsgesellschaft mbH,AT,Austria,3910,Sprögnitz,Large (>250),>250,Nutrition / Agriculture / Forestry,Nahrungsmittel / Land /  Forstwirtschaft,>7,"{'31-10-2013': 630, '30-06-2014': 593, '30-06-2015': 595, '31-07-2017': 635, '31-07-2019': 671, '31-07-2021': 725, '31-07-2023': 743, '31-07-2025': 746}"
14871,Sotronik GmbH,CH,Switzerland,8406,Winterthur,Micro (≤10),3-10,Electrical / Electronics,Elektro / Elektronik,1,{'30-04-2020': 531}
14927,soulproducts GmbH,DE,Germany,12099,Berlin,Small (≤50),26-50,Other,Sonstige,1,{'28-02-2022': 872}
36756,SOUND STRATEGY e.U.,AT,Austria,1190,Wien,Micro (≤10),1-2,Consulting,Beratung / Consulting,1,{'30-06-2014': 489}
45839,Soziale Initiative gem. GmbH,AT,Austria,4400,Linz,Large (>250),>250,Health / Social Affairs / Nursing,Gesundheitswesen / Soziales / Pflege,1,{'30-06-2024': 603}
14686,SozKom,AT,Austria,8564,Krottendorf-Gaisfeld,Small (≤50),26-50,Education / University / Polytechnic / Schools,Bildung / Universität / FH / Schulen,3,"{'30-11-2020': 441, '31-12-2022': 443, '30-11-2024': 549}"
14687,Sparda-Bank München eG,DE,Germany,80335,München,Large (>250),>250,Finance,Finanzen,5,"{'30-12-2013': 332, '30-11-2015': 385, '30-11-2017': 559, '30-04-2021': 602, '30-06-2024': 560}"
21623,Sparkasse Berchtesgadener Land,DE,Germany,83435,Bad Reichenhall,Large (>250),>250,Banking,Banken,2,"{'31-01-2023': 432, '28-02-2025': 517}"
44951,SPES GmbH,AT,Austria,4553,Schlierbach,Small (≤50),26-50,Seminar / Fair Provider,Seminar- / Messeanbieter,1,{'30-04-2017': 774}
14688,Spider Netzwerk und Software GmbH,DE,Germany,73614,Schorndorf,Micro (≤10),3-10,EDP / IT,EDV / IT,1,{'31-01-2021': 300}
37060,SpielScheune der Geschichten,DE,Germany,21035,Hamburg,Micro (≤10),3-10,Health / Social Affairs / Nursing,Gesundheitswesen / Soziales / Pflege,2,"{'28-02-2016': 391, '31-07-2018': 446}"
47819,Spielzeugmuseum,DE,Germany,90403,Nürnberg,Micro (≤10),3-10,Art / Culture / Entertainment,Kunst / Kultur / Unterhaltung,1,{'31-10-2023': 331}
101570,SPINDLER Dachdeckerei-Spenglerei GmbH,DE,Germany,85049,Ingolstadt,Small (≤50),11-25,Craft,Handwerk,1,{'31-07-2025': 229}
14997,Spitalstiftung Konstanz,DE,Germany,78464,Konstanz,Mid (≤250),101-250,Health / Social Affairs / Nursing,Gesundheitswesen / Soziales / Pflege,1,{'31-05-2022': 376}
53621,Sport Wolf,AT,Austria,6020,Innsbruck,Micro (≤10),1-2,Trade / Consumption,Handel / Konsum,1,{'31-03-2024': 274}
81881,Sportvereinigung Feuerbach 1883 e.V.,DE,Germany,70469,Stuttgart,Small (≤50),26-50,Sports / Fitness / Beauty,Sport / Fitness / Beauty,1,{'30-09-2024': 238}
14913,SpreeTrain  Consulting,DE,Germany,12167,Berlin,Micro (≤10),3-10,Consulting,Beratung / Consulting,1,{'31-10-2020': 248}
44953,Sroka Stahl- und Anlagenbau U.G. & Co. KG,DE,Germany,14797,Kloster Lehnin,Micro (≤10),3-10,Industry,Industrie,1,{'30-06-2015': 408}
14872,St Elisabeth-Verein e.V. Marburg Berufliche Bildung (StEEB),DE,Germany,35091,Cölbe,Micro (≤10),3-10,Health / Social Affairs / Nursing,Gesundheitswesen / Soziales / Pflege,1,{'30-10-2020': 208}
37182,St. Gereon Seniorendienste gemeinnützige GmbH,DE,Germany,41836,Hückelhoven,Small (≤50),11-25,Health / Social Affairs / Nursing,Gesundheitswesen / Soziales / Pflege,1,{'30-04-2015': 646}
14794,St. Virgil Salzburg,AT,Austria,5026,Salzburg,Small (≤50),26-50,Tourism / Hotel / Catering,Tourismus / Hotel / Gastronomie,2,"{'06-09-2018': 505, '30-04-2022': 411}"
34879,St.Rochus-Apotheke,DE,Germany,32839,Steinheim,Small (≤50),26-50,Health / Social Affairs / Nursing,Gesundheitswesen / Soziales / Pflege,3,"{'31-12-2018': 439, '31-10-2021': 455, '31-01-2024': 464}"
145504,St.Rochus-Apotheke,DE,Germany,32839,Steinheim,Small (≤50),11-25,Health / Social Affairs / Nursing,Gesundheitswesen / Soziales / Pflege,1,
139376,"Stadtentwässerungsbetriebe Köln, AöR",DE,Germany,51109,Köln,Large (>250),501-1000,Other,Sonstige,1,{'31-12-2025': 522}
131820,Städtische Forggensee-Schifffahrt Füssen Eigenbetrieb der Stadt Füssen,DE,Germany,87629,Füssen,Small (≤50),11-25,Transport / Logistics,Verkehr / Transport / Logistik,1,{'31-07-2025': 215}
14709,Stadtmobil Rhein-Neckar AG,DE,Germany,68161,Mannheim,Small (≤50),26-50,Transport / Logistics,Verkehr / Transport / Logistik,2,"{'30-06-2021': 503, '30-09-2025': 605}"
95454,Stadtmobil Südbaden AG,DE,Germany,79098,Freiburg i.Br.,Small (≤50),11-25,Transport / Logistics,Verkehr / Transport / Logistik,1,{'28-02-2025': 419}
77444,Stadtreinigung Hamburg,DE,Germany,20537,Hamburg,Large (>250),>250,Other,Sonstige,1,{'30-11-2024': 529}
34944,Stadtteilzentrum Steglitz e.V,DE,Germany,12161,Berlin,Mid (≤250),101-250,Other,Sonstige,1,{'30-09-2023': 310}
15717,Stadtverwaltung Steinheim,DE,Germany,32839,Steinheim,Mid (≤250),51-100,Public Administration,Öffentliche Verwaltung,1,{'31-08-2022': 423}
15525,"Stadtwerke Kufstein GmbH, Wasserabteilunge",AT,Austria,6330,Kufstein,Micro (≤10),3-10,Public Administration,Öffentliche Verwaltung,1,{'31-05-2022': 380}
14980,Stadtwerke Marburg GmbH,DE,Germany,35039,Marburg,Large (>250),>250,Energy,Energiewirtschaft,1,{'31-08-2022': 380}
112046,Stadtwerke Menden GmbH,DE,Germany,58708,Menden,Mid (≤250),101-250,Energy,Energiewirtschaft,1,{'25-09-2025': 343}
77849,Stadtwerke München GmbH,DE,Germany,80992,München,Small (≤50),26-50,Energy,Energiewirtschaft,1,{'30-09-2024': 430}
14701,"Stadtwerke München GmbH, Geschäftsbereich Bäder",DE,Germany,80992,München,Mid (≤250),101-250,Sports / Fitness / Beauty,Sport / Fitness / Beauty,3,"{'30-09-2021': 391, '31-03-2024': 426, '31-12-2025': 451}"
126525,Stadtwerke Neumarkt i.d.OPf. Energie GmbH,DE,Germany,92318,Neumarkt i.d.OPf.,Mid (≤250),101-250,Energy,Energiewirtschaft,1,{'30-09-2025': 191}
126529,Stadtwerke Neumarkt i.d.OPf. Freizeit & Leben KU,DE,Germany,92318,Neumarkt i.d.OPf.,Small (≤50),26-50,Public Administration,Öffentliche Verwaltung,1,{'30-09-2025': 269}
157024,Stanova Stanztechnik GmbH,DE,Germany,10717,Berlin,Micro (≤10),3-10,Machinery & Plant Engineering,Maschinen- & Anlagenbau,1,
164465,stattbau münchen GmbH,DE,Germany,80798,München,Micro (≤10),3-10,Services,Dienstleistung,1,
36872,STEAUF Stefanie Aufleger,DE,Germany,78462,Konstanz,Micro (≤10),1-2,Consulting,Beratung / Consulting,1,{'31-05-2017': 682}
40573,STEAUF-Werkstatt,DE,Germany,78462,Konstanz,Micro (≤10),1-2,Consulting,Beratung / Consulting,1,{'29-02-2024': 411}
23250,Stefan Wladarsch,DE,Germany,95447,Bayreuth,Micro (≤10),1-2,Consulting,Beratung / Consulting,1,
14971,Steinbeis-Transferzentrum ZEN,DE,Germany,79106,Freiburg i.Br.,Micro (≤10),1-2,Consulting,Beratung / Consulting,1,{'25-02-2022': 386}
14873,Steinbildhauerei Vincent,DE,Germany,58300,Wetter (Ruhr),Micro (≤10),1-2,Craft,Handwerk,1,{'30-10-2020': 473}
25029,Steiner Touring GmbH,IT,Italy,39030,Prags,Large (>250),>250,Transport / Logistics,Verkehr / Transport / Logistik,1,{'21-12-2022': 256}
30147,Steinmetz Braun GmbH,DE,Germany,84051,Essenbach-Altheim,Micro (≤10),3-10,Craft,Handwerk,1,{'31-07-2023': 297}
106552,step GbR,DE,Germany,29468,Bergen an der Dumme,Micro (≤10),3-10,Consulting,Beratung / Consulting,1,{'31-07-2025': 413}
44957,Sterntalerhof – Verein für ganzheitliche Lebensbegleitung,AT,Austria,7410,Loipersdorf-Kitzladen,Small (≤50),11-25,Health / Social Affairs / Nursing,Gesundheitswesen / Soziales / Pflege,1,{'08-04-2016': 669}
96973,Steuerberatungskanzlei Berkelmann,DE,Germany,49477,Ibbenbüren,Micro (≤10),3-10,Fiscal Advice / Auditing,Steuerberatung / Wirtschaftsprüfung,1,{'31-12-2024': 221}
15515,Steuerkanzlei Heinrich,DE,Germany,68219,Mannheim,Micro (≤10),3-10,Services,Dienstleistung,1,{'31-10-2022': 315}
96622,Steuerkanzlei Pfann,DE,Germany,86159,Augsburg,Micro (≤10),3-10,Fiscal Advice / Auditing,Steuerberatung / Wirtschaftsprüfung,1,{'31-01-2025': 189}
37370,Steuerkanzlei Uwe K.Eberhardt,DE,Germany,78467,Konstanz,Micro (≤10),3-10,Fiscal Advice / Auditing,Steuerberatung / Wirtschaftsprüfung,2,"{'31-05-2017': 420, '31-07-2023': 486}"
78247,stg – Die MitarbeiterBerater GmbH,DE,Germany,91056,Erlangen,Micro (≤10),3-10,Services,Dienstleistung,1,{'31-10-2024': 278}
63662,Stiegl-Gut Wildshut GmbH,AT,Austria,5017,Salzburg,Small (≤50),11-25,Tourism / Hotel / Catering,Tourismus / Hotel / Gastronomie,1,{'31-08-2024': 403}
14874,Stierlin Holz am Bau GmbH,CH,Switzerland,8400,Winterthur,Micro (≤10),3-10,Craft,Handwerk,1,{'30-04-2020': 437}
129757,Stiftung Gemeinwohl-Ökonomie NRW,DE,Germany,32756,Detmold,Micro (≤10),1-2,Other,Sonstige,1,
45950,Stiftung Praktischer Umweltschutz Schweiz – Pusch,CH,Switzerland,8032,Zürich,Small (≤50),26-50,Other,Sonstige,1,{'31-10-2023': 539}
106945,Stiftung Theologische Hochschule Reutlingen der Evangelisch-methodistischen Kirche,DE,Germany,72762,Reutlingen,Small (≤50),11-25,Education / University / Polytechnic / Schools,Bildung / Universität / FH / Schulen,1,{'31-05-2025': 510}
35307,"Stimmumschwung, Hayo Keckeis, Wilhermsdorf",DE,Germany,91452,Wilhermsdorf,,,Art / Culture / Entertainment,Kunst / Kultur / Unterhaltung,2,"{'30-06-2023': 259, '30-09-2025': 248}"
133268,STL srl sb,IT,Italy,36063,Marostica,Small (≤50),11-25,Trade / Consumption,Handel / Konsum,2,"{'12-05-2023': 318, '01-06-2025': 311}"
87391,Strobel AG,DE,Germany,91154,Roth,Small (≤50),26-50,Printing / Paper / Packaging,Druck / Papier / Verpackung,1,{'25-08-2024': 369}
35308,Strom vom Dach,AT,Austria,6343,Erl,,,Energy,Energiewirtschaft,1,{'31-05-2022': 398}
87416,Struck-Leuchten GmbH & Co. KG,DE,Germany,32839,Steinheim,Mid (≤250),51-100,Marketing / Avertising / PR,Marketing / Werbung / PR,1,{'31-08-2024': 227}
129593,STUDIO | STADT | REGION – Förster Kurz Architekten & Stadtplaner Partnerschaft mbB,DE,Germany,80637,München,Small (≤50),11-25,Construction / Architecture,Baugewerbe / Architektur,1,{'31-12-2025': 414}
67263,Stuttgarter Bäder,DE,Germany,70176,Stuttgart,Large (>250),>250,Art / Culture / Entertainment,Kunst / Kultur / Unterhaltung,1,{'30-04-2025': 417}
92477,Subbética Ecológica,ES,Spain,14940,Cabra,Micro (≤10),1-2,Other,Sonstige,,
94655,subject:RESOUL AG,DE,Germany,10965,Berlin,Micro (≤10),3-10,Consulting,Beratung / Consulting,1,{'31-05-2025': 369}
44961,sun.e-solution GmbH,AT,Austria,9991,Dölsach,Micro (≤10),3-10,Electrical / Electronics,Elektro / Elektronik,1,{'31-05-2018': 381}
92453,Supernaranjas,ES,Spain,12530,Burriana,,,Other,Sonstige,,
152117,Superuse Studios NL BV,NL,Netherlands,3063NS,Rotterdam,Micro (≤10),3-10,Construction / Architecture,Baugewerbe / Architektur,1,
14932,"Susanne Dahncke, Coaching für Querdenker",DE,Germany,21079,Hamburg,Micro (≤10),1-2,Consulting,Beratung / Consulting,1,{'31-03-2022': 327}
17165,swapwork UG (haftungsbeschränkt),DE,Germany,10179,Berlin,Micro (≤10),1-2,Other,Sonstige,1,{'31-07-2022': 504}
14689,Synthro,DE,Germany,55122,Mainz,Micro (≤10),3-10,Consulting,Beratung / Consulting,1,{'31-08-2020': 285}
154460,Szene – Verein zur Förderung der Kultur,AT,Austria,5020,Salzburg,Small (≤50),11-25,Art / Culture / Entertainment,Kunst / Kultur / Unterhaltung,1,{'28-02-2026': 267}
25020,Taferner GmbH,IT,Italy,39031,Bruneck,Small (≤50),26-50,Transport / Logistics,Verkehr / Transport / Logistik,1,{'21-12-2022': 266}
38145,TAGWERK Großhandel für Naturkost GmbH,DE,Germany,85748,Garching,Micro (≤10),3-10,Trade / Consumption,Handel / Konsum,1,{'30-12-2015': 626}
14707,Taifun-Tofu GmbH,DE,Germany,79108,Freiburg,Mid (≤250),101-250,Nutrition / Agriculture / Forestry,Nahrungsmittel / Land /  Forstwirtschaft,2,"{'30-09-2018': 575, '31-08-2021': 608}"
44963,Talents4Good GmbH,DE,Germany,10117,Berlin,Micro (≤10),3-10,HR,Personalwesen / Personalbeschaffung,1,{'31-12-2017': 454}
14986,Tannerhof GmbH & Co.KG,DE,Germany,83735,Bayrischzell,Small (≤50),26-50,Tourism / Hotel / Catering,Tourismus / Hotel / Gastronomie,1,{'31-12-2021': 571}
37564,Tanzschule Schwebach,AT,Austria,1220,Wien,Micro (≤10),3-10,Services,Dienstleistung,2,{'30-06-2014': 451}
14875,Taoasis GmbH Natur Duft Manufaktur,DE,Germany,32758,Detmold,Small (≤50),26-50,Health / Social Affairs / Nursing,Gesundheitswesen / Soziales / Pflege,1,
68530,TAOASIS GmbH Natur Duft Manufaktur,DE,Germany,32791,Lage,Small (≤50),26-50,Chemistry,Chemie,1,{'31-10-2024': 456}
129596,TARABAO Bio.Fair.Direkt GmbH,DE,Germany,81735,München,Small (≤50),11-25,Trade / Consumption,Handel / Konsum,1,{'31-12-2025': 345}
37001,taz Verlags u. Vertriebs GmbH,DE,Germany,10969,Berlin,Large (>250),>250,Media,Medien,1,{'31-03-2017': 395}
14853,Team Christian Felber,AT,Austria,1072,Wien,Micro (≤10),3-10,Consulting,Beratung / Consulting,4,"{'30-12-2014': 662, '30-06-2017': 617, '30-04-2020': 647, '30-09-2022': 674}"
76898,Team23 GmbH,DE,Germany,86153,Augs,Mid (≤250),51-100,Internet / Multimedia,Internet / Multimedia,1,{'31-01-2025': 265}
30156,Techgenossen eG,DE,Germany,81735,München,Micro (≤10),3-10,EDP / IT,EDV / IT,1,{'31-07-2023': 448}
39029,Technischen Hochschule Nürnberg Georg Simon Ohm,DE,Germany,90489,Nürnberg,Large (>250),>250,Education / University / Polytechnic / Schools,Bildung / Universität / FH / Schulen,1,{'31-10-2023': 321}
78432,TECTUM GmbH,AT,Austria,6845,Hohenems,Small (≤50),26-50,Construction / Architecture,Baugewerbe / Architektur,1,{'30-11-2024': 297}
126584,Tenero Consulting sas,IT,Italy,37059,Zevio,Micro (≤10),1-2,Waste Disposal,Abfallentsorgung,1,{'01-06-2025': 139}
144919,Tepui Energy UG,DE,Germany,40878,Ratingen,Micro (≤10),1-2,Consulting,Beratung / Consulting,1,
164468,terratax Steuerberatungsgesellschaft mbH,DE,Germany,82166,Gräfelfing,Small (≤50),26-50,Fiscal Advice / Auditing,Steuerberatung / Wirtschaftsprüfung,1,
62100,TESD GmbH,DE,Germany,89075,Ulm,Micro (≤10),1-2,EDP / IT,EDV / IT,1,{'31-10-2024': 532}
25351,tetrateam – Nachhaltige Konzepte OHG,DE,Germany,10961,Berlin,Micro (≤10),1-2,Insurance,Versicherung,2,"{'28-02-2022': 687, '31-12-2024': 677}"
50520,Textlandia Sibylle Reuter,DE,Germany,40593,Düsseldorf,Micro (≤10),1-2,Consulting,Beratung / Consulting,1,{'31-10-2023': 586}
41216,The Camphill School,US,United States,19343,Glenmoore,Mid (≤250),101-250,Education / University / Polytechnic / Schools,Bildung / Universität / FH / Schulen,1,{'30-07-2017': 552}
112211,The Changer GmbH,DE,Germany,12053,Berlin,Micro (≤10),3-10,Services,Dienstleistung,1,{'31-10-2025': 404}
92473,The Circular Project,ES,Spain,28008,Madrid,Micro (≤10),1-2,Other,Sonstige,,
106276,The New School for Information Services,NL,Netherlands,1071 cv,amsterdam,Small (≤50),11-25,Education / University / Polytechnic / Schools,Bildung / Universität / FH / Schulen,1,{'31-03-2025': 325}
45841,Theater ecce,AT,Austria,5020,Salzburg,Micro (≤10),3-10,Art / Culture / Entertainment,Kunst / Kultur / Unterhaltung,1,{'30-06-2024': 566}
35273,"Theater Salz+Pfeffer, Nürnberg",DE,Germany,90443,Nürnberg,Micro (≤10),3-10,Art / Culture / Entertainment,Kunst / Kultur / Unterhaltung,2,"{'30-06-2023': 381, '30-09-2025': 447}"
14751,TherapieZeitRaum,DE,Germany,30659,Hannover,Small (≤50),11-25,Health / Social Affairs / Nursing,Gesundheitswesen / Soziales / Pflege,1,{'31-12-2021': 697}
14934,Think fresh,DE,Germany,35647,Waldsolms,Micro (≤10),1-2,Consulting,Beratung / Consulting,1,{'31-03-2022': 317}
164413,Thomas Böke,DE,Germany,59590,Geseke,Micro (≤10),1-2,Consulting,Beratung / Consulting,1,
14713,Thomas Henne,DE,Germany,88045,Friedrichshafen,Micro (≤10),1-2,Consulting,Beratung / Consulting,2,"{'30-05-2021': 354, '30-11-2025': 610}"
44779,"Thomas Huber, Bauernhof „Kripp“",AT,Austria,6067,Absam,Micro (≤10),1-2,Nutrition / Agriculture / Forestry,Nahrungsmittel / Land /  Forstwirtschaft,1,{'15-09-2016': 622}
14981,"Thomas Mönius, Gemeinwohlberater",DE,Germany,90419,Nürnberg,Micro (≤10),1-2,Consulting,Beratung / Consulting,2,"{'31-05-2022': 465, '31-10-2024': 547}"
115472,Thomas Schanz Solutions,CH,Switzerland,8232,Merishausen,Micro (≤10),1-2,Consulting,Beratung / Consulting,1,{'30-06-2025': 481}
47041,Thomas Uloth Unternehmensberatung,DE,Germany,10179,Berlin – Mitte,Micro (≤10),1-2,Consulting,Beratung / Consulting,2,"{'30-09-2020': 171, '31-12-2023': 271}"
98829,Thomas Uloth Unternehmensberatung,DE,Germany,10179,Berlin,Micro (≤10),1-2,Consulting,Beratung / Consulting,,
155753,Thomas Uloth Unternehmensberatung,DE,Germany,10179,Berlin – Mitte,Micro (≤10),1-2,Consulting,Beratung / Consulting,1,
14969,Tim Weinert,DE,Germany,70372,Stuttgart,Micro (≤10),1-2,Consulting,Beratung / Consulting,1,{'28-02-2022': 339}
40968,Tischlein Deck Dich e. V.,DE,Germany,76135,Karlsruhe,Micro (≤10),3-10,Tourism / Hotel / Catering,Tourismus / Hotel / Gastronomie,1,{'31-01-2018': 548}
27432,TLB GmbH,AT,Austria,6543,Nauders,Micro (≤10),3-10,Transport / Logistics,Verkehr / Transport / Logistik,1,{'31-01-2023': 239}
47141,TOFU Manufaktur Christian Nagel GmbH,DE,Germany,25474,Ellerbek,Micro (≤10),3-10,Nutrition / Agriculture / Forestry,Nahrungsmittel / Land /  Forstwirtschaft,1,{'31-10-2023': 524}
56881,Topp Textil GmbH,DE,Germany,87471,Durach,Mid (≤250),51-100,Textile,Textilbranche,1,{'30-06-2024': 342}
131835,Tourismusverband Ostallgäu e.V.,DE,Germany,87616,Marktoberdorf,Micro (≤10),3-10,Tourism / Hotel / Catering,Tourismus / Hotel / Gastronomie,1,
14806,Tourismusverband Wilder Kaiser,AT,Austria,6352,Ellmau,Small (≤50),26-50,Tourism / Hotel / Catering,Tourismus / Hotel / Gastronomie,1,{'31-12-2021': 508}
14811,Trafik Doppelhammer,AT,Austria,6342,Niederndorf,Micro (≤10),3-10,Trade / Consumption,Handel / Konsum,1,{'31-12-2019': 153}
33859,Transition Woods gGmbH,DE,Germany,80637,München,Micro (≤10),3-10,Nutrition / Agriculture / Forestry,Nahrungsmittel / Land /  Forstwirtschaft,1,{'30-11-2023': 414}
92439,Trasub La Vila S.L.,ES,Spain,03570,Villajoyosa,,,Other,Sonstige,,
133348,Treebu Srl società benefit,IT,Italy,37133,Verona,Micro (≤10),3-10,Nutrition / Agriculture / Forestry,Nahrungsmittel / Land /  Forstwirtschaft,1,{'16-06-2024': 236}
91324,TRESS Brüder (TRESS Lebensmittel GmbH & Co. KG & Tress Gastronomie GmbH & Co. KG),DE,Germany,72534,Hayingen-Ehestetten,Mid (≤250),51-100,Tourism / Hotel / Catering,Tourismus / Hotel / Gastronomie,1,{'31-03-2025': 445}
36883,Trigon Entwicklungsberatung registrierte Genossenschaft mit beschränkter Haftung,AT,Austria,8020,Graz,Micro (≤10),3-10,Consulting,Beratung / Consulting,1,{'31-12-2013': 477}
14690,Trumer Privatbrauerei,AT,Austria,5162,Obertrum,Small (≤50),26-50,Nutrition / Agriculture / Forestry,Nahrungsmittel / Land /  Forstwirtschaft,3,"{'30-09-2018': 427, '30-06-2021': 329, '30-06-2025': 375}"
40976,Tut-All Software GmbH,DE,Germany,76275,Ettlingen,Micro (≤10),1-2,EDP / IT,EDV / IT,1,{'30-06-2015': 461}
30333,two4science,DE,Germany,64297,Darmstadt,Micro (≤10),3-10,Chemistry,Chemie,1,{'30-04-2023': 423}
132121,TZ Net GmbH,DE,Germany,44147,Dortmund,Micro (≤10),1-2,Public Administration,Öffentliche Verwaltung,1,{'25-10-2025': 182}
62183,Uitgeverij Genoeg,NL,Netherlands,5342 AL,Oss,Micro (≤10),1-2,Media,Medien,1,
14719,Ulenspiegel Druck GmbH & Co. KG,DE,Germany,82346,Andechs,Micro (≤10),3-10,Printing / Paper / Packaging,Druck / Papier / Verpackung,2,{'30-06-2018': 668}
14916,Ulmer Weltladen,DE,Germany,89073,Ulm,Micro (≤10),3-10,Trade / Consumption,Handel / Konsum,1,
14691,Ulrike Häussler,DE,Germany,68219,Mannheim,Micro (≤10),1-2,Consulting,Beratung / Consulting,2,{'31-05-2021': 443}
14983,Universität Kassel Hessische Staatsdomäne,DE,Germany,34393,Grebenstein,Small (≤50),11-25,Research / Development / Science,Forschung / Entwicklung / Wissenschaft,1,{'31-12-2021': 507}
14977,Unser Kastanienhof,DE,Germany,34289,Zierenberg-Oberelsungen,Micro (≤10),3-10,Nutrition / Agriculture / Forestry,Nahrungsmittel / Land /  Forstwirtschaft,1,{'31-12-2021': 615}
45134,Unternehmensberatung & Training Dr. Sukowski,DE,Germany,12623,Berlin,Micro (≤10),1-2,Fiscal Advice / Auditing,Steuerberatung / Wirtschaftsprüfung,1,{'31-12-2017': 387}
74298,Unternehmensberatung Hagmann,AT,Austria,3123,Großrust,Micro (≤10),1-2,Consulting,Beratung / Consulting,1,{'31-03-2025': 449}
14757,UnternehmensGrün e.V.,DE,Germany,10117,Berlin,Micro (≤10),3-10,Associations / Societies,Vereine,2,{'31-12-2017': 601}
124485,UnternehmensSinn PartG,DE,Germany,10179,Berlin,Micro (≤10),1-2,Consulting,Beratung / Consulting,1,
25349,UnternehmensSinn PartGes,DE,Germany,10585,Berlin,Micro (≤10),1-2,Consulting,Beratung / Consulting,1,{'28-02-2022': 421}
83220,upDATE Gesellschaft für Beratung und Training mbH,DE,Germany,90449,Nürnberg,Micro (≤10),3-10,Consulting,Beratung / Consulting,1,{'30-09-2024': 287}
92383,Urbaser S.A,ES,Spain,38110,Santa Cruz de Tenerife,,,Other,Sonstige,,
66816,Urpunkt,CH,Switzerland,3012,Bern,Micro (≤10),1-2,Consulting,Beratung / Consulting,1,{'31-03-2024': 236}
14876,Urte Töpfer – Wirtschaften mit Menschen,DE,Germany,10827,Berlin,Micro (≤10),1-2,Consulting,Beratung / Consulting,2,"{'31-10-2016': 458, '31-10-2019': 451}"
92463,USS,ES,Spain,35010,Las Palmas de Gran Canaria,Micro (≤10),1-2,Other,Sonstige,,
14795,Vägen Ut! Kooperativen,SE,Sweden,41458,Göteborg,Mid (≤250),51-100,Craft,Handwerk,2,{'30-04-2022': 660}
40899,Vanovi Design,DE,Germany,12437,Berlin,Micro (≤10),3-10,Media,Medien,1,{'31-08-2023': 304}
14917,Vaude,DE,Germany,88069,Tettnang,Large (>250),>250,Textile,Textilbranche,3,"{'28-02-2015': 480, '31-01-2017': 502, '30-03-2020': 631}"
14749,ver.de für nachhaltige Entwicklung e.G.,DE,Germany,80634,München,Micro (≤10),1-2,Insurance,Versicherung,2,"{'31-07-2021': 530, '31-03-2024': 597}"
44757,Verein freipflanzen,AT,Austria,6020,Innsbruck,Micro (≤10),1-2,Nutrition / Agriculture / Forestry,Nahrungsmittel / Land /  Forstwirtschaft,1,{'15-09-2016': 616}
37618,Vereinigte Volksbank eG,DE,Germany,33034,Brakel,Mid (≤250),101-250,Banking,Banken,1,{'31-05-2023': 355}
92461,"Veritable, SL",ES,Spain,08028,Barcelona,Micro (≤10),1-2,Other,Sonstige,,
143256,Vermessung Schubert ZT GmbH,AT,Austria,3100,St. Pölten,Mid (≤250),51-100,Services,Dienstleistung,1,{'31-10-2025': 292}
36795,Veronika Lamprecht GAIA-Akademie,AT,Austria,4112,St. Gotthard i. M.,Micro (≤10),1-2,Consulting,Beratung / Consulting,1,{'30-12-2013': 622}
143242,Versicherungsagentur Halmenschlager GmbH,AT,Austria,3071,Böheimkirchen,Micro (≤10),3-10,Insurance,Versicherung,1,{'31-10-2025': 163}
82861,vhs Kempten,DE,Germany,87435,Kempten,Small (≤50),26-50,Education / University / Polytechnic / Schools,Bildung / Universität / FH / Schulen,1,{'31-07-2024': 446}
153963,viadee Unternehmensberatung AG,DE,Germany,48147,Münster,Mid (≤250),101-250,Consulting,Beratung / Consulting,1,
38378,Videotechnik Ing. Friedel HANS e.U.,AT,Austria,2380,Perchtoldsdorf,Micro (≤10),3-10,Craft,Handwerk,1,{'31-12-2014': 617}
92375,Viña ecológica Miguel Poveda Justamante,ES,Spain,03640,Monòver,,,Other,Sonstige,,
102365,Vinzenz Service GmbH,DE,Germany,72488,Sigmaringen,Mid (≤250),51-100,Tourism / Hotel / Catering,Tourismus / Hotel / Gastronomie,3,"{'31-10-2020': 254, '31-12-2022': 372, '30-06-2025': 432}"
93793,Vision11 GmbH,DE,Germany,80336,München,Mid (≤250),51-100,Consulting,Beratung / Consulting,1,{'31-12-2024': 100}
25050,visuellverstehen GmbH,DE,Germany,24937,Flensburg,Small (≤50),11-25,EDP / IT,EDV / IT,2,"{'31-03-2023': 405, '31-05-2025': 476}"
15653,Vitark NV,BE,Belgium,9041,Oostakker,Micro (≤10),1-2,Consulting,Beratung / Consulting,1,{'31-07-2022': 348}
94595,Vivat Lingua! Sprachtrainingsprogramme GmbH,DE,Germany,72072,Tübingen,Small (≤50),11-25,Education / University / Polytechnic / Schools,Bildung / Universität / FH / Schulen,1,{'31-12-2024': 469}
14962,Voelkel GmbH,DE,Germany,29478,Höhbeck,Mid (≤250),101-250,Nutrition / Agriculture / Forestry,Nahrungsmittel / Land /  Forstwirtschaft,2,"{'31-10-2022': 584, '31-05-2025': 663}"
45136,Volkshilfe Tirol,AT,Austria,6020,Innsbruck,Mid (≤250),51-100,Health / Social Affairs / Nursing,Gesundheitswesen / Soziales / Pflege,1,{'30-06-2015': 504}
61662,Vollkornbäckerei Barth GmbH,DE,Germany,56332,Niederfell,Small (≤50),26-50,Nutrition / Agriculture / Forestry,Nahrungsmittel / Land /  Forstwirtschaft,1,{'30-06-2024': 395}
14877,Vollkornbäckerei Niemand GmbH,DE,Germany,58093,Hagen,Small (≤50),26-50,Craft,Handwerk,1,{'31-10-2020': 417}
44965,Vorarlberger Gemeindeverband,AT,Austria,6850,Dornbirn,Micro (≤10),3-10,Public Administration,Öffentliche Verwaltung,1,{'30-09-2018': 767}
124636,Vorarlberger Landes-Versicherung V.a.G.,AT,Austria,6900,Bregenz,Mid (≤250),101-250,Insurance,Versicherung,2,"{'31-07-2022': 247, '31-08-2025': 287}"
101572,w e i s s Architekten,DE,Germany,85072,Eichstätt,Small (≤50),11-25,Construction / Architecture,Baugewerbe / Architektur,1,{'31-07-2025': 274}
45138,Walch Bewegt GmbH,AT,Austria,6700,Bludenz,Micro (≤10),3-10,Trade / Consumption,Handel / Konsum,1,{'31-05-2016': 638}
41075,Waldkindergarten St. Andrä,AT,Austria,3423,Wördern,Micro (≤10),3-10,Education / University / Polytechnic / Schools,Bildung / Universität / FH / Schulen,1,{'30-06-2015': 774}
14777,Waldorfschulverein Freiburg St. Georgen,DE,Germany,79111,Freiburg,Mid (≤250),51-100,Education / University / Polytechnic / Schools,Bildung / Universität / FH / Schulen,2,"{'30-05-2019': 777, '31-12-2020': 716}"
14878,Waldorfschulverein Wetterau e.V.,DE,Germany,61231,Bad Nauheim,Mid (≤250),51-100,Education / University / Polytechnic / Schools,Bildung / Universität / FH / Schulen,1,{'30-05-2020': 632}
14918,Waldtraud Dietrich,AT,Austria,6414,Mieming,Micro (≤10),1-2,Consulting,Beratung / Consulting,1,{'31-12-2020': 312}
14693,Wasmuth & Hörstel,DE,Germany,56170,Bendorf,Micro (≤10),1-2,Services,Dienstleistung,2,"{'31-10-2020': 325, '31-08-2023': 457}"
14779,WBS TRAINING AG,DE,Germany,12099,Berlin,Large (>250),>250,Education / University / Polytechnic / Schools,Bildung / Universität / FH / Schulen,3,"{'30-11-2018': 272, '31-01-2022': 356, '28-02-2026': 446}"
37562,Weingut Jurtschitsch,AT,Austria,3550,Langenlois,Small (≤50),26-50,Nutrition / Agriculture / Forestry,Nahrungsmittel / Land /  Forstwirtschaft,1,{'30-06-2023': 496}
14694,Weiz Stadtmarketing KG,AT,Austria,8160,A-Weiz,Micro (≤10),3-10,Art / Culture / Entertainment,Kunst / Kultur / Unterhaltung,2,"{'30-06-2015': 555, '31-07-2021': 626}"
45140,"wellYunit, Sabine Siehl e.K.",DE,Germany,20251,Hamburg,Micro (≤10),1-2,Internet / Multimedia,Internet / Multimedia,1,{'28-02-2016': 341}
38148,Weltladen Lienz,AT,Austria,9900,Lienz,Micro (≤10),3-10,Trade / Consumption,Handel / Konsum,2,"{'31-05-2018': 464, '31-08-2023': 550}"
41212,Weltweitwandern GmbH,AT,Austria,8020,Graz,Micro (≤10),3-10,Tourism / Hotel / Catering,Tourismus / Hotel / Gastronomie,1,{'30-12-2015': 425}
115469,WERKHAUS Design + Produktion GmbH,DE,Germany,29389,Bad Bodenteich,Mid (≤250),101-250,Other,Sonstige,1,{'31-03-2025': 568}
14879,werkzwei – Lutz Dudek,DE,Germany,33602,Bielefeld,Micro (≤10),1-2,Services,Dienstleistung,1,
77336,Werner Furtner Consulting,DE,Germany,83533,Edling,Micro (≤10),1-2,Consulting,Beratung / Consulting,2,"{'31-01-2022': 379, '30-06-2024': 461}"
35667,Wertachtal-Werkstätten gGmbH,DE,Germany,87600,Kaufbeuren,Mid (≤250),101-250,Health / Social Affairs / Nursing,Gesundheitswesen / Soziales / Pflege,2,"{'31-07-2023': 291, '31-12-2025': 327}"
14715,Werte-voller-Leben GmbH & Co KG,DE,Germany,86356,Steppach/Neusäss,Micro (≤10),3-10,Health / Social Affairs / Nursing,Gesundheitswesen / Soziales / Pflege,1,{'31-07-2022': 129}
14880,WeShareIT-Ulrich Lang,DE,Germany,74348,Lauffen am Neckar,Micro (≤10),1-2,Consulting,Beratung / Consulting,2,"{'31-01-2018': 500, '30-01-2020': 500}"
25379,Westerwald-Brauerei H.Schneider GmbH & Co.KG,DE,Germany,57627,Hachenburg,Mid (≤250),51-100,Nutrition / Agriculture / Forestry,Nahrungsmittel / Land /  Forstwirtschaft,2,"{'30-06-2023': 302, '30-06-2025': 416}"
14956,"Westphal & Baade, Abyme GbR",DE,Germany,10967,Berlin,Micro (≤10),1-2,Trade / Consumption,Handel / Konsum,1,{'28-02-2022': 303}
35606,WEtell GmbH,DE,Germany,79106,Freiburg,Micro (≤10),3-10,Telecommunication,Telekommunikation,2,"{'30-09-2023': 470, '31-10-2025': 547}"
92341,WeWater,ES,Spain,38480,Buenavista,,,Other,Sonstige,,
24791,WFG Bornheim,DE,Germany,53332,Bornheim,Micro (≤10),3-10,Services,Dienstleistung,2,"{'28-02-2023': 306, '31-10-2025': 367}"
14919,Wiedemann Jörn,DE,Germany,86984,Prem,Micro (≤10),1-2,Consulting,Beratung / Consulting,4,"{'25-03-2016': 510, '30-11-2020': 457, '31-07-2023': 447, '31-10-2025': 399}"
16161,Wiehag Holding GmbH,AT,Austria,4950,Altheim,Mid (≤250),101-250,Construction / Architecture,Baugewerbe / Architektur,1,{'31-05-2022': 520}
48061,Wildbad Rothenburg Evgl. Tagungsstätte KdöR,DE,Germany,91541,Rothenburg ob der Tauber,Small (≤50),26-50,Tourism / Hotel / Catering,Tourismus / Hotel / Gastronomie,1,{'29-02-2024': 500}
47816,Willert Holding GmbH,DE,Germany,86167,Augsburg,Micro (≤10),1-2,Real Estate / Facility Management,Immobilien / Facility Management,1,{'31-10-2023': 183}
112793,Willmes und Partner,DE,Germany,59759,Arnsberg,Small (≤50),11-25,Consulting,Beratung / Consulting,1,{'25-09-2025': 263}
30343,Windkraft Simonsfeld AG,AT,Austria,2115,Ernstbrunn,Mid (≤250),51-100,Energy,Energiewirtschaft,2,"{'30-06-2023': 562, '30-04-2025': 632}"
14799,Winkler Solar GmbH,AT,Austria,6800,Feldkirch,Small (≤50),11-25,Energy,Energiewirtschaft,1,
111946,Wino Biolandbau GmbH&Co.KG,DE,Germany,74336,Brackenheim,Small (≤50),11-25,Nutrition / Agriculture / Forestry,Nahrungsmittel / Land /  Forstwirtschaft,1,{'31-07-2025': 520}
24901,Wipptalreisen OHG,IT,Italy,39049,Pfitsch,Micro (≤10),3-10,Transport / Logistics,Verkehr / Transport / Logistik,1,{'21-12-2022': 266}
14991,Wir Kinder der Erde – Wildnisschule Bayern,DE,Germany,86938,Schondorf,Micro (≤10),1-2,Seminar / Fair Provider,Seminar- / Messeanbieter,1,{'13-11-2022': 356}
45142,WirkWandel Impuls GmbH,DE,Germany,12435,Berlin,Micro (≤10),3-10,Consulting,Beratung / Consulting,1,{'31-12-2017': 487}
102421,Wirtschaftsförderung Münster GmbH,DE,Germany,48149,Münster,Small (≤50),11-25,Other,Sonstige,1,{'31-10-2025': 233}
14881,Wissenschaftsladen Hannover e.V.,DE,Germany,30451,Hannover,Micro (≤10),1-2,Education / University / Polytechnic / Schools,Bildung / Universität / FH / Schulen,1,{'30-09-2019': 598}
18750,WITTIG HR CONSULTING,DE,Germany,63741,Aschaffenburg,Micro (≤10),1-2,Consulting,Beratung / Consulting,1,{'30-06-2020': 507}
154693,WITTIG HR Consulting,DE,Germany,63741,Aschaffenburg,Micro (≤10),1-2,Consulting,Beratung / Consulting,1,{'31-03-2026': 431}
14882,Wittig HR-CONSULTING,DE,Germany,63741,Aschaffenburg,Micro (≤10),1-2,Consulting,Beratung / Consulting,2,"{'31-05-2017': 386, '31-08-2022': 537}"
132129,WMC Diktiersysteme GmbH,DE,Germany,44143,Dortmund,Micro (≤10),3-10,Services,Dienstleistung,1,{'25-10-2025': 153}
55745,wobkom GmbH,DE,Germany,42897,Remscheid,Micro (≤10),1-2,Services,Dienstleistung,1,{'29-02-2024': 447}
37744,Wodara Immobilien e.K.,DE,Germany,12681,Berlin,Micro (≤10),1-2,Consulting,Beratung / Consulting,1,{'30-10-2020': 226}
36556,Wofgang Biebel,AT,Austria,2540,Bad Vöslau,Micro (≤10),1-2,Consulting,Beratung / Consulting,1,{'31-12-2015': 607}
14758,Wohnanlage Fasanenhof gGmbH,DE,Germany,70565,Stuttgart,Small (≤50),26-50,Health / Social Affairs / Nursing,Gesundheitswesen / Soziales / Pflege,1,{'30-11-2021': 444}
25192,Wolf Oeding Unternehmensberatung,DE,Germany,22765,Hamburg,Micro (≤10),1-2,Consulting,Beratung / Consulting,1,{'31-05-2023': 535}
30100,WOOD Kollnig Handelsagentur,AT,Austria,9990,Debant,Micro (≤10),1-2,Craft,Handwerk,1,{'31-05-2018': 341}
46088,Yellow Birds Consulting GmbH & Co. KG,DE,Germany,89081,Ulm,Micro (≤10),1-2,Consulting,Beratung / Consulting,2,"{'31-12-2019': 319, '31-05-2023': 280}"
143436,Yellow Birds GmbH,DE,Germany,89075,Ulm,Micro (≤10),1-2,Consulting,Beratung / Consulting,1,
19131,Ynova Innovation Company BV,NL,Netherlands,8627SJ,Gauw,Micro (≤10),1-2,Consulting,Beratung / Consulting,1,{'31-10-2022': 300}
159682,YYYY Test,DE,Germany,1111,YYYY Testort,Small (≤50),26-50,Consulting,Beratung / Consulting,1,
159686,YYYY Test,DE,Germany,1111,YYYY Testort,Small (≤50),26-50,Consulting,Beratung / Consulting,3,
153924,ZABELDruck GmbH,DE,Germany,78315,Radolfzell am Bodensee,Micro (≤10),3-10,Printing / Paper / Packaging,Druck / Papier / Verpackung,1,
14920,Zahnarztpraxis am Kreuzberg,DE,Germany,10961,Berlin-Kreuzberg,Micro (≤10),3-10,Health / Social Affairs / Nursing,Gesundheitswesen / Soziales / Pflege,1,{'31-05-2017': 388}
124481,Zahnarztpraxis am Kreuzberg,DE,Germany,10961,Berlin,Micro (≤10),3-10,Health / Social Affairs / Nursing,Gesundheitswesen / Soziales / Pflege,1,{'31-08-2025': 289}
30353,Zallis Naturkost Cafe,DE,Germany,83404,Ainring – Mitterfelden,Micro (≤10),1-2,Nutrition / Agriculture / Forestry,Nahrungsmittel / Land /  Forstwirtschaft,1,{'31-07-2019': 621}
92485,Zaragoza Vivienda,ES,Spain,50003,Zaragoza,Micro (≤10),1-2,Other,Sonstige,1,{'15-11-2018': 673}
44959,Zentrum Mensch Andrea Stoffers,DE,Germany,41460,Neuss,Micro (≤10),1-2,Health / Social Affairs / Nursing,Gesundheitswesen / Soziales / Pflege,1,{'31-03-2016': 494}
118849,Zentrum Zeitgenössischer Musik – Kunsthaus Nexus,AT,Austria,5760,Saalfelden,Micro (≤10),3-10,Art / Culture / Entertainment,Kunst / Kultur / Unterhaltung,1,{'30-04-2025': 385}
92844,Zimmerei Diedrich – Die Gesundhausbauer GmbH,DE,Germany,37434,Rüdershausen,Small (≤50),11-25,Construction / Architecture,Baugewerbe / Architektur,1,{'31-10-2024': 282}
45156,zimmerwerkstatt Nicola Bannier und Michael Weber,DE,Germany,29456,Hitzacker,Micro (≤10),1-2,Craft,Handwerk,1,{'28-02-2016': 534}
165659,ZORA Kinder- und Jugendhilfe gGmbH,DE,Germany,17489,Greifswald,Mid (≤250),51-100,Health / Social Affairs / Nursing,Gesundheitswesen / Soziales / Pflege,1,
14718,Zukunftswerk eG,DE,Germany,82319,Starnberg,Micro (≤10),3-10,Consulting,Beratung / Consulting,1,{'30-04-2021': 432}
30321,zündstoff. fair organic clothing S. Klemz & M. Rau GbR,DE,Germany,79100,Freiburg,Micro (≤10),3-10,Textile,Textilbranche,1,{'30-08-2019': 726}
