id,organization,country,postal_code,city,company_size,economic_sector
14885,4e solutions GmbH,DE,70794,Filderstadt,(2)3-10,Handel / Konsum
14886,4plus5,DE,89077,Ulm,(2)3-10,Baugewerbe / Architektur
35275,A & K Engemann GbR,DE,34439,Willebadessen,(2)3-10,Nahrungsmittel / Land /  Forstwirtschaft
44668,A&P Steuerberatungsgesellschaft mbH,DE,14480,Potsdam,(3)11-25,Beratung / Consulting
29652,AAP-ARCHITEKTEN ZT-GMBH,AT,1080,Wien,(3)11-25,Baugewerbe / Architektur
14887,Abitare,DE,10829,Berlin,(2)3-10,Handwerk
46986,"abw – gemeinnützige Gesellschaft für Arbeit, Bildung und Wohnen mbH",DE,14057,Berlin,(3)11-25,Bildung / Universität / FH / Schulen
92361,"Action Waterscape, S.L.",ES,46200,Paiporta,(8) Todas las tallas,Otros
14888,ad fontes,DE,27624,Geestland,(2)3-10,Elektro / Elektronik
40981,ADAMAH BioHof G. Zoubek Vertriebs KG,AT,2280,Glinzendorf,(2)3-10,Nahrungsmittel / Land / Forstwirtschaft
14973,Adelby 1 Kinder- und Jugenddienste gGmbH,DE,24937,Flensburg,(7)250-,Gesundheitswesen / Soziales / Pflege
92389,AFEF-EBC,ES,37187,Miranda de Azán,(8) Todas las tallas,Otros
150227,Afier Accountants + Adviseurs,NL,7901 AR,Tynaarlo,(5)51-100,Beratung / Consulting
30337,Africa Green Tec AG,DE,63512,Hainburg,(3)11-25,Energiewirtschaft
29635,AGENTUR FÜR EVALUATION & QUALITÄTSENTWICKLUNG,CH,9100,Herisau,(1)1-2,Beratung / Consulting
132863,AGIT mbH,DE,52074,52074 Aachen,(3)11-25,Sonstige Branchen
92421,Agresta Soc. Cooperativa,ES,38004,Santa Cruz de Tenerife,(8) Todas las tallas,Otros
92373,Agricología José Manuel Bisetto,ES,03759,Benidoleig,(8) Todas las tallas,Otros
36548,"AISENBREY, RICHTER & PARTNER",DE,10115,Berlin,(2)3-10,Beratung / Consulting
37075,Aka Merch & Textil GmbH,DE,50931,Köln,(1)1-2,Seminar / Messeanbieter
58579,Aktion Eine Welt e.V.,DE,97616,Bad Neustadt,(1)1-2,Handel / Konsum
29850,Alex Wissmann,CH,8356,Aadorf / Ettenhausen,(1)1-2,Beratung / Consulting
92467,Alive Surf,UK,BT56 8FQ,Portrush,(1)1-2,Otros
78313,Allgäu Batterie GmbH & Co. KG,DE,87490,Haldenwang,(4)26-50,Elektro / Elektronik
35674,Allgäu GmbH,DE,87435,Kempten,(3)11-25,Sonstige Branchen
113132,Allgemengwuel Agence,LU,4980,Reckingen/Mess,(1)1-2,Beratung / Consulting
14665,ALLMENDA Social Business eG,AT,6850,Dornbirn,(1)1-2,Dienstleistung
92491,Aloeysalud,ES,28027,Madrid,(1)1-2,Otros
14889,Alpendruck,AT,6460,Imst,(2)3-10,Druck / Papier / Verpackung
93957,"Alpenland Gemeinnützige Bau-, Wohn- und Siedlungsgenossenschaft reg.Gen.m.b.H.",AT,3100,St. Pölten,(5)51-100,Immobilien / Facility Management
139397,Alpha IC GmbH,DE,96047,Bamberg,(5)51-100,Immobilien / Facility Management
92475,Alter Consulta,ES,28014,Madrid,(1)1-2,Otros
92443,Altur coop,ES,03690,Sant Vicent del Raspeig,(8) Todas las tallas,Otros
14818,"Amann, Ulrike, Raum für Gemeinwesenentwicklung",AT,6713,Ludesch,(1)1-2,Beratung / Consulting
91614,AMC Luxembourg,LU,7521,Mersch,(3)11-25,Finanzen
14819,AmVieh-Theater,DE,33824,Werther (Westfalen),(2)3-10,Tourismus / Hotel / Gastronomie
14772,ananjo informatiker,DE,63165,mühlheim am main,(2)3-10,EDV / IT
29214,"Andrea Aldosser, Ganzheitliche Personal- und Organisationsentwicklung",AT,6361,Hopfgartn,(1)1-2,Beratung / Consulting
30925,Andreas Heilmann Gartengestaltung,DE,83349,Palling,(2)3-10,Nahrungsmittel / Land / Forstwirtschaft
92507,Angaraveca,ES,28013,Madrid,(1)1-2,Otros
92457,Animación y logística cultural S.L.U.,ES,46017,Valencia,(8) Todas las tallas,Otros
37702,ANJA HAIDER-WALLNER/ SMILEVEDA,AT,7000,Eisenstadt,(1)1-2,Beratung / Consulting
79370,Anne Berg – Bewusster Wandel,DE,53227,Bonn,(1)1-2,Beratung / Consulting
126462,Annemarie Bink und Fiona Brinker GbR,DE,27568,Bremerhaven,(1)1-2,Handel / Konsum
82864,ANWANDER (Anwander GmbH & Co. KG / Anwander-Waldmann GmbH & Co. KG),DE,87477,Sulzberg,(4)26-50,Baugewerbe / Architektur
92455,Aplicaciones Industriales Valencianas S.L.,ES,46130,Massamagrell,(8) Todas las tallas,Otros
14820,Apotheke am Goetheplatz,DE,31582,Nienburg/Weser,(2)3-10,Medizin / Pharma
14821,ARBA-BIOPLAN Genossenschaft,CH,8400,Winterthur,(2)3-10,Baugewerbe / Architektur
14884,Arbatherm,CH,8408,Winterthur,(2)3-10,Elektro / Elektronik
14822,arbeit plus Salzburg,AT,5020,Salzburg,(1)1-2,Gesundheitswesen / Soziales / Pflege
92371,Arca de Babel S.L,ES,38004,Santa Cruz de Tenerife,(8) Todas las tallas,Otros
14737,Architekturbüro Mießl GmbH,DE,86529,Schrobenhausen Sandzell,(2)3-10,Baugewerbe / Architektur
44670,ARGEkultur gemeinnützige GmbH,AT,5020,Salzburg,(3)11-25,Kunst / Kultur / Unterhaltung
37707,Armin Hipper – Büro für Nachhaltigkeit & Wirtschaftsethik,DE,88099,Neukirch (Bodenseekreis),(1)1-2,Beratung / Consulting
14966,Armin Schmelzle,AT,5161,Elixhausen,(1)1-2,Beratung / Consulting
127521,Armin Schmelzle Entwicklungsberatung,AT,5161,Elixhausen,(1)1-2,Beratung / Consulting
124478,ars scribendi,DE,30177,Hannover,(1)1-2,Dienstleistung
80265,Artist MesseService und -Bau GmbH & Co. KG,DE,33104,Paderborn,(3)11-25,Handwerk
92489,ArtMarketing SL,ES,28224,Pozuelo del Alarcón,(1)1-2,Otros
109043,ASC Göttingen von 1846 e.V.,DE,37083,Göttingen,(5)51-100,Vereine
92391,Asociación Traperos de Emaús Murcia,ES,30002,Murcia,(8) Todas las tallas,Otros
92413,Astrotouristing,ES,38400,Puerto de la Cruz,(8) Todas las tallas,Otros
67207,Atelier Marianna,AT,9900,Lienz,(2)3-10,Handwerk
135370,Atlantic Hotel Sail City GmbH,DE,28789,Bremerhaven,(6)101-250,Tourismus / Hotel / Gastronomie
145404,audit.innovation GmbH Wirtschaftsprüfungsgesellschaft,DE,70182,Deutschland,(1)1-2,Finanzen
14891,AUROBIA GmbH & Co KG,DE,86919,Utting,(1)1-2,Beratung / Consulting
140968,authento Vera Boos,DE,85356,Freising,(1)1-2,Beratung / Consulting
25099,Auto Rainer GmbH,IT,39040,Ratschings,(2)3-10,Verkehr / Transport / Logistik
31380,avance Unternehmensberatung GmbH,CH,8832,Feusisberg,(1)1-2,Beratung / Consulting
17277,Avesani Marta,IT,37124,Verona,(1)1-2,Beratung / Consulting
34415,AXICA Kongress- und Tagungszentrum  GmbH,DE,10117,Berlin,(3)11-25,Seminar / Messeanbieter
133341,Azienda Agricola Foradori S.s,IT,38017,Mezzolombardo (TN),(3)11-25,Cibo / Agricoltura / Silvicoltura
14892,B.A.U.M Consult GmbH,DE,59073,Hamm,(2)3-10,Beratung / Consulting
127354,B.A.U.M. Consult GmbH,DE,59073,Hamm,(3)11-25,Beratung / Consulting
40970,b.it GmbH,AT,5300,Hallwang,(2)3-10,EDV / IT
14797,Bäckerei Bahde GmbH,DE,21218,Seevetal,(4)26-50,Handel / Konsum
14722,Backhaus Cramer,DE,80313,Gauting,(3)11-25,Nahrungsmittel / Land / Forstwirtschaft
14666,Backkultur,AT,6811,Göfis,(2)3-10,Handwerk
129947,Backwarenbetriebe Herbert Nelles OHG,DE,53332,Bornheim,(5)51-100,Handwerk
80263,Barghorn GmbH & Co. KG,DE,26919,Brake,(5)51-100,Maschinen / Anlagenbau
52502,Baril Coatings,NL,5234 GL,’s-Hertogenbosch,(5)51-100,Chemie
118474,base – homes for students GmbH,AT,1190,Wien,(3)11-25,Immobilien / Facility Management
44805,basilikum – soulfood,AT,6830,Rankweil,(2)3-10,Handel / Konsum
37265,Baukult ZT GmbH,AT,1150,Wien,(2)3-10,Baugewerbe / Architektur
44680,BAUMGARTNER & CO GMBH,AT,4553,Schlierbach,(4)26-50,Baugewerbe / Architektur
14893,Bausinger GmbH,DE,72479,Straßberg,(1)1-2,Dienstleistung
14696,Bayer und Hochdörffer GbR,DE,82380,Böbing-Grambach,(1)1-2,Beratung / Consulting
34938,be4energy GmbH,DE,12555,Berlin,(2)3-10,Energiewirtschaft
19776,Bean United GmbH,DE,82041,Oberhaching,(1)1-2,Handel / Konsum
135008,Bean United GmbH,DE,82041,Oberhaching,(2)3-10,Nahrungsmittel / Land / Forstwirtschaft
37753,Beat Stroo,CH,4312,Magden,(1)1-2,Beratung / Consulting
84520,"becker druck, F.W. Becker G,bH",DE,59821,Arnsberg,(4)26-50,Druck / Papier / Verpackung
92608,beckers bester GmbH,DE,37176,Nörten-Hardenberg,(6)101-250,Nahrungsmittel / Land / Forstwirtschaft
111951,Beethoven-Haus Bonn,DE,53111,Bonn,(3)11-25,Kunst / Kultur / Unterhaltung
14824,Berg Anne,DE,53227,Bonn,(1)1-2,Beratung / Consulting
85041,"Berglandkräuter aus Hessen, M. Rehs & U. Kern GbR",DE,36179,Bebra-Braunhausen,(2)3-10,Nahrungsmittel / Land / Forstwirtschaft
14746,BerlinBees Schüler*Innengenossenschaft,DE,10829,Berlin,(1)1-2,Nahrungsmittel / Land / Forstwirtschaft
104183,Bernd Hümmer (freiberufliche Tätigkeit) nicht in obigem Register,DE,90537,Feucht,(1)1-2,Beratung / Consulting
14667,Bernhard Oberrauch,IT,39100,Bozen,(1)1-2,Baugewerbe / Architektur
55121,Beschäftigungsförderung Göttingen (kAöR),DE,37073,Göttingen,(5)51-100,sonstiges
44685,BestPractice AG,CH,8500,Frauenfeld,(1)1-2,Beratung / Consulting
14894,BfG – Genossenschaft für Gemeinwohl,AT,1050,Wien,(3)11-25,Dienstleistung
14950,BfG Eigentümer/-innen- und Verwaltungsgenossenschaft eG,AT,1050,Wien,(3)11-25,Finanzen
22408,bhz Stuttgart e.V.,DE,70567,Stuttgart,(6)101-250,Gesundheitswesen / Soziales / Pflege
111948,Bibernelle Bio-Lieferdienst,DE,06846,Dessau,(2)3-10,Nahrungsmittel / Land / Forstwirtschaft
15520,Bichlbäck,AT,6342,Niederndorf,(3)11-25,Nahrungsmittel / Land / Forstwirtschaft
84571,Big Picture Consulting GmbH,DE,82152,Krailling,(1)1-2,Beratung / Consulting
41214,bio austria – Verein zur Förderung des Biologischen Landbaus,AT,1040,Wien,(2)3-10,Nahrungsmittel / Land / Forstwirtschaft
14825,Bio Hotel Bayerischer Wirt,DE,86167,Augsburg,(3)11-25,Tourismus / Hotel / Gastronomie
14826,Bio Hotel Eggensberger,DE,87629,Füssen – Hopfen am See,(4)26-50,Tourismus / Hotel / Gastronomie
64599,Bio Metzgerei Juffinger GmbH,AT,6335,Thiersee,(4)26-50,Nahrungsmittel / Land / Forstwirtschaft
127441,Bio-Landgut Fleisch EZG GmbH,DE,72108,Rottenburg am Neckar,(2)3-10,Nahrungsmittel / Land / Forstwirtschaft
38079,Bio-Marktgemeinschaft eG Stemmerhof,DE,81369,München,(3)11-25,Handel / Konsum
44687,BioBauernladen Kremstal GmbH,AT,4560,Kirchdorf an der Krems,(2)3-10,Nahrungsmittel / Land / Forstwirtschaft
133353,Biocaseificio Tomasoni,IT,25023,Gottolengo (BS),(2)3-10,Cibo / Agricoltura / Silvicoltura
92503,Biocosas,ES,08172,Sant Cugat del Vallés,(1)1-2,Otros
14721,Bioculture GmbH,DE,81541,München,(2)3-10,Marketing / Werbung / PR
30326,Biohof Lecker GbR,DE,83410,Laufen,(2)3-10,Nahrungsmittel / Land / Forstwirtschaft
82924,Biohof Lecker GbR,DE,83410,Laufen,(2)3-10,Handel / Konsum
44932,Biohof Reumann,AT,7042,Antau,(1)1-2,Nahrungsmittel / Land / Forstwirtschaft
30110,Biohotel Amadeus,DE,19053,Schwerin,(2)3-10,Tourismus / Hotel / Gastronomie
56311,Biohotel Bergkristall,AT,8971,Rohrmoos,(2)3-10,Tourismus / Hotel / Gastronomie
14987,BIOHOTEL KUNSTQUARTIER,DE,90547,Stein,(2)3-10,Tourismus / Hotel / Gastronomie
56307,Biohotel Rupertus GmbH & CoKG,AT,5771,Leogang,(3)11-25,Tourismus / Hotel / Gastronomie
14763,Biohotel Schiessentobel,AT,5164,Seeham,(2)3-10,Tourismus / Hotel / Gastronomie
56300,Biohotel Stillebach GmgH & CoKG,AT,6481,St. Leonhard,(2)3-10,Tourismus / Hotel / Gastronomie
30114,BioHotel und Gastronomie Burg Lenzen,DE,19309,Lenzen,(3)11-25,Tourismus / Hotel / Gastronomie
40894,biokaiser GmbH,DE,55252,Mainz-Kastel,(6)101-250,Nahrungsmittel / Land / Forstwirtschaft
85412,Bioladen Regenbogen Thomas Wälter,DE,59821,Arnsberg,(2)3-10,Nahrungsmittel / Land / Forstwirtschaft
40983,Bioland e.V.,DE,55116,Mainz,(2)3-10,Nahrungsmittel / Land / Forstwirtschaft
40985,Bioland Gärtnerei am Hainerbach Harro Colshorn,DE,83052,Bruckmühl,(2)3-10,Nahrungsmittel / Land / Forstwirtschaft
41043,Bioland Gärtnerei Hecker,DE,82140,Olching,(1)1-2,Nahrungsmittel / Land / Forstwirtschaft
40988,Bioland Lammertzhof – Fam. Hannen GbR,DE,41564,Kaarst,(2)3-10,Nahrungsmittel / Land / Forstwirtschaft
85214,Bioland Lammertzhof – Fam. Hannen GbR,DE,41564,Kaarst,(5)51-100,Nahrungsmittel / Land / Forstwirtschaft
44706,Biolandhof Josef Braun,DE,85354,Freising,(2)3-10,Nahrungsmittel / Land / Forstwirtschaft
14706,Biomarkt La Vida e.K.,DE,86919,Utting a.A.,(2)3-10,Handel / Konsum
14976,Biond GmbH,DE,34123,Kassel,(5)51-100,Dienstleistung
38663,Bioplan GbR Büro für Ökologie und Umweltplanung,DE,37671,Höxter,(3)11-25,Dienstleistung
92359,Bioproducts,ES,12540,Villareal,(8) Todas las tallas,Otros
92393,Biotremol,ES,03690,Sant Vicent del Raspeig,(8) Todas las tallas,Otros
14761,BioVitalHotel Sommerau,AT,5423,St. Koloman,(2)3-10,Tourismus / Hotel / Gastronomie
14937,bittar. worte & zeichen setzen,DE,10437,Berlin,(1)1-2,Dienstleistung
14938,BKK ProVita,DE,85232,Bergkirchen,(6)101-250,Gesundheitswesen / Soziales / Pflege
127384,Blackbit digital Commerce GmbH,DE,37079,Göttingen,(4)26-50,Marketing / Werbung / PR
87387,Blackroll AG,CH,8598,Bottighofen,(5)51-100,Gesundheitswesen / Soziales / Pflege
83986,Blank_Canvas,DE,83607,Holzkirchen,(1)1-2,Beratung / Consulting
14807,Blattfrisch GmbH,DE,20253,Hamburg,(2)3-10,Handel / Konsum
14765,Blattwerk Gartengestaltung GmbH,DE,70569,Stuttgart,(3)11-25,Baugewerbe / Architektur
19688,blp Geo Services GmbH,AT,4020,Linz,(3)11-25,Dienstleistung
124367,blueContec GmbH,DE,55127,Mainz,(1)1-2,Beratung / Consulting
90787,BMR Human Resources Interim Management,DE,70184,Stuttgart,(1)1-2,Personalwesen / Personalbeschaffung
14895,Bodan,DE,88662,Überlingen,(6)101-250,Handel / Konsum
44709,Bodengraf GmbH,AT,5322,Hof/Salzburg,(1)1-2,Nahrungsmittel / Land / Forstwirtschaft
135335,borisgloger consulting gmbh,DE,60327,Frankfurt am Main,(5)51-100,Beratung / Consulting
92469,Bornholm,DK,3760,Gudhjem,(1)1-2,Otros
62105,BOS Balance of Storage Systems,DE,89231,Neu-Ulm,(4)26-50,Elektro / Elektronik
36506,BOSSE WESTPHAL SCHÄFFER Architekten und Sachverständige PartGmbB,DE,21423,Winsen/Luhe,(2)3-10,Baugewerbe / Architektur
17821,Braucommune in Freistadt,AT,4240,Freistadt,(4)26-50,Nahrungsmittel / Land / Forstwirtschaft
25791,Brauerei Gutmann,DE,85135,Titting,(4)26-50,Nahrungsmittel / Land / Forstwirtschaft
122626,Brausen GbR,DE,09112,Chemnitz,(1)1-2,Handel / Konsum
56526,Breinlinger Ingenieure,DE,18532,Tuttlingen,(5)51-100,Baugewerbe / Architektur
27524,Brigitte Göltz – Training und Beratung,DE,88662,Überlingen,(1)1-2,Gesundheitswesen / Soziales / Pflege
90816,BRILLENkammer,DE,10245,Berlin,(2)3-10,Handwerk
34942,Brumaire Verlag,DE,10999,Berlin,(2)3-10,Medien
14896,BTE Tourismus- und Regionalberatung,DE,10289,Berlin,(3)11-25,Tourismus / Hotel / Gastronomie
14668,buch7.de GmbH,DE,86462,Langweid am Lech,(2)3-10,Handel / Konsum
14673,Buchbinderei Fuchs,AT,5760,Saalfelden,(3)11-25,Druck / Papier / Verpackung
115235,Bunte Burger GmbH,DE,50825,Köln,(3)11-25,Tourismus / Hotel / Gastronomie
90060,Bureau SoSo – Nachhaltiges Grafikdesign,DE,51067,Köln,(1)1-2,Marketing / Werbung / PR
20449,Bürger-Energie-Genossenschaft Neuburg-Schrobenhausen-Aichach-Eichstätt eG,DE,86529,Schrobehausen,(1)1-2,Energiewirtschaft
30106,BürgerEnergieGenossenschaft eG,DE,58300,Wetter (Ruhr),(2)3-10,Energiewirtschaft
20445,Bürgerenergiegenossenschaft im Landkreis Pfaffenhofen a. d. Ilm eG,DE,85276,Pfaffenhofen,(1)1-2,Energiewirtschaft
40874,BÜRGERSTIFTUNG PFALZ UND NATURHOTEL STIFTSGUT KEYSERMÜHLE,DE,76889,Klingenmünster,(2)3-10,Tourismus / Hotel / Gastronomie
36546,Büro für Erneuerbare Energie Ing. Leo Riebenbauer GmbH,AT,8243,Pinggau,(2)3-10,Energiewirtschaft
14911,Bürogemeinschaft Sehlbach,DE,10961,Berlin,(2)3-10,Gesundheitswesen / Soziales / Pflege
92379,Buscándome Las Habichuelas (BLH),ES,38206,La Laguna,(8) Todas las tallas,Otros
41064,Business School Lausanne,CH,1022,Chavannes,(4)26-50,Bildung / Universität / FH / Schulen
124365,Business-health,DE,13507,Berlin,(1)1-2,Beratung / Consulting
36749,Busse Franchise Kommunikation,DE,22453,Hamburg,(1)1-2,Beratung / Consulting
126586,CAES – Consorzio Assicurativo Etico Solidale,IT,20148,Milano,(2)3-10,Assicurazione
41321,Café Chrysander,DE,21029,Hamburg,(2)3-10,Sonstige Branchen
14775,Cafe Pausenraum,DE,79108,Freiburg,(1)1-2,Dienstleistung
40892,camera obscura GmbH,DE,10707,Berlin,(1)1-2,Medien
124487,camera obscura GmbH,DE,10707,Berlin,(2)3-10,Marketing / Werbung / PR
64668,Campus National,BE,2000,Antwerpen,(2)3-10,Education / University / FH / Schools
92511,Can Cet,ES,08918,Badalona,(1)1-2,Otros
14897,Cappel,AT,9991,Dölsach,(1)1-2,Beratung / Consulting
19285,Cappelletti + Bongiovanni Srl,IT,47013,Dovadola,(2)3-10,Handwerk
84326,Capri HotelbetriebsGmbH & Co KG,AT,1020,Wien,(3)11-25,Tourismus / Hotel / Gastronomie
36659,cardamom,AT,8160,Weiz,(2)3-10,Beratung / Consulting
57026,CariKids gGmbH,DE,50825,Köln,(5)51-100,Bildung / Universität / FH / Schulen
84555,Caritasverband Arnsberg-Sundern e.V.,DE,59821,Arnsberg,(7)>250,Gesundheitswesen / Soziales / Pflege
73439,Caritasverband für den Landkreis Emmendingen e.V.,DE,79312,Emmendingen,(6)101-250,Gesundheitswesen / Soziales / Pflege
118354,Caritasverband Köln,DE,50825,Köln,(9)1001-2500,Gesundheitswesen / Soziales / Pflege
87407,Caritasverband Paderborn e.V.,DE,33098,Paderborn,(7)>250,Gesundheitswesen / Soziales / Pflege
90809,Carry Products GmbH,DE,10777,Berlin,(2)3-10,Handel / Konsum
14759,castello – Wohlfühlhotel in Königsleiten,AT,5742,Wald im Pinzgau,(2)3-10,Tourismus / Hotel / Gastronomie
14828,"Catucho GbR (Ulrike &Laura Eckhardt), Rösterei",DE,27333,Bücken,(1)1-2,Nahrungsmittel / Land / Forstwirtschaft
14829,CCC Druck und Medien GmbH,DE,48147,Münster,(3)11-25,Internet / Multimedia
92525,Centro de psicología y Coaching Valencia S.L.,ES,46183,L’Eliana,(1)1-2,Otros
117424,Centro Papa Giovanni XXIII Soc. Cooperativa Soc,IT,60131,Ancona,(4)26-50,Assistenza sanitaria / Servizi sociali / Infermieristica
117428,Cha Maria Srl Società Benefit,IT,10020,Lauriano TO,(4)26-50,Assistenza sanitaria / Servizi sociali / Infermieristica
24834,Chemical Check GmbH,DE,32839,Steinheim,(4)26-50,Dienstleistung
92387,Chocolates Artesanos Isabel,ES,44550,Alcorisa,(8) Todas las tallas,Otros
14929,Christian Felber,AT,1070,Wien,(2)3-10,sonstiges
14898,Christian Jensen Kolleg,DE,25821,Breklum,(4)26-50,Bildung / Universität / FH / Schulen
90051,Christian Jensen Kolleg gemeinnützige GmbH Breklum,DE,25821,Breklum,(3)11-25,Bildung / Universität / FH / Schulen
133954,Christian Rüther e.U.,AT,1070,Wien,(8) alle Größen,Beratung / Consulting
124336,Christine Ehlers-werterleben,DE,10555,Berlin,(1)1-2,Beratung / Consulting
14783,"Christof Bader KG – Fliesen, Kachelöfen, Natursteine",AT,5640,Bad Gastein,(2)3-10,Baugewerbe / Architektur
37751,Christoph Spahn,DE,76332,Bad Herrenalb,(1)1-2,Beratung / Consulting
14766,"cibaria GmbH, ökologisch-biologische Vollkornbäckerei",DE,48155,Münster,(4)26-50,Handwerk
92343,Circuitos Aljarafe,ES,41960,Gines,(8) Todas las tallas,Otros
59060,Claudia Schleicher | Engagement & Change,DE,40627,Düsseldorf,(1)1-2,Beratung / Consulting
92437,Club de Fútbol Popular Orihuela Deportiva,ES,03300,Orihuela,(8) Todas las tallas,Otros
14816,CMP Competent Management Partners AG,CH,6333,Hünenberg See,(1)1-2,Beratung / Consulting
34187,Coaching Zahn,DE,83301,Traunreut,(1)1-2,Dienstleistung
30127,Condrobs e.V.,DE,81673,München,(7)>250,Gesundheitswesen / Soziales / Pflege
14989,confideon Unternehmensberatung GmbH,DE,10823,Berlin,(3)11-25,Beratung / Consulting
93959,ConPlusUltra GmbH,AT,3100,St. Pölten,(4)26-50,Beratung / Consulting
14769,conSalis e.Gen.,AT,5020,Salzburg,(2)3-10,Beratung / Consulting
14738,Contecta immobilienvewwaltung GmbH,DE,86156,Augsburg,(3)11-25,Immobilien / Facility Management
84610,Content5 AG,DE,81541,München,(3)11-25,Beratung / Consulting
14931,CONTIGO Fairtrade GmbH,DE,37079,Göttingen,(6)101-250,Handel / Konsum
36656,Cornelia Burth,DE,23056,Hamburg,(1)1-2,Beratung / Consulting
44720,Corona Bürotechnik GmbH,DE,12681,Berlin,(2)3-10,Elektro / Elektronik
30962,corsus corporate sustainability GmbH,DE,22765,Hamburg,(2)3-10,Beratung / Consulting
153840,corsus corporate sustainability GmbH,DE,20459,Hamburg,(10)2501-5000,Beratung / Consulting
14669,"Cosyma, EPU",DE,70599,Stuttgart,(1)1-2,Beratung / Consulting
92403,Coworking Nomad,ES,38002,Santa Cruz de Tenerife,(8) Todas las tallas,Otros
62168,cramer & müller service GmbH & Co. KG / cramer müller & partner consulting PartG,DE,60323,Frankfurt am Main,(2)3-10,Beratung / Consulting
92409,CREARQCIO COOP. V,ES,46008,Valencia,(8) Todas las tallas,Otros
44713,Createur de Interieur – Ing. Christian Supola,AT,7022,Schattendorf,(1)1-2,Handwerk
45149,CRM – Coastal Research & Management,DE,24159,Kiel,(2)3-10,sonstiges
104639,CrossmarX,NL,1001 GD,Amsterdam,(2)3-10,Telecommunication
92419,Crowd Spain S.L,ES,38002,Santa Cruz de Tenerife,(8) Todas las tallas,Otros
40169,Ctn Consulting,AT,6130,Schwaz,(1)1-2,Beratung / Consulting
92363,Cuinatur,ES,12005,Castellón de la Plana,(8) Todas las tallas,Otros
14670,Culumnatura,AT,2115,Ernstbrunn,(3)11-25,sonstiges
14830,"Czeczatka, Werner & Partner Steuerberatungsgesellschaft",DE,35108,Allendorf/Eder,(4)26-50,Steuerberatung / Wirtschaftsprüfung
35297,D-QuESTioN,DE,16818,Walsleben,,Bildung / Universität / FH / Schulen
93961,da-ka hausbetreuungs GmbH,AT,1220,Wien,(5)51-100,Immobilien / Facility Management
140348,Dachstiftung Diakonie,DE,38518,Gifhorn,(10)2501-5000,Gesundheitswesen / Soziales / Pflege
127566,Dalitz Immobilien GmbH,DE,53332,Bornheim,(1)1-2,Immobilien / Facility Management
104216,Das Diakonische Werk der Evangelischen Landeskirche in Baden e.V.,DE,76137,Karlsruhe,(6)101-250,Gesundheitswesen / Soziales / Pflege
130169,Das Gemüseabo Max Apfelbacher,DE,53332,Bornheim,(4)26-50,Handel / Konsum
101888,DAS HELDEN ATELIER,DE,86504,Merching,(1)1-2,Beratung / Consulting
45146,DAS ZENTRUM – Marietta Sonja Keller,CH,3048,Worblaufen,(1)1-2,Beratung / Consulting
102906,Datenschutzberatung Janthur GmbH,DE,73728,Esslingen,(2)3-10,Dienstleistung
62109,Datracon,DE,70599,Stuttgart,(1)1-2,Beratung / Consulting
64666,de Koer,BE,9000,Gent,(2)3-10,Art / Culture / Entertainment
44715,De Öko Melkburen GmbH,DE,24632,Lentföhrden,(1)1-2,Nahrungsmittel / Land / Forstwirtschaft
47814,Degree Clothing GmbH,DE,86511,Schmiechen,(2)3-10,Handel / Konsum
92501,Delibera,ES,08001,Barcelona,(1)1-2,Otros
14900,Der Fährmann Bestattung und Trauerrituale Bernhard Schöpfer OG,AT,6410,Telfs,(2)3-10,sonstiges
38694,DER HOLZHOF GmbH  Kunze,AT,74582,Gerabronn-Dünsbach,(2)3-10,Handwerk
40994,"Der Service Gaertner Gärtnermeister, Reinhard Sperr",AT,4894,Oberhofen,(2)3-10,Nahrungsmittel / Land / Forstwirtschaft
44722,DESIGNKRAFT Werbeagentur,AT,5026,Salzburg,(1)1-2,Marketing / Werbung / PR
98840,Destination Wattens Regionalentwicklung GmbH,AT,6112,Wattens,(3)11-25,Sonstige Branchen
55125,Deutsches Theater in Göttingen GmbH,DE,37073,Göttingen,(6)101-250,Kunst / Kultur / Unterhaltung
47812,deVega Medien GmbH,DE,86165,Augsburg,(4)26-50,Druck / Papier / Verpackung
36827,DI Elke Szalai Planung&Vielfalt,AT,2700,Wiener Neustadt,(1)1-2,Beratung / Consulting
36533,DI Siegfried Lerchbaumer,AT,6700,Bludenz,(1)1-2,Baugewerbe / Architektur
14740,Diabetes und Stoffwechselpraxis Wetter,DE,58300,Wetter (Ruhr),(2)3-10,Gesundheitswesen / Soziales / Pflege
75496,Diakonie Düsseldorf e.V.,DE,40233,Düsseldorf,(7)>250,sonstiges
123176,Diakonie Hasenbergl e. V.,DE,80933,München,(8)501-1000,Gesundheitswesen / Soziales / Pflege
14954,Diakonie Herzogsägmühle,DE,86971,Peiting,(7)250-,Gesundheitswesen / Soziales / Pflege
46983,Diakonieverbund Schweicheln e.V.,DE,32120,Hiddenhausen,(3)11-25,sonstiges
132138,Die AboKiste – Werkhof Service GmbH,DE,44319,Dortmund,(4)26-50,Handel / Konsum
139906,Die Autoschmiede Ringsberg GmbH,DE,24977,Ringsberg,(3)11-25,Handwerk
52579,Die Bremer Stadtreinigung,DE,28217,Bremen,(6)101-250,Abfallentsorgung
14831,die Fleckenbühler Hof Fleckenbühl gGmbH,DE,35091,Cölbe,(3)11-25,Gesundheitswesen / Soziales / Pflege
44765,DIE GRÜNEN – GRÜNE ALTERNATIVE TIROL,AT,6020,Innsbruck,(4)26-50,sonstiges
44741,Die Grünen im Salzburger Landtag,AT,5010,Salzburg,(2)3-10,sonstiges
44724,Die Grünen Salzburg,AT,5020,Salzburg,(2)3-10,sonstiges
99165,Die Mitmachzentrale e.V.,DE,70839,Gerlingen,(1)1-2,Vereine
55987,Die Praxis – Maya Heinrichmeier,DE,86911,Dießen am Ammersee,(1)1-2,Gesundheitswesen / Soziales / Pflege
14762,Die Seitenalm,AT,5550,Radstadt,(4)26-50,Tourismus / Hotel / Gastronomie
44749,Die Wohnwerkstatt GmbH – Massivholz – Tischlerei Schallmooser,AT,5020,Salzburg,(2)3-10,Handwerk
14832,Dietzinger+Partner,DE,83454,Anger,(2)3-10,Nahrungsmittel / Land / Forstwirtschaft
14899,Dinkelbeck,DE,89269,Vöhringen,(2)3-10,Nahrungsmittel / Land / Forstwirtschaft
22084,Diözese St. Pölten – Jugendhaus Schacherhof,AT,3353,Seitenstetten,(2)3-10,sonstiges
145526,Dipl.-Ing. H. Bendl GmbH & Co. KG,DE,89312,Günzburg,(6)101-250,Baugewerbe / Architektur
14866,Dirk Posse,DE,35039,Marburg,(1)1-2,Beratung / Consulting
53775,DLG – Gemeinnützige Dienstleistungsgesellschaft der Re-gion Weiz G.m.b.H.,AT,8160,Weiz,(4)26-50,Gesundheitswesen / Soziales / Pflege
64601,Dödlinger Touristik GmbH,AT,6391,Fieberbrunn,(3)11-25,Verkehr / Transport / Logistik
14814,Dorfelektriker Mittelberger GmbH,AT,6840,Götzis,(5)51-100,Elektro / Elektronik
14833,Dorfladen Häger e.V.,DE,33824,Werther (Westfalen),(1)1-2,Nahrungsmittel / Land / Forstwirtschaft
14744,Dornbirner Sparkasse Bank AG,AT,6850,Dornbirn,(7)250-,Finanzen
14704,Doro Heckelsmüller,DE,86899,Landsberg am Lech,(1)1-2,sonstiges
22580,doubleSlash Net-Business GmbH,DE,88046,Friedrichshafen,(6)101-250,EDV / IT
30047,Dr. Alois Mair,AT,5202,Neumarkt am Wallersee,(1)1-2,Gesundheitswesen / Soziales / Pflege
91596,Dr. Arthur Pelchen,DE,12157,Berlin,(1)1-2,Beratung / Consulting
90581,Dr. Dr. Behrens Beratung Coaching Training,DE,70199,Stuttgart,(1)1-2,Beratung / Consulting
14974,Dr. Gabriele Mönicke,DE,34134,Kassel,(1)1-2,Dienstleistung
41078,Dr. Hingerl & Partner,DE,85356,München,(2)3-10,Beratung / Consulting
24528,Dr. Langniß Energie & Analyse,DE,70176,Stuttgart,(2)3-10,Beratung / Consulting
37267,Dr. Norbert Wißgott,AT,3910,Zwettl,(1)1-2,Gesundheitswesen / Soziales / Pflege
38150,Dr. Susanne Schmall,DE,37083,Göttingen,(1)1-2,Beratung / Consulting
14988,DR. ULRICH WIEK Training & Coaching,DE,69121,Heidelberg,(1)1-2,Beratung / Consulting
129564,Drachenstube,DE,85560,Ebersberg,(1)1-2,Handel / Konsum
35676,Dreimäderlhaus,DE,87629,Füssen-Weissensee,(2)3-10,Tourismus / Hotel / Gastronomie
28513,DROSG-PLÖCKINGER & PLÖCKINGER OG,AT,1140,Wien,,
44751,Druckerei Nienstedt GmbH,DE,22145,Hamburg,(2)3-10,Druck / Papier / Verpackung
14671,Druckerei Zollenspieker,DE,21073,Hamburg,(2)3-10,Druck / Papier / Verpackung
38094,dwp eG Fairhandelsgenossenschaft Ravensburg,DE,88212,Ravensburg,(3)11-25,Handel / Konsum
37391,DYAS Beratungsges. mbH,DE,22955,Hoisdorf,(1)1-2,Beratung / Consulting
14906,Dynamic Governance Führung und Ethik in der Unternehmensentwicklung Petra Ostfeld,DE,28357,Bremen,(2)3-10,Beratung / Consulting
46802,e-fect dialog evaluation consulting eG,DE,10437,Berlin,(2)3-10,Beratung / Consulting
15795,EarthWays,BE,3010,Kessel-Lo,(1)1-2,Beratung / Consulting
27428,Easy Mobil GmbH,IT,39040,Kastelruth,(1)1-2,Verkehr / Transport / Logistik
93999,easyconsult GmbH,AT,1070,Wien,(3)11-25,EDV / IT
14936,easySoft. GmbH,DE,72555,Metzingen,(5)51-100,sonstiges
132123,eb24-einfach mehr Service,DE,44309,Dortmund,(2)3-10,Dienstleistung
50170,ECB-Beratung GmbH,DE,16348,Wandlitz,(1)1-2,Beratung / Consulting
14672,ECG Ecotopia,SE,27392,Tomelilla,(1)1-2,Dienstleistung
36666,echoholos,CH,8268,Salenstein,(1)1-2,Beratung / Consulting
92395,Eco Invéntame,ES,46230,Alginet,(8) Todas las tallas,Otros
83988,EcoEmbassy,DE,85053,Ingolstadt,(1)1-2,Beratung / Consulting
14792,Ecofit Biofruchtimport GmbH,DE,70188,Stuttgart,(3)11-25,Handel / Konsum
14802,Ecosia GmbH,DE,12047,Berlin,(4)26-50,Internet / Multimedia
80267,Edition Progris,DE,12437,Berlin,(1)1-2,Sonstige Branchen
14845,Ego Elektrikergenossenschaft,CH,8408,Winterthur,(2)3-10,Elektro / Elektronik
14846,Eigenbetrieb Leben und Wohnen der Landeshauptstadt Stuttgart (ELW),DE,70565,Stuttgart-Vaihingen,(7)250-,Gesundheitswesen / Soziales / Pflege
14926,Eigenbetrieb Stadtentwässerung Mannheim (EBS Mannheim),DE,68167,Mannheim,(6)101-250,Sonstige Branchen
44813,Eissalon Franz Leonardelli KG,AT,1210,Wien,(2)3-10,Tourismus / Hotel / Gastronomie
14847,EL PUENTE GmbH,DE,31171,Nordstemmen,(4)26-50,Handel / Konsum
92427,El Sol es vida,ES,38311,La Orotava,(8) Todas las tallas,Otros
130850,Elbers Hof GmbH & Co.KG,DE,29559,Wrestedt,(4)26-50,Nahrungsmittel / Land / Forstwirtschaft
131810,Elektrizitätswerk Hindelang e.G.,DE,87541,Bad Hindelang,(3)11-25,Energiewirtschaft
14714,elfgen pick gmbh & co. kg,DE,86152,Augsburg,(2)3-10,Medien
38374,ELVG Bentlage GmbH,AT,1140,Wien,(3)11-25,Handwerk
14849,EM-Chiemgau- Christoph Fischer GmbH,DE,83071,Stephanskirchen/Högering,(3)11-25,Handel / Konsum
14850,EM-faktor GmbH – die social profit agentur,DE,70173,Stuttgart,(3)11-25,Beratung / Consulting
30132,"embedded linux devices, EXD",AT,2630,TERNITZ,(1)1-2,EDV / IT
14851,Engel und Brotzge og einfachmoebel,AT,6971,Hard,(2)3-10,Baugewerbe / Architektur
36671,Engineer M.E. Ing. Markus Eisner,AT,4030,Linz,(1)1-2,Beratung / Consulting
92339,Enreda,ES,41010,Sevilla,(8) Todas las tallas,Otros
85120,ensian Group GmbH |  elobau GmbH & Co KG,DE,88299,Leutkirch im Allgäu,(7)>250,Elektro / Elektronik
41022,Entwicklung Gemeinwohl Kunst,CH,8400,Winterthur,(1)1-2,Beratung / Consulting
55981,Ernährungs-Vitalstoffberatung Lydia Zahn,DE,86899,Landsberg am Lech,(1)1-2,Beratung / Consulting
92381,Escuela Ideo,ES,28049,Alcobendas,(8) Todas las tallas,Otros
91279,ESN Deutsche Tischtennis Technologie GmbH,DE,97461,Hofheim in Unterfranken,(6)101-250,Chemie
92397,Espais per conviure,ES,46022,Valencia,(8) Todas las tallas,Otros
92351,ETIC OnLine S.L.,ES,46988,Paterna,(8) Todas las tallas,Otros
92517,Ética patrimonios S.L.U.,ES,46003,Valencia,(1)1-2,Otros
92471,Eticus Eticae,ES,08025,Barcelona,(1)1-2,Otros
40974,ETTL-SOFTWARE GMBH,AT,4020,Linz,(2)3-10,EDV / IT
46971,Ev. Jugendhilfe Bochum e.V.,DE,44809,Bochum,(3)11-25,Bildung / Universität / FH / Schulen
46969,Ev. Jugendhilfe Geltow e.V.,DE,14548,Schwielowsee,(4)26-50,Bildung / Universität / FH / Schulen
46988,Ev. Jugendhilfe Schweicheln,DE,32120,Hiddenhausen,(3)11-25,Bildung / Universität / FH / Schulen
24525,Eva Dornauer,AT,6020,Innsbruck,(1)1-2,Beratung / Consulting
44955,EVA STEIGER NATURGESTALTUNGEN,AT,7000,Eisenstadt,(1)1-2,Handel / Konsum
39034,Evang. Kirchengemeinde Rosphetal-Mellnau,DE,35083,Wetter-Oberrosphe,(1)1-2,sonstiges
139341,Evangelische Kirchengemeinden Griesheim und Nied,DE,65934,Frankfurt,(6)101-250,sonstiges
22420,Evangelisches Johannesstift Jugendhilfe gGmbH,DE,13587,Berlin,(7)>250,Gesundheitswesen / Soziales / Pflege
83967,Evelyn Peppler,DE,91056,Erlangen,(1)1-2,Beratung / Consulting
139401,Existenzgründerzentrum Ingolstadt GmbH,DE,85055,Ingolstadt,(2)3-10,Beratung / Consulting
111469,Experts & Talents Center of HR Excellence GmbH,DE,04107,Leipzig,(3)11-25,Beratung / Consulting
113857,Experts & Talents Center of HR Excellence GmbH,DE,04107,Leipzig,(3)11-25,Beratung / Consulting
37700,EZ-Akademie | Vitale Menschen Unternehmen Gemeinden (Verein),AT,3072,Kasten bei Böheimkirchen,(1)1-2,Beratung / Consulting
14852,F & P Stock Solution GmbH,DE,14612,Falkensee,(4)26-50,Handel / Konsum
131651,Fachhochschule Dortmund,DE,44139,Dortmund,(8)501-1000,Bildung / Universität / FH / Schulen
14805,Fahnen-Gärtner GmbH,AT,5730,Mittersill,(5)51-100,Textilbranche
44753,Fair Handels GmbH,AT,6020,Innsbruck,(2)3-10,Handel / Konsum
96971,fair:möbeln,DE,83334,Inzell,(1)1-2,Beratung / Consulting
14953,fairagent Int. FAI UG (haftungsbeschränkt),DE,13086,Berlin,(1)1-2,Immobilien / Facility Management
14726,Fairmittler Stefan Gmeiner e.U.,AT,6861,Alberschwende,(1)1-2,Druck / Papier / Verpackung
38098,Fairmondo eG,DE,10999,Berlin,(3)11-25,Handel / Konsum
30139,Familienferienanlage Gut Nisdorf GmbH,DE,18445,Nisdorf,(2)3-10,Tourismus / Hotel / Gastronomie
14742,Farbenmühle mcdrent GmbH & Co.KG,DE,45468,Mülheim,(2)3-10,Baugewerbe / Architektur
35296,"FARCAP Faire Mode gGmbH, Fürth",DE,90762,Fürth,,Textilbranche
45948,Fastenopfer,CH,6002,Luzern,(4)26-50,sonstiges
90744,Faunt,DE,50823,Köln,(1)1-2,Handel / Konsum
135620,FC St. Pauli von 1910 e.V.,DE,20359,Hamburg,(7)251-500,Vereine
133339,Feelera Srl società benefit,IT,25122,Brescia,(2)3-10,EDP / IT
111111,Fegerl Consulting Studio Salzburg,AT,5102,Anthering,(1)1-2,Beratung / Consulting
37740,Felix Oesch – Beratungen Gallusberg GmbH,CH,9402,Mörschwil,(1)1-2,Beratung / Consulting
44755,Ferienhof Möller,DE,24632,Lentföhrden,(1)1-2,Tourismus / Hotel / Gastronomie
29723,FH Burgenland,AT,7000,Eisenstadt,(5)51-100,Bildung / Universität / FH / Schulen
14804,FIBUR GmbH,DE,10117,Berlin,(2)3-10,Versicherung
110257,Flipped Job Market,DK,10997,Berlin,(1)1-2,Dienstleistung
47495,Flores Farm GmbH,DE,70180,Stuttgart,,Nahrungsmittel / Land / Forstwirtschaft
101017,Flotte Karotte,DE,44866,Bochumg,(4)26-50,Handel / Konsum
124386,Flower Factory,DE,10555,Berlin,(2)3-10,Handel / Konsum
14815,FnF Mannheimer Gesellschaft zur Förderung von Arbeitsplätzen,DE,68159,Mannheim,(4)26-50,Tourismus / Hotel / Gastronomie
14776,focus-energie,DE,79104,Freiburg,(2)3-10,Handwerk
14901,Fohlenhof Astner,AT,9782,Nikolsdorf,(1)1-2,Nahrungsmittel / Land / Forstwirtschaft
92495,Folgado,ES,46017,Valencia,(1)1-2,Otros
23225,followfood GmbH,DE,88045,Friedrichshafen,(4)26-50,Nahrungsmittel / Land / Forstwirtschaft
72957,FONDAZIONE MIRAFIORI,IT,10127,Torino,(2)3-10,Assistenza sanitaria / Servizi sociali / Infermieristica
14998,Forst Baden-Württemberg (ForstBW),DE,72074,Tübingen – Bebenhausen,(7)250-,Nahrungsmittel / Land / Forstwirtschaft
84747,forStory GmbH,DE,81539,München,(2)3-10,Medien
36697,FORUM BERUFSBILDUNG MÜNCHEN KARL THIESSEN,DE,83527,Haag i. OB,(3)11-25,Beratung / Consulting
14801,Forum Futura UG,DE,10405,Berlin,(2)3-10,Seminar / Messeanbieter
14834,Foto Flausen,AT,5020,Salzburg,(1)1-2,Dienstleistung
143258,FOX & FOX OG,AT,3231,St. Margarethen an der Sierning,(1)1-2,Marketing / Werbung / PR
127813,Fraktion BÜNDNIS 90/DIE GRÜNEN im Bayerischen Landtag,DE,81675,München,(5)51-100,Sonstige Branchen
25435,framtid GmbH,DE,22299,Hamburg,(2)3-10,Versicherung
56685,Franz Leonardelli KG,AT,1210,Wien,(2)3-10,Tourismus / Hotel / Gastronomie
33071,Freiburg Institut,DE,79106,Freiburg,(2)3-10,Beratung / Consulting
35657,Freilich Unverpackt – Stefanie Grömmer & Martin Kensy Gbr,DE,87509,Immenstadt,(2)3-10,Handel / Konsum
14835,Frobenius-Foisner-Holzeis Steuerberatung GmbH,DE,83435,Bad Reichenhall,(2)3-10,Steuerberatung / Wirtschaftsprüfung
25018,Fugger Reisen KG d. Volgger Werner & Co.,IT,39049,Sterzing,(2)3-10,Verkehr / Transport / Logistik
14975,Führen mit… Urte Töpfer,DE,10827,Berlin,(1)1-2,Beratung / Consulting
92481,Fundació Institut Guttman,ES,08916,Badalona,(1)1-2,Otros
92499,Fundación Horta Sud,ES,46900,Torrent,(1)1-2,Otros
72941,Fundraiserperpassione srl sb,IT,3454,ggrreg,(2)3-10,Seminario / Fornitori di fiere
133266,Fundraiserperpassione srl sb,IT,36030,Caldogno (VI),(1)1-2,Consigli / Consulenza
35678,Füssen Tourismus und Marketing,DE,87629,Füssen,(4)26-50,Tourismus / Hotel / Gastronomie
143130,Futour,DE,22850,Norderstedt,(1)1-2,Tourismus / Hotel / Gastronomie
87410,GAB Gesellschaft für Arbeits- und Berufsförderung gGmbH,DE,33607,Bielefeld,(4)26-50,Gesundheitswesen / Soziales / Pflege
36711,Gaby Belz GmbH,CH,8032,Zürich,(1)1-2,Beratung / Consulting
92385,GAE comunidades,ES,38639,Santa Cruz de Tenerife,(8) Todas las tallas,Otros
14994,Gandler Risk Management,AT,5730,Mittersill,(3)11-25,Versicherung
33062,Gardion UG,DE,79098,Freiburg,(2)3-10,EDV / IT
41039,GartenLeben GmbH,DE,91161,Hilpoltstein,(2)3-10,Nahrungsmittel / Land / Forstwirtschaft
44820,GÄRTNEREI LÖWENZAHN,DE,86934,Reichling,(1)1-2,Nahrungsmittel / Land / Forstwirtschaft
14813,GBG – Mannheimer Wohnungsbaugesellschaft mbH,DE,68167,Mannheim,(6)101-250,Immobilien / Facility Management
29166,Gebäudeservice Wodara GmbH,DE,12681,Berlin,(5)51-100,Dienstleistung
14863,Gebhard Moser,AT,6713,Ludesch,(1)1-2,Beratung / Consulting
29892,GefAA TELECONSULT UG (haftungsbeschränkt),DE,12489,Berlin,(1)1-2,Beratung / Consulting
14904,Gemeinde Kirchanschöring,DE,83417,Kirchanschöring,(2)3-10,Öffentliche Verwaltung
14928,Gemeinde Mäder,AT,6841,Mäder,(4)26-50,Öffentliche Verwaltung
29889,Gemeinde Nenzing,AT,6710,Nenzing,(5)51-100,Öffentliche Verwaltung
30096,Gemeindeverband für Abfallwirtschaft und Umweltschutz – Umweltverband,AT,6850,Dornbirn,(2)3-10,Öffentliche Verwaltung
78957,GEMEINHARDT SERVICE GmbH,DE,04741,Roßwein,(4)26-50,Baugewerbe / Architektur
82868,Gemeinschaft Sulzbrunn eG,DE,87477,Sulzbrunn,(2)3-10,sonstiges
45011,Gemeinschaft zur Förderung und Vernetzung der freien Künste Bochums e.V.,DE,44793,Bochum,(1)1-2,Kunst / Kultur / Unterhaltung
62156,Gemeinschaftskrankenhaus Havelhöhe,DE,14089,Berlin,(7)>250,Gesundheitswesen / Soziales / Pflege
17841,Gemeinwohl-Ökonomie Berlin-Brandenburg e.V.,DE,10999,Berlin,(1)1-2,Vereine
22119,Gemeinwohlagentur Rubatscher Dagmar,AT,6176,Völs,(1)1-2,Beratung / Consulting
14930,"Gemüsekiste, Hartmann & Rönicke OHG",DE,30966,Hemmingen,(5)51-100,Handel / Konsum
14654,Genusshandwerker,DE,40235,Düsseldorf,(1)1-2,Handwerk
23246,GeoTeam Gesellschaft für umweltgerechte Land- und Wasserwirtschaft mbH,DE,95444,Bayreuth,(2)3-10,Dienstleistung
20569,Gerd Lauermann,DE,22765,Hamburg,(1)1-2,Beratung / Consulting
14946,Gerd Pöll,DE,34128,Kassel,(1)1-2,Beratung / Consulting
14960,Gerlinde Lamberty,DE,35083,Wetter-Oberrosphe,(3)11-25,Beratung / Consulting
14836,germanBroker.net Aktiengesellschaft,DE,58097,Hagen,(4)26-50,Finanzen
14837,Gertec GmbH Ingenieurgesellschaft,DE,45327,Essen,(3)11-25,Dienstleistung
54126,Gertruden-Hof,DE,56575,Weißenthurm,(3)11-25,Nahrungsmittel / Land / Forstwirtschaft
52993,Geschw. Steiner Felseralm GmbH & Co.KG.,AT,5562,Obertauern,(2)3-10,Tourismus / Hotel / Gastronomie
14773,Gesellschaft für angewandte Kommunalforschung,DE,35037,Marburg,(3)11-25,Beratung / Consulting
125273,Gesellschaft für Wirtschaftsförderung und Stadtentwicklung Göttingen mbH,DE,37085,Göttingen,(5)51-100,Öffentliche Verwaltung
36874,GESVIT Karl Steinwender e.U.,AT,8322,Fladnitz im Raabtal,(1)1-2,Beratung / Consulting
14943,Giesinger Biermanufaktur und Spez. Braugesellschaft mbH,DE,81539,München,(3)11-25,Handwerk
14655,Gitta Walchner,DE,79249,Merzhausen,(1)1-2,Beratung / Consulting
145512,Gitta Walchner,DE,79249,Merzhausen,(1)1-2,Beratung / Consulting
36724,global values,DE,85614,Kirchseeon,(1)1-2,Beratung / Consulting
51013,GM Software Systeme GmbH,AT,5020,Salzburg,(1)1-2,EDV / IT
24842,Goldeimer gGmbH,DE,20357,Hamburg,(2)3-10,Dienstleistung
40896,Goldmund Kommunikation,DE,13503,Berlin,(1)1-2,Medien
38102,GÖTTIN DES GLÜCKS eG.,AT,1020,Wien,(2)3-10,Handel / Konsum
110900,Göttinger Sport- und Freizeit Verwaltungs GmbH,DE,37073,Göttingen,(6)101-250,Dienstleistung
84129,Gottwald Finanznavigator,DE,34233,Fuldatal,(1)1-2,Beratung / Consulting
38692,Graf GmbH,DE,79400,Kandern,(3)11-25,Handwerk
24840,Graf Metternich-Quellen Karl Schöttker KG,DE,32839,Steinheim,(4)26-50,Nahrungsmittel / Land / Forstwirtschaft
124473,Gräflich Bernstorff´sche Betriebe,DE,29471,Gartow,(4)26-50,Nahrungsmittel / Land / Forstwirtschaft
92377,Grasaica S.L.,ES,38611,Granadilla,(8) Todas las tallas,Otros
92369,Green Urban Data SL,ES,46024,Valencia,(8) Todas las tallas,Otros
143125,greencentive gUG,DE,50939,Köln,(1)1-2,Dienstleistung
19081,Greenpeace e.V.,DE,20457,Hamburg,(7)>250,Dienstleistung
45871,Greenpeace Schweiz,CH,8036,Zürich,(5)51-100,sonstiges
133351,Greenplanner srl società benefit,IT,20139,Milano,(1)1-2,Media
44759,GreenPrint Osttirol e. U.,AT,9900,Lienz,(2)3-10,Druck / Papier / Verpackung
64887,GreenWebspace  Riedmatten It Solutions e.U.,AT,1040,Wien,(1)1-2,EDV / IT
78364,Gregor Meister,DE,04275,Leipzig,(1)1-2,Dienstleistung
29813,Grenzstrom Vindved GmbH & CoKG,DE,25923,Ellhöft,(2)3-10,Energiewirtschaft
14750,grimm Vermögensberatung,DE,82538,Geretsried,(1)1-2,Finanzen
44761,GRONAU PHOTOGRAPHIE – Brigitte und Emanuel Gronau GbR,DE,82362,Weilheim,(1)1-2,Beratung / Consulting
14838,Gruber+Haumer Landschaftsarchitektur.OG,AT,6706,Bürs,(1)1-2,Baugewerbe / Architektur
19684,Grüne Erde GmbH,AT,4644,Scharnstein,(7)>250,Handel / Konsum
82926,Grünland der Bioladen,DE,29410,Salzwedel,(3)11-25,Handel / Konsum
92365,Grupo La Plana,ES,12549,Betxì,(8) Todas las tallas,Otros
36903,Gugler GmbH,AT,3390,Melk/Donau,(5)51-100,Druck / Papier / Verpackung
92425,Guia Natura Eco Tourism,ES,38690,El Retamar,(8) Todas las tallas,Otros
14933,Gunz Warenhandels GmbH,AT,6841,Mäder,(5)51-100,Handel / Konsum
14839,Gut Sonnenhausen GmbH & Co. KG,DE,85625,Glonn,(4)26-50,Tourismus / Hotel / Gastronomie
22388,Gute Frücht,AT,6161,Natters,(1)1-2,Nahrungsmittel / Land / Forstwirtschaft
29154,Gute Leute Beratung Brigitte Jacobs-Hombeuel,DE,53227,Bonn,(1)1-2,Beratung / Consulting
42107,GWÖ – Gemeinwohl-Ökonomie GmbH,AT,1060,Wien,(1)1-2,Beratung / Consulting
45874,GWÖ Schweiz,CH,8400,Winterthur,(1)1-2,sonstiges
14840,h+m Garten und Landschaft,DE,83367,Petting,(2)3-10,Nahrungsmittel / Land / Forstwirtschaft
14745,HABICHT+PARTNER,DE,47800,Krefeld,(1)1-2,Druck / Papier / Verpackung
36525,hamburger immobilienberater Regine Rega-Lindner und Stefan Wendt-Reese GbR,DE,21147,Hamburg,(2)3-10,Baugewerbe / Architektur
23161,Hans Meyer,DE,12103,Berlin,(1)1-2,Immobilien / Facility Management
14812,Hans Stockmar GmbH & Co.KG,DE,24568,Kaltenkirchen,(4)26-50,Sonstige Branchen
87524,hansekonzept Dirk Rosenstock,DE,22869,Schenefeld,(1)1-2,Beratung / Consulting
86947,Hara Do | Institut für Wachstum UG,DE,51597,Morsbach,(1)1-2,Beratung / Consulting
14947,Harald Thurner,AT,5730,Mittersill,(1)1-2,Beratung / Consulting
118847,"Haus Dschulnigg, Annemarie Kerrer",AT,5741,Neukirchen,(1)1-2,Tourismus / Hotel / Gastronomie
77329,Haus Luise,DE,87672,Roßhaupten,(1)1-2,Tourismus / Hotel / Gastronomie
22385,Haus of Commons,AT,6020,Innsbruck,(1)1-2,Immobilien / Facility Management
139403,Haustechnik Hofer GmbH,DE,84104,Rudelzhausen,(3)11-25,Handwerk
35298,"Hauswirtschaftliches Service-Team GmbH, Baiersdorf",DE,91083,Baiersdorf,,Dienstleistung
52862,Havelmi eG,DE,14770,Brandenburg an der Havel,(1)1-2,Nahrungsmittel / Land / Forstwirtschaft
35300,HBplus Dinkelscherben GmbH Steuerberatungsgesellschaft,DE,86424,Dinkelscherben,,Steuerberatung / Wirtschaftsprüfung
32995,Headgate,AT,6723,Blons,(1)1-2,Beratung / Consulting
41060,Heckel Engineering & Projektdienstleistungen neu,DE,93466,Chamerau,(3)11-25,Maschinen / Anlagenbau
73618,HeimatERBE GmbH,DE,46236,Bottrop,(2)3-10,Nahrungsmittel / Land / Forstwirtschaft
30091,Heinrich Michael Wansch,AT,5134,Schwand im Innkreis,(2)3-10,Handwerk
14695,Heinz Ziegenbein GmbH & Co. KG,DE,73614,Schorndorf,(2)3-10,Textilbranche
92349,HELIA Cooperativa Valenciana,ES,46810,Enguera,(8) Todas las tallas,Otros
14902,Helmut Kähler,DE,29223,Celle,(1)1-2,Beratung / Consulting
132143,Help2007 Dortmund UG (haftungsbeschränkt),DE,44329,Dortmund,(3)11-25,Dienstleistung
14768,Henriette Stadthotel,AT,1020,Wien,(4)26-50,Tourismus / Hotel / Gastronomie
14732,Herzstück Horgau eG i.G.,DE,86497,Horgau,(2)3-10,Handel / Konsum
124805,Hiestermann & Frömchen GmbH,DE,35390,Gießen,(2)3-10,Marktforschung
113802,Hitzacker/Dorf eG,DE,29456,Hitzacker,(1)1-2,Immobilien / Facility Management
30149,HNO Praxis Dr. Ioannis Charalampakis,DE,84028,Landshut,(2)3-10,Medizin / Pharma
14923,Hobbyhimmel,DE,70469,Stuttgart – Feuerbach,(2)3-10,Vereine
41070,Hochschule Bremen,DE,28199,Bremen,(3)11-25,Bildung / Universität / FH / Schulen
112863,Hof am Weiher AG und Öko- Marktgemeinschaft Saar-Pfalz-Hunsrück GmbH,DE,66871,Albessen,(4)26-50,Nahrungsmittel / Land / Forstwirtschaft
97748,Hofbauernhof Laden GbR,DE,72290,Lossburg,(3)11-25,Handel / Konsum
51046,Hoffnungszeichen | Sign of Hope e.V.,DE,78467,Konstanz,(3)11-25,Dienstleistung
40822,Hofgut Eichigt GmbH,DE,08626,Eichigt,(6)101-250,Nahrungsmittel / Land / Forstwirtschaft
98748,Hofmann & Drews GbR,DE,18059,Rostock,(1)1-2,Tourismus / Hotel / Gastronomie
36877,Holger Stützle IT- & Organisationsberatung,DE,22043,Hamburg,(1)1-2,Beratung / Consulting
36728,Höller Seminare,AT,8625,Turnau,(1)1-2,Beratung / Consulting
24898,Holzer Bus GmbH,IT,39030,Sexten,(3)11-25,Verkehr / Transport / Logistik
119258,Holzmanufaktur Rottweil GmbH,DE,78628,Rottweil,(5)51-100,Handwerk
36730,homann colormanagement,DE,10365,Berlin,(1)1-2,Beratung / Consulting
14992,Horst Haas Prototypen,DE,86932,Pürgen-Lengenfeld,(2)3-10,Industrie
92355,Horta de Rajolar,ES,12549,Betxí,(8) Todas las tallas,Otros
84783,Hotel & Restaurant Menge,DE,59821,Arnsberg,(2)3-10,Tourismus / Hotel / Gastronomie
40871,Hotel Balance,CH,1922,Les Granges,(2)3-10,Tourismus / Hotel / Gastronomie
14841,"Hotel Garmischer Hof, Seiwald-von Thurn GmbH",DE,82467,Garmisch-Partenkirchen,(4)26-50,Tourismus / Hotel / Gastronomie
56298,Hotel Grafenast GmbH,AT,6136,Pill,(2)3-10,Tourismus / Hotel / Gastronomie
30317,Hotel Gutshaus Stellshagen,DE,23948,Stellshagen,(5)51-100,Tourismus / Hotel / Gastronomie
143250,Hotel Kothmühle GmbH,AT,3364,Neuhofen an der Ybbs,(4)26-50,Tourismus / Hotel / Gastronomie
56302,Hotel Leutascherhof – Wandl OHG,AT,6105,Leutasch,(3)11-25,Tourismus / Hotel / Gastronomie
52985,Hotel Melanie GmbH,AT,5071,Wals,(2)3-10,Tourismus / Hotel / Gastronomie
126575,Hotel Olympic Srl SB,IT,38036,San Giovanni di Fassa – Vigo (TN),(3)11-25,Turismo / Hotel / Gastronomia
56309,Hotel Steineggerhof Resch Kurt & CoKG,IT,39053,Steinegg,(3)11-25,Tourismus / Hotel / Gastronomie
14985,Hotel Villa Orange,DE,60318,Frankfurt,(3)11-25,Tourismus / Hotel / Gastronomie
92367,Hotel Voramar,ES,12560,Benicassim,(8) Todas las tallas,Otros
52990,Hotel zur Post GmbH,AT,5020,Salzburg,(2)3-10,Tourismus / Hotel / Gastronomie
131825,Hotel-Restaurant Adler e.K.,DE,87534,Oberstaufen,(4)26-50,Tourismus / Hotel / Gastronomie
14723,hpkj | heilpädagogisch-psychotherapeutische Kinder- und Jugendhilfe e.V.,DE,80797,München,(6)101-250,Gesundheitswesen / Soziales / Pflege
101128,HPP,AT,6382,Kirchdorf in Tirol,(2)3-10,Handel / Konsum
51682,HR Pioneers GmbH,DE,50823,Köln,(3)11-25,Beratung / Consulting
14656,Humanistic Management Practices – HMP Gerd Hofielen,DE,14129,Berlin,(1)1-2,Beratung / Consulting
14748,Husumer Horizonte,DE,25813,Husum,(5)51-100,Gesundheitswesen / Soziales / Pflege
124183,Husumer Horizonte,DE,25813,Husum,(6)101-250,Gesundheitswesen / Soziales / Pflege
135365,Huth Metallbau GmbH & Co. KG,DE,28719,Bremerhaven,(4)26-50,Handwerk
88846,i+m Naturkosmetik Berlin GmbH,DE,10405,Berlin,(3)11-25,Handel / Konsum
80269,IB Bernsteinzimmer Immobilienverwaltung GmbH,DE,13187,Berlin,(1)1-2,Immobilien / Facility Management
14959,IBB Ingenieurbüro Bernstetter,DE,83533,Edling,(1)1-2,Beratung / Consulting
44781,IBOR AG CNC-Zerspanung,CH,6218,Ettiswil,(3)11-25,Industrie
62113,ICF Germany Charter Chapter e.V,DE,82024,Taufkirchen,(2)3-10,Beratung / Consulting
101568,iCONDU GmbH,DE,85055,Ingolstadt,(2)3-10,Beratung / Consulting
33281,IFSM,DE,D-56203,Höhr-Grenzhausen,(2)3-10,Beratung / Consulting
35299,IFUB GmbH,DE,80331,München,,Baugewerbe / Architektur
19536,Ilse Lang,AT,8051,Lieboch,(1)1-2,Beratung / Consulting
135374,Im-jaich oHG,DE,28789,Bremerhaven,(6)101-250,Tourismus / Hotel / Gastronomie
92497,Imanol Medrano de Azpeitia,ES,28014,Madrid,(1)1-2,Otros
80677,Imdahl-Institut,DE,78628,Rottweil,(1)1-2,Beratung / Consulting
44783,Impact Hub Munich GmbH,DE,81371,München,(2)3-10,Sonstige Branchen
92435,IMPRESUM GRAFICAS LITOLEMA,S.L.,ES,46006,Valencia,(8) Todas las tallas
61933,IMPROVE-Bildung mit Zukunft,AT,1220,Wien,(1)1-2,Bildung / Universität / FH / Schulen
50336,IMPULSGEBEREI,DE,83734,Hausham,(1)1-2,Beratung / Consulting
140188,IMPULSGEBEREI,DE,83734,Hausham,(1)1-2,Beratung / Consulting
126541,Indaco Team,IT,//,//,(2)3-10,Consigli / Consulenza
14796,INFO GmbH,DE,35423,Lich,(2)3-10,Beratung / Consulting
92347,INFORATGE S.C,ES,46680,Algemesi,(8) Todas las tallas,Otros
19540,Ing. Robert Graf Unternehmensberatung,AT,1230,Wien,(1)1-2,Beratung / Consulting
14767,Ing. Robert Thoma G.m.b.H.,AT,5531,Eben/Pg.,(1)1-2,Baugewerbe / Architektur
14743,Ingenieurbüro für Bautechnik,DE,58300,Wetter (Ruhr),(1)1-2,Baugewerbe / Architektur
131829,Ingenieurbüro Mayer AG,DE,87724,Ottobeuren,(6)101-250,Baugewerbe / Architektur
36865,Ingenieurbüro Schlagmann,DE,41460,Neuss,(1)1-2,Beratung / Consulting
92411,Iniciativas industriales de Tenerife Siglo XXI S.l,ES,38400,Puerto de la Cruz,(8) Todas las tallas,Otros
82684,innovia gem GmbH,AT,6020,Innsbruck,(4)26-50,Gesundheitswesen / Soziales / Pflege
33004,inoio gmbh,DE,20357,Hamburg,(3)11-25,EDV / IT
83223,Institut für Nachhaltigkeit – Institute for Sustainability,DE,90402,Nürnberg,(1)1-2,Beratung / Consulting
36733,Institut für Zukunftskompetenzen e.U.,AT,9556,Liebenfels,(1)1-2,Beratung / Consulting
92483,Institut Provençana,ES,08901,L’Hospitalet de Llobregat,(1)1-2,Otros
14739,Integra e.V.,DE,58300,Wetter,(5)51-100,Vereine
44785,Intercoiffeur Erich,AT,8184,Anger,(2)3-10,Handwerk
129566,Interfacewerk GmbH,DE,91230,Happurg,(3)11-25,EDV / IT
36906,interlink marketing e. U. Anna Oladejo,AT,1220,Wien,(1)1-2,Beratung / Consulting
76896,International School Augsburg -ISA- gAG,DE,86152,Augsburg,(5)51-100,Bildung / Universität / FH / Schulen
29821,Irene Müller,NL,3551,Utrecht,(1)1-2,Baugewerbe / Architektur
133344,IRIS Soc. Coop. Agricola,IT,26030,Calvatone (CR),(2)3-10,Cibo / Agricoltura / Silvicoltura
92433,ISABA PROJETS S.A.,ES,46290,Alcàsser,(8) Todas las tallas,Otros
32425,Ivo Knoll,AT,9500,Villach,(1)1-2,Dienstleistung
78324,JanKoTec – Zukunft. Nachhaltig. Gestalten.,DE,07646,Weißbach,(1)1-2,Beratung / Consulting
14657,Jaritz- Welten verbinden,AT,9020,Klagenfurt am Wörthersee,(1)1-2,Beratung / Consulting
36736,JELINEK AKADEMIE e.U.,AT,2352,Gumpoldskirchen,(1)1-2,Beratung / Consulting
44816,Jochen Lindenfeld Agentur für Kommunikation,DE,60529,Frankfurt am Main,(1)1-2,Beratung / Consulting
14705,Jochen Siebel,DE,86899,Landsberg am Lech,(1)1-2,Beratung / Consulting
14903,Johanna Paul,DE,13357,Berlin,(1)1-2,Beratung / Consulting
153644,Johannesstift Diakonie Jugendhilfe gGmbH,DE,13587,Berlin,(7)251-500,Gesundheitswesen / Soziales / Pflege
14843,Jonathan Seminarhotel,DE,83339,Chieming/Hart,(3)11-25,Tourismus / Hotel / Gastronomie
50759,Josef Sigl e.U.,AT,5162,Obertrum am See,(4)26-50,Handel / Konsum
14948,Judith Gunkel Unternehmensberatung,DE,22309,Hamburg,(1)1-2,Dienstleistung
32984,Judith Landes Training – Beratung – Mediation,DE,83128,Halfing,(1)1-2,Beratung / Consulting
14658,Jürgen Linsenmaier,DE,73630,Remshalden,(1)1-2,Beratung / Consulting
36536,JUSTUS MATTHIAS – ARCHITEKTEN,DE,14057,Berlin,(1)1-2,Baugewerbe / Architektur
30144,Juwelier Ernst-Walter Poser,DE,41515,Grevenbroich,(2)3-10,Handel / Konsum
44787,K.u.F. Drack GmbH & Co KG,AT,4643,Pettenbach,(4)26-50,Handwerk
65212,K2 Engineering GmbH,DE,38542,Leiferde,(5)51-100,Beratung / Consulting
36746,KAIROS – WIRKUNGSFORSCHUNG & ENTWICKLUNG GEMEINNÜTZIGE GMBH,AT,6900,Bregenz,(2)3-10,Beratung / Consulting
35274,Kaiser & Kühne Freizeitgeräte GmbH,DE,27324,Eystrup,(5)51-100,sonstiges
40219,Kaiser Haus GmbH & Co. KG,DE,37696,Marienmünster,(2)3-10,Baugewerbe / Architektur
14760,Kaiserhof Anif  Hotel-Restaurant-Bar,AT,5081,Anif,(3)11-25,Tourismus / Hotel / Gastronomie
92505,Kaleidos,ES,28010,Madrid,(1)1-2,Otros
29726,Kaltenegger & Partner Architekten ZT GmbH,AT,8160,Weiz,(2)3-10,Baugewerbe / Architektur
65752,Kanzlei Besser Steuerberatungsgesellschaft mbH,DE,12203,Berlin,(2)3-10,Steuerberatung / Wirtschaftsprüfung
36527,KARDEA GmbH,AT,7222,Rohrbach,(1)1-2,Baugewerbe / Architektur
14808,Karl Siegel Produktions GmbH & Co. KG,DE,21682,Stade,(4)26-50,Industrie
14659,Karla Schimmel,BE,9040,"Gent, Belgien",(1)1-2,Beratung / Consulting
25482,KarmaKonsum Christoph Harrach,DE,32805,Horn-Bad Meinberg,(1)1-2,Beratung / Consulting
36951,Karsten Geisler,DE,50735,Köln,(1)1-2,Medien
41051,Kartoffelkombinat – der Verein e.V.,DE,80997,München,(3)11-25,Nahrungsmittel / Land / Forstwirtschaft
101564,Katharina Fiedler,DE,85072,Eichstätt,(1)1-2,Dienstleistung
14844,KBW Katholisches Kreisbildungswerk,DE,83278,Traunstein,(2)3-10,Gesundheitswesen / Soziales / Pflege
80325,Kenneth Alexander Grodotzki,DE,45468,Mülheim an der Ruhr,(1)1-2,Beratung / Consulting
83226,Kieferorthopädie Löwenzahn,DE,96317,Kronach,(2)3-10,Gesundheitswesen / Soziales / Pflege
131839,Kiehne GmbH & Co KG,DE,87527,Ofterschwang,(3)11-25,Tourismus / Hotel / Gastronomie
14941,Kiezbett GbR,DE,10247,Berlin,(1)1-2,Handel / Konsum
46711,Kinder lernen Leben gGmbH,DE,12629,Berlin,(6)101-250,Bildung / Universität / FH / Schulen
41207,Kirchner Konstruktionen GmbH,DE,88250,Weingarten,(6)101-250,Automobil / Automobilzulieferer
14752,kiss the inuit,DE,50670,Köln,(2)3-10,Textilbranche
112044,Kissing und Team GmbH & CO KG,DE,58706,Menden,(3)11-25,Handel / Konsum
44856,klasse idee gGmbH,DE,30655,Hannover,(2)3-10,Tourismus / Hotel / Gastronomie
110308,Klaus Stuckert GmbH und Co. KG,DE,30171,Hannover,(2)3-10,Handwerk
38607,Kleeschulte Erden GmbH & Co. KG,DE,59602,Rüthen,(4)26-50,Nahrungsmittel / Land / Forstwirtschaft
38107,KLEIDERgrün,AT,6800,Feldkirch,(2)3-10,Handel / Konsum
14964,kleindienst outdoor-assisted-development,AT,3822,Karlstein,(1)1-2,Beratung / Consulting
14854,Kleinwechter & Bröker GmbH,DE,48329,Havixbeck,(3)11-25,Handwerk
14967,klien + team Holistische Organisationsberatung,AT,5303,Thalgau,(1)1-2,Beratung / Consulting
41522,Klima Kontor – Planung und Beratung GmbH,DE,22529,Hamburg,(2)3-10,Dienstleistung
135372,Klimahaus Betriebsgesellschaft mbH,DE,28789,Bremerhaven,(6)101-250,Tourismus / Hotel / Gastronomie
152353,Klinglwirt,DE,81669,München,(2)3-10,Tourismus / Hotel / Gastronomie
56534,Kloster Kirchberg – Berneuchener Verein,DE,7212,Sulz am Neckar,(4)26-50,Bildung / Universität / FH / Schulen
36912,KLUFAMILY Familie & Beruf Management GmbH,AT,1020,Wien,(1)1-2,Beratung / Consulting
14855,"Knakruegge, Lutz",DE,79539,Lörrach,(1)1-2,Beratung / Consulting
44803,KOCHUNDSIMON GbR,DE,78462,Konstanz,(1)1-2,Beratung / Consulting
83190,Kollar GmbH,AT,3180,Lilienfeld,(4)26-50,Handwerk
118513,KölnBäder GmbH,DE,50676,Köln,(7)251-500,Sport / Fitness / Beauty
36753,Koloo Projects,AT,1010,Wien,(1)1-2,Beratung / Consulting
55127,Kommunale Dienste Göttingen (KDG) kAöR,DE,37073,Göttingen,(5)51-100,sonstiges
14660,Kortz Konfliktspezialisten,DE,14806,Bad Belzig,(1)1-2,Beratung / Consulting
39616,Krämerei am Markt,DE,57462,Olpe,(2)3-10,Handel / Konsum
82407,KREUZER Medien GmbH,DE,04103,Leipzig,(2)3-10,Medien
106077,Križevci Entrepreneurship Center,HR,48260,Križevci,(2)3-10,Advice / Consulting
33611,kuhs architekten,DE,79100,Freiburg,(2)3-10,Baugewerbe / Architektur
18100,Kulturquartier Münster GmbH,DE,48157,Münster,(2)3-10,Kunst / Kultur / Unterhaltung
14784,Kulturverein Schloss Goldegg,AT,5622,Goldegg,(2)3-10,Kunst / Kultur / Unterhaltung
131833,Kurbetriebe Oberstdorf,DE,87561,Oberstdorf,(4)26-50,Tourismus / Hotel / Gastronomie
14945,Kurt Egger – eku-konstruktiv,AT,5201,Seekirchen am Wallersee,(1)1-2,Beratung / Consulting
14921,KV&P Unternehmensberatung,DE,28879,Grasberg,(2)3-10,Steuerberatung / Wirtschaftsprüfung
14661,La Perla,IT,39033,Colvara,(5)51-100,Tourismus / Hotel / Gastronomie
92445,La Urdimbre,ES,41001,Sevilla,(8) Todas las tallas,Otros
153690,LABORATORIO ECOTECH S.R.L.,UR,,Montevideo,(3)11-25,Industry
89051,Lafim-Diakonie a.V.,DE,14467,Potsdam,(7)>250,Gesundheitswesen / Soziales / Pflege
92353,Lago Becu SL,ES,03892,Cocentaina,(8) Todas las tallas,Otros
62102,lahaye tiedemann gestalten GbR,DE,89073,Ulm,(1)1-2,Marketing / Werbung / PR
14793,"Landesverband Amateurtheater Baden-Württemberg e.V.,",DE,70327,Stuttgart,(2)3-10,Kunst / Kultur / Unterhaltung
14662,Landgut Stober Kontor GmbH & Co. Betriebs KG,DE,14641,Nauen OT Groß Behnitz,(5)51-100,Tourismus / Hotel / Gastronomie
33279,Landimmobilien,DE,79780,Stühlingen-Mauchen,(1)1-2,Immobilien / Facility Management
25485,Landkreis Marburg-Biedenkopf / Eigenbetrieb Jugend- und Kulturförderung,DE,35043,Marburg,(2)3-10,Öffentliche Verwaltung
78890,lands,DE,48143,Münster,(1)1-2,Dienstleistung
44809,LANG HOLZWÄRME GMBH,AT,7023,Pöttelsdorf,(2)3-10,Handwerk
14756,Laube sozial-psychiatrische Aktivitäten GmbH,AT,5400,Hallein,(6)101-250,Gesundheitswesen / Soziales / Pflege
24522,LEBARTE  Johannes Falch,AT,6800,Feldkirch,(2)3-10,Handwerk
36531,LebensArt  GbR,DE,85356,Freising,(2)3-10,Baugewerbe / Architektur
25428,Lebenshilfe Brakel gGmbH,DE,33034,Brakel,(6)101-250,sonstiges
82906,Lebenshilfe Ostallgäu-Kaufbeuren e.V.,DE,87600,Kaufbeuren,(7)>250,Gesundheitswesen / Soziales / Pflege
19870,Lebenshilfe Tirol gem. GmbH,AT,6020,Innsbruck,(7)>250,Gesundheitswesen / Soziales / Pflege
30357,Lebensraum Holz GmbH,DE,83043,Bad Aibling,(2)3-10,Baugewerbe / Architektur
79094,Lebuco e.U.,AT,4040,Linz,(1)1-2,Beratung / Consulting
52981,Lederer Boutique Hotel,AT,5710,Kaprun,(2)3-10,Tourismus / Hotel / Gastronomie
129847,LEDtec GmbH,DE,33142,Büren,(3)11-25,Elektro / Elektronik
112820,Lehm-Laden GmbH & Co. KG,DE,29456,Hitzacker,(2)3-10,Handel / Konsum
20244,Lekido,IT,39011,Lana,(1)1-2,Gesundheitswesen / Soziales / Pflege
14857,Lenz Consulting,AT,6830,Rankweil,(1)1-2,Beratung / Consulting
117420,Leotron Srl Società Benefit,IT,37138,Verona,(3)11-25,Commercio / Consumo
36799,LernSINN erlebBAR e.V.,DE,14656,Brieselang,(1)1-2,Beratung / Consulting
14755,"LEWANDOWSKI Beratung, Analyse, Entwicklung",DE,50674,Köln,(1)1-2,Beratung / Consulting
127545,LichteGeschichte,DE,04103,Leipzig,(1)1-2,Marketing / Werbung / PR
14978,Lichtenborner Kräuteer,DE,37181,Hardegsen-Lichtenborn,(1)1-2,Nahrungsmittel / Land / Forstwirtschaft
14733,liesLotte MEDIEN VERLAG,DE,86169,Augsburg,(2)3-10,Medien
14788,Lilly Deutschland GmbH,DE,61352,Bad Homburg,(7)250-,Medizin / Pharma
141375,Lilly Deutschland GmbH,DE,61352,Bad Homburg,(8)501-1000,Gesundheitswesen / Soziales / Pflege
92515,Limonium Canarias SL,ES,35018,Las Palmas de Gran Canaria,(1)1-2,Otros
22837,Lindig Coaching-Wachstum-Integraton,DE,51491,Overath,(1)1-2,Beratung / Consulting
51855,Liot Kunststofftechnik,AT,9991,Dölsach,(3)11-25,Handwerk
92487,LMC,ES,46022,Valencia,(1)1-2,Otros
93873,Lotta Karotta Bio-Lieferservice OHG,DE,37130,Gleichen-Rittmarshausen,(4)26-50,Nahrungsmittel / Land / Forstwirtschaft
23252,Luisenburg Festspiele,DE,95632,Wunsiedel,(4)26-50,Kunst / Kultur / Unterhaltung
19686,Lux Bau GmbH,AT,3170,Hainfeld,(6)101-250,Baugewerbe / Architektur
36803,LWP Institut Hannover,DE,30453,Hannover,(1)1-2,Beratung / Consulting
92429,Mª Jesús Pérez Domínguez,ES,38003,Santa Cruz de Tenerife,(8) Todas las tallas,Otros
14858,Maas Naturwaren GmbH,DE,33334,Gütersloh,(6)101-250,Textilbranche
19279,Macrolibrarsi di Golden Books S.r.l.,IT,47521,Cesena,(5)51-100,Handel / Konsum
36805,Mae Terra – Seminare Anne Tscharmann & Robert Pilak,AT,7022,Schattendorf,(1)1-2,Beratung / Consulting
104921,Mag. Daniela Christine Schwaiger,AT,5400,Hallein,(1)1-2,Beratung / Consulting
45837,Mag. Dr. Martin Sturmer,AT,5110,Oberndorf,(1)1-2,Marketing / Werbung / PR
22392,Mag. Michael Zitterl,AT,6065,Thaur,(1)1-2,Beratung / Consulting
35301,MAG. VERENA FLORIAN,AT,1020,Wien,,Beratung / Consulting
19538,Maga Ulli Fejer,AT,8111,Gratwein-Straßengel,(1)1-2,Beratung / Consulting
44823,MAKAvA delighted GmbH,AT,8010,Graz,(2)3-10,Nahrungsmittel / Land / Forstwirtschaft
14859,Malerei Wülser und Partner GmbH,CH,8405,Winterthur,(3)11-25,Handwerk
44825,Malermeister Andree Antosch,DE,22769,Hamburg,(3)11-25,Handwerk
30355,Malteser Hilfsdienst gemeinnützige GmbH,DE,83278,Traunstein,(5)51-100,Gesundheitswesen / Soziales / Pflege
14860,Malzfabrik,DE,12103,Berlin,(3)11-25,Kunst / Kultur / Unterhaltung
14905,Manfred Jotter – Besser Wirtschaften,DE,20357,Hamburg,(1)1-2,Beratung / Consulting
28515,Manfred Kofranek,AT,1090,Wien,,
44827,MaranVEGAN GmbH,AT,1060,Wien,(2)3-10,Handel / Konsum
40996,Margit  und Josef Mayr-Lamm,AT,4511,Alhaming,(2)3-10,Nahrungsmittel / Land / Forstwirtschaft
37705,Maria Henkys ShopConsult-NRW,DE,40597,Düsseldorf-Benrath,(1)1-2,Beratung / Consulting
64670,Maria-Elisabeth Belpaire,BE,2018,Antwerpen,(1)1-2,Other branches
150760,Marianne Voit Coaching-Training-Supervision,DE,86558,Hohenwart,(1)1-2,Beratung / Consulting
30151,Marianne Voit-Lipowsky,DE,86558,Hohenwart,(1)1-2,Beratung / Consulting
92459,Marketeasing,ES,08338,Premià de Dalt,(1)1-2,Otros
27489,Märkisches Landbrot GmbH,DE,12057,Berlin,(4)26-50,Handwerk
85360,Markt5- Der regionale Concept Store,DE,59759,Arnsberg,(1)1-2,Handel / Konsum
24844,Markthalle Betriebsgesellschaft mbH,DE,20095,Hamburg,(4)26-50,Handel / Konsum
32323,Markus Hölzl,DE,81827,München,(1)1-2,Beratung / Consulting
14861,Marmed GmbH,DE,35091,Cölbe,(3)11-25,Medizin / Pharma
124369,Maßstab Diamant GmbH,DE,32584,Löhne,(4)26-50,Marketing / Werbung / PR
14764,Mathias Winkler – Nachhaltige Finanzlösungen,DE,81543,München,(1)1-2,Finanzen
14735,Mathis Spenglerei GmbH,AT,6844,Altach,(3)11-25,Handwerk
14747,Matthias Brunk,DE,53129,Bonn,(1)1-2,Beratung / Consulting
35669,Mattlihaus KG,DE,87541,Oberjoch,(3)11-25,Tourismus / Hotel / Gastronomie
139399,media4nature GmbH,DE,90425,Nürnberg,(1)1-2,Marketing / Werbung / PR
48622,Medus des Andreas Gögele & Co. KG,IT,39012,Meran/o,(3)11-25,Druck / Papier / Verpackung
80060,"MehrWert GmbH für Finanzberatung und Vermittlung, Bamberg",DE,96047,Bamberg,(2)3-10,Finanzen
55101,mehrWerte Unternehmensentwicklung,AT,1140,Wien,(1)1-2,Beratung / Consulting
44832,Meierei Horst eG,DE,25358,Horst (Holstein),(3)11-25,Nahrungsmittel / Land / Forstwirtschaft
14803,Mein Grundeinkommen e.V. (gemeinnützig),DE,12053,Berlin,(3)11-25,Gesundheitswesen / Soziales / Pflege
14862,Mein Kindskopf UG,DE,83324,Ruhpolding,(1)1-2,Gesundheitswesen / Soziales / Pflege
35292,"Meister Küfner Nusseckenmanufaktur, Nürnberg",DE,90461,Nürnberg,,Handwerk
45835,Meisterfloristik Oberndorf,AT,5110,Oberndorf,(2)3-10,Handwerk
14817,Melchinger Systemhaus UG (haftungsbeschränkt),DE,71126,Gäufelden,(1)1-2,Beratung / Consulting
24896,Mellauner S.r.l.,IT,39042,Brixen,(2)3-10,Verkehr / Transport / Logistik
92465,Mellowmove,PT,2640-206,Encarnação,(1)1-2,Otros
36811,mentalenz Corinna Lütsch & Carsten Schaeffer GbR,DE,22417,Hamburg,(1)1-2,Beratung / Consulting
82677,Meraner Weinhaus – PUR Südtirol,IT,39011,Lana,(5)51-100,Handel / Konsum
44845,Mercacultura GmbH,AT,8181,St. Ruprecht an der Raab,(2)3-10,Handel / Konsum
29734,Metzler Käse – Molke GmbH,AT,6863,Egg,(3)11-25,Nahrungsmittel / Land / Forstwirtschaft
14790,mg: mannheimer gründungszentren gmbh,DE,68163,Mannheim,(4)26-50,Immobilien / Facility Management
14798,Michael Selig – Berater für Organisation und Transformation,DE,74594,Kreßberg,(1)1-2,Beratung / Consulting
37755,Michael Vongerichten,DE,14119,Berlin,(1)1-2,Beratung / Consulting
37758,Michael Weiss,AT,8144,Tobelbad,(1)1-2,Beratung / Consulting
143252,Michael Winkler,AT,2391,Kaltenleutgeben,(2)3-10,Handwerk
147396,Michaelshof Hepsisau,DE,"73,235",Weilheim an der Teck,(4)26-50,Gesundheitswesen / Soziales / Pflege
14961,Mick Petersmann,DE,20259,Hamburg,(1)1-2,Beratung / Consulting
22381,mICU-Alps GmbH,AT,6060,Hall in Tirol,(2)3-10,Gesundheitswesen / Soziales / Pflege
80072,"MINOVA Information Services GmbH, Würzburg",DE,97072,Würzburg,(3)11-25,EDV / IT
48630,MITTELBERGER & CO OHG,IT,39100,Bozen/Bolzano/Bulsan,(3)11-25,Handwerk
14809,Mobility Center GmbH,DE,04107,Leipzig,(3)11-25,Verkehr / Transport / Logistik
14725,MobilSpiel e.V.,DE,81379,München,(4)26-50,Bildung / Universität / FH / Schulen
15588,"Möckernkiez Genossenschaft für selbstverwaltetes, soziales und ökologisches Wohnen eG",DE,10963,Berlin,(2)3-10,Immobilien / Facility Management
14995,Mode & Sport Moreau GesmbH,AT,5710,Kaprun,(3)11-25,Handel / Konsum
14940,Moin Bio Backwaren GmbH,DE,25348,Glückstadt,(4)26-50,Handwerk
75629,mondo buchhandlung,DE,33602,Bielefeld,(1)1-2,Handel / Konsum
30038,Monika Riedl Christallmanufaktur,AT,5303,Thalgau,(2)3-10,Kunst / Kultur / Unterhaltung
14963,monomeer. Alles ohne Plastik,DE,78467,Konstanz,(1)1-2,Handel / Konsum
44182,Monteverde Cooperativa Sociale di Solidarietà – Onlus,IT,37030,Badia Calavena,(4)26-50,Gesundheitswesen / Soziales / Pflege
133262,Monteverde Cooperativa Sociale di Solidarietà – Onlus,IT,37030,Badia Calavena (VR),(4)26-50,Assistenza sanitaria / Servizi sociali / Infermieristica
74013,Müller & Mooseder Unternehmensberatung,DE,85221,Dachau,(1)1-2,Beratung / Consulting
14663,Müller Bau GmbH & Co KG,AT,6844,A-Altach,(4)26-50,Baugewerbe / Architektur
14736,MÜLLER Ofenbau Bertram u. Harald Müller GesnbR,AT,6713,Ludesch,(2)3-10,Handwerk
78430,müller ofenbau gmbh,AT,6713,Ludesch,(2)3-10,Handwerk
14864,"Müller, Horst",DE,81675,München,(1)1-2,Beratung / Consulting
33857,München kocht!,DE,80339,München,(1)1-2,Dienstleistung
30299,Münchner Aids- Hilfe e.V.,DE,80337,München,(4)26-50,Gesundheitswesen / Soziales / Pflege
46973,Münsterland gGmbH,DE,48565,Steinfurt,(3)11-25,Bildung / Universität / FH / Schulen
56536,Mutpol – Diakonische Jugendhilfe Tuttlingen,DE,78532,Tuttlingen,(7)>250,Gesundheitswesen / Soziales / Pflege
84899,MYCB1 Group B.V.,NL,1098,XG Amsterdam,(2)3-10,Medizin / Pharma
143254,myssion consulting gmbh,AT,1030,Wien,(2)3-10,Beratung / Consulting
36608,"N-Motion, Röhrle & Henle Partnerschaftsgesellschaft",DE,89073,Ulm,(1)1-2,Beratung / Consulting
14955,n.e.s.t. Bauprojektierung und Vermietung AG,DE,72070,Tübingen,(1)1-2,Baugewerbe / Architektur
14810,Nack Büroeinrichtungen GmbH,DE,22041,Hamburg,(2)3-10,Handel / Konsum
36813,Nagl-Pölzer Consulting,AT,2393,Sittendorf,(1)1-2,Beratung / Consulting
92399,Natura cultura y servicios ambientales S.L.,ES,46901,Torrent,(8) Todas las tallas,Otros
132141,Naturbackstube Kreis e.K.,DE,44229,Dortmund,(2)3-10,Handwerk
14993,naturblau+++ Die Werteagentur,DE,78359,Orsingen-Nenzingen,(2)3-10,Marketing / Werbung / PR
35302,nature and progress,DE,79585,Steinen Endenbzrg,,Beratung / Consulting
35652,Naturerlebniszentrum Allgäu,DE,87527,Sonthofen,(1)1-2,Bildung / Universität / FH / Schulen
44949,Naturgarten Schönegge Schönegge GmbH,DE,85405,Nandlstadt,(2)3-10,Nahrungsmittel / Land / Forstwirtschaft
92832,Naturkost Elkershausen GmbH,DE,37079,Göttingen,(6)101-250,Handel / Konsum
24848,Naturkost Nord Großhandelsgesellschaft mbH,DE,21218,Seevetal / Hittfeld,(5)51-100,Handel / Konsum
14979,Naturkost Querbeet,DE,34132,Kassel,(2)3-10,Handel / Konsum
14865,natürlich unverpackt,DE,48145,Münster,(1)1-2,Nahrungsmittel / Land / Forstwirtschaft
82913,Naturpark Nagelfluhkette e.V.,DE,87509,Immenstad-Bühl,(2)3-10,sonstiges
56313,Naturresort Gerbehof,DE,88048,Friedrichshafen,(2)3-10,Tourismus / Hotel / Gastronomie
140204,NAUST HUNECKE und Partner CPA mbH,DE,58636,Iselohn,(5)51-100,Beratung / Consulting
14712,"NAVISANA eG, seit 2019 GbR",DE,50858,Köln,(2)3-10,Gesundheitswesen / Soziales / Pflege
21570,Nell-Breuning-Haus,DE,52134,Herzogenrath,(4)26-50,Bildung / Universität / FH / Schulen
14771,Nellie Nashorn Soziokultur gGmbH,DE,79539,Lörrach,(2)3-10,Kunst / Kultur / Unterhaltung
84749,NEST Architekten GbR,DE,81673,München,(2)3-10,Baugewerbe / Architektur
38110,Nets.werk Steyr – Nachhaltig leben,AT,4400,Steyr,(1)1-2,Handel / Konsum
132147,netz.NRW – Verband für Ökologie und soz. Wirtschaften e.V.,DE,44147,Dortmund,(2)3-10,Dienstleistung
68060,Netzwerk Geburt und Familie e.V.,DE,80337,München,(4)26-50,Gesundheitswesen / Soziales / Pflege
129576,Netzwert Partner GmbH,DE,81476,München,(2)3-10,Beratung / Consulting
79708,"Neumarkter Lammsbräu, Gebr. Ehrnsperger KG",DE,92318,Neumarkt,(6)101-250,Nahrungsmittel / Land / Forstwirtschaft
36892,Nikolaus Teixeira communications & design,DE,82049,Pullach,(1)1-2,Druck / Papier / Verpackung
14674,Nils Wittke,DE,10717,Berlin,(1)1-2,Beratung / Consulting
37056,Nina Baresch,AT,2000,Stockerau,(1)1-2,Gesundheitswesen / Soziales / Pflege
131662,Nivona Apparate GmbH,DE,90449,Nürnberg,(5)51-100,Handel / Konsum
58436,NL 1,NL,12345,NL1 City,(5)51-100,Construction / Architecture
59391,No Time To Waste (Snew),NL,5281 RE,Boxtel,(3)11-25,Electrical / Electronics
18598,Novatec Consulting GmbH,DE,70771,Leinfelden-Echterdingen,(6)101-250,Beratung / Consulting
98918,noventum consulting GmbH,DE,48155,Münster,(6)101-250,Beratung / Consulting
14942,NoviTech e.U.,AT,5020,Salzburg,(2)3-10,Handel / Konsum
61590,nowwork GbR,DE,70178,Stuttgart,(1)1-2,Dienstleistung
112674,Oasia GbR,DE,29456,Hitzacker,(1)1-2,Handel / Konsum
23248,Objekt-Service GmbH,DE,95497,Goldkronach,(2)3-10,Textilbranche
45955,öbu – der Verband für nachhaltiges Wirtschaften (Verein),CH,8005,Zürich,(2)3-10,sonstiges
44998,oceanBASIS GmbH,DE,24159,Kiel,(3)11-25,sonstiges
92513,Oceanográfica,ES,35219,El Goro,(1)1-2,Otros
14949,OeAD-WohnraumverwaltungsGmbH,AT,1010,Wien,(5)51-100,Sonstige Branchen
14676,Oekofrost,DE,12109,Berlin,(3)11-25,Nahrungsmittel / Land / Forstwirtschaft
129590,OH LA LAQUA GmbH,DE,80469,München,(2)3-10,Handel / Konsum
20027,OIKOPOLIS Participations SA,LU,5365,Munsbach,(7)>250,Handel / Konsum
14720,Öko & Fair Umweltzentrum Gauting,DE,82131,Gauting,(1)1-2,Dienstleistung
14677,Ökofairbau,DE,94116,Hutthurm,(1)1-2,Baugewerbe / Architektur
84568,Ökokiste Bosshammersch Hof,DE,35274,Großseelheim,(4)26-50,Nahrungsmittel / Land / Forstwirtschaft
101028,Ökokiste Kößnach GmbH & Co. KG,DE,94356,Kirchroth,(3)11-25,Handel / Konsum
80062,"Ökokiste Schwarzach e.K., Schwarzach a. Main",DE,97359,Schwarzach,(3)11-25,Nahrungsmittel / Land / Forstwirtschaft
144485,Ökologisch-Demokratische Partei  LV Berlin,DE,10409,Berlin,(11)5001-10000,sonstiges
144356,Ökologisch-Demokratische Partei  ÖDP,DE,97070,Würzburg,(11)5001-10000,sonstiges
36824,Ökomarkt Verbraucher- und Agrarberatung e.V.,DE,20259,Hamburg,(2)3-10,Beratung / Consulting
14678,Ökoring Handels GmbH,DE,82291,Mammendorf,(6)101-250,Handel / Konsum
44858,Oktoberdruck AG,DE,10245,Berlin,(2)3-10,Druck / Papier / Verpackung
36947,Oliver Kirchhof,DE,50968,Köln,(1)1-2,Beratung / Consulting
41902,Oliver Tunnat,DE,33154,Salzkotten,(1)1-2,Beratung / Consulting
14679,Omnicert Umweltgutachter GmbH,DE,93077,Bad Abbach,(2)3-10,Beratung / Consulting
64664,Onze-Lieve-Vrouwekathedraal Antwerpen,BE,2000,Antwerpen,(3)11-25,Tourism / Hotel / Gastronomy
14778,Organiced Kitchen,DE,10557,Berlin,(3)11-25,Tourismus / Hotel / Gastronomie
22589,Organisationsberatung Annelen Schulze Höing,DE,13469,Berlin,(1)1-2,Beratung / Consulting
37748,Otto Raich,AT,4452,Ternberg,(1)1-2,Beratung / Consulting
14716,Outward Bound gGmbH,DE,87645,Schwangau,(2)3-10,Gesundheitswesen / Soziales / Pflege
44860,OWUS Berlin-Brandenburg e.V.,DE,10243,Berlin,(1)1-2,Vereine
72205,P1 Consulting GmbH,DE,33602,Bielefeld,(2)3-10,Beratung / Consulting
14782,PAP Pongauer ArbeitsProjekt,AT,5620,Schwarzach,(4)26-50,Gesundheitswesen / Soziales / Pflege
40111,PAPERBOATS Lenja Rother,DE,20251,Hamburg,(1)1-2,Beratung / Consulting
30305,PARITÄTISCHE Sozialpsychiatrisches Zentrum München gGmbH,DE,81737,München,(5)51-100,Gesundheitswesen / Soziales / Pflege
14680,Parkhotel Frank,DE,87561,Oberstorf,(5)51-100,Tourismus / Hotel / Gastronomie
59402,Parktheater Eindhoven,NL,5615 CN,Eindhoven,(5)51-100,Art / Culture / Entertainment
92479,Pauma,ES,31015,Pamplona,(1)1-2,Otros
14741,PCH-Fischer GmbH & Co. KG,DE,58300,Wetter (Ruhr),(1)1-2,Beratung / Consulting
14697,Pelzl Beratung & Umsetzung,DE,28719,Bremen,(1)1-2,Beratung / Consulting
96610,peppair GmbH,DE,88239,Wangen im Allgäu,(1)1-2,Beratung / Consulting
44864,PersonalDock GmbH,DE,22335,Hamburg,(2)3-10,Personalwesen / Personalbeschaffung
19534,Perspektivatelier,AT,1060,Wien,(1)1-2,Beratung / Consulting
36677,Peter Eschner,AT,1180,Wien,(1)1-2,Beratung / Consulting
14681,Peter Frank,DE,72074,Tübingen,(1)1-2,Beratung / Consulting
14682,Peter Weiss Stiftung (PWS)Literaturfestival,DE,10115,Berlin,(2)3-10,Druck / Papier / Verpackung
25426,Petersilchen GmbH,DE,32839,Steinheim,(5)51-100,Nahrungsmittel / Land / Forstwirtschaft
92357,Piben Fruits,ES,12540,Villareal,(8) Todas las tallas,Otros
44173,Pineta Hotels,IT,38012,Predaia,(4)26-50,Tourismus / Hotel / Gastronomie
126556,Pineta Nature Resort Srl,IT,38010,Tavon – Trento,(4)26-50,Turismo / Hotel / Gastronomia
14951,Pizzinini Busreisen,IT,39042,Brixen,(4)26-50,Handwerk
27430,Pizzinini Mobility GmbH,IT,39042,Brixen,(2)3-10,Verkehr / Transport / Logistik
124379,Planungsbüro Drobka GmbH,DE,14806,Bad Belzig,(3)11-25,Dienstleistung
92423,Playamar y Turismo,ES,07458,Santa Margalida,(8) Todas las tallas,Otros
79534,playfulmind GmbH,DE,95494,Gesees,(1)1-2,Beratung / Consulting
30768,Points Gesellschaft für digitale Informationssysteme mbH,DE,70188,Stuttgart,(3)11-25,EDV / IT
14683,Polarstern,DE,80337,München,(3)11-25,Energiewirtschaft
150465,Polarstern GmbH,DE,80337,München,(4)26-50,Energiewirtschaft
85373,POLIFANT Stuttgart gGmbH,DE,71229,Leonberg,(6)101-250,Bildung / Universität / FH / Schulen
92451,Pou de Beca,ES,12194,Vall d’Alba,(8) Todas las tallas,Otros
96975,PRÄSENTATIONSWERK,DE,60385,Frankfurt am Main,(1)1-2,Beratung / Consulting
14727,Praxisgemeinschaft AMEDEA,DE,86943,Thaining,(1)1-2,Gesundheitswesen / Soziales / Pflege
14867,Praxisgemeinschaft Fridolfing,DE,83413,Fridolfing,(3)11-25,Medizin / Pharma
132125,presigno GmbH,DE,44263,Dortmund,(2)3-10,Marketing / Werbung / PR
14907,Prior1 GmbH,DE,53757,St. Augustin,(4)26-50,Baugewerbe / Architektur
14908,Private Hortgruppe Mobile,AT,6460,Imst,(2)3-10,Gesundheitswesen / Soziales / Pflege
14753,Privatpraxis für Psychotherapie und Supervision,DE,42659,Solingen,(1)1-2,Beratung / Consulting
111664,Pro Basketball Göttingen GmbH,DE,37081,Göttingen,(4)26-50,Sport / Fitness / Beauty
90862,Pro Raum GmbH,DE,50285,Köln,(1)1-2,Handwerk
64591,PRO-PLAN GmbH,AT,6370,Kitzbühel,(2)3-10,Energiewirtschaft
127454,pro… gemeinsam bauen und leben eG,DE,70188,Stutttgart,(2)3-10,Baugewerbe / Architektur
143246,PROCESS-M GmbH,AT,1140,Purkersdorf,(1)1-2,Beratung / Consulting
92401,Produccions Metrònoms S.L.,ES,12002,Castelló de la Plana,(8) Todas las tallas,Otros
40588,ProEngeno GmbH & Co. KG,DE,26844,Jemgum,(2)3-10,Energiewirtschaft
36684,Prof. Dr. Bernd Fittkau,DE,22337,Hamburg,(1)1-2,Beratung / Consulting
40119,Prof. Dr. Bernd Hümmer,DE,90537,Feucht,,Beratung / Consulting
120252,Profilwerkstatt GmbH,DE,64295,Darmstadt,(5)51-100,Marketing / Werbung / PR
14710,Proiectio,DE,64295,Darmstadt,(1)1-2,Beratung / Consulting
40298,PROMA Versicherungsmakler GmbH & Co.KG,DE,89343,Jettingen-Scheppach,(3)11-25,Finanzen
99328,prosa Architektur+Stadtplanung BDA,DE,64283,Darmstadt,(3)11-25,Baugewerbe / Architektur
151681,pusch & Partner,DE,23570,lübeck,,
21191,Qaizen GmbH,DE,44141,Dortmund,(1)1-2,Beratung / Consulting
30309,qnipp GmbH,AT,7064,Oslip,(2)3-10,EDV / IT
44867,Quartiermeister – korrekter Konsum GmbH,DE,10999,Berlin,(2)3-10,Handel / Konsum
44869,Quatsch mit Soße – Stefanie Griesse,DE,30173,Hannover,(1)1-2,Tourismus / Hotel / Gastronomie
36830,QuintLog e.U.,AT,1020,Wien,(1)1-2,Beratung / Consulting
38704,R.U.S.Z. Franchising GmbH,AT,1140,Wien,(3)11-25,Handwerk
44871,RABOLD UND CO. e.U.,AT,7400,Oberwart,(2)3-10,Beratung / Consulting
40880,Rad-Hof Erfurt,DE,99084,Erfurt,(1)1-2,Tourismus / Hotel / Gastronomie
29769,Radio München gUG,DE,81547,München,(2)3-10,Medien
32904,Radio Next Generation GmbH & Co. KG (Sender egoFM),DE,80807,München,(3)11-25,Medien
80067,"radius UG, Ihr Fahrrad-Kurier in Würzburg",DE,97070,Würzburg,(2)3-10,Verkehr / Transport / Logistik
35304,Rahm Projektmanagement Schlüsselfertigbau GmbH,DE,70374,Stuttgart,,Baugewerbe / Architektur
56171,Raidboxes GmbH,DE,48153,Münster,(4)26-50,EDV / IT
14711,Raiffeisenbank Lech am Arlberg eGen,AT,6764,Lech,(3)11-25,Finanzen
82244,Raiffeisenbank Region St. Pölten eGen,AT,3100,St. Pölten,(6)101-250,Banken
14700,Randegger Ottilien-Quelle GmbH,DE,78244,Gottmadingen,(3)11-25,Nahrungsmittel / Land / Forstwirtschaft
36834,RARENA Dr. Ralf Resch Nachhaltigkeitsberatung,DE,41462,Neuss,(1)1-2,Beratung / Consulting
37746,Raum für Bewusst Sein GmbH,CH,8005,Zürich,(1)1-2,Beratung / Consulting
36543,RAUM.WERTcc DIin Ursula Spannberger,AT,5020,Salzburg,(1)1-2,Baugewerbe / Architektur
14968,RAUM.WERTcc Ursula Spannberger,AT,5020,Salzburg,(1)1-2,Baugewerbe / Architektur
44771,Raumausstatter Hegemann,DE,48308,Senden-Bösensell,(2)3-10,Handwerk
124736,Rauszeit Agentur,CH,4107,"Ettingen, Basel-Landschaft (Schweiz)",(1)1-2,Beratung / Consulting
44874,ray facility management group Nils Bogdol GmbH,DE,49451,Holdorf,(5)51-100,Immobilien / Facility Management
126876,rebio Regionale BIOLAND-Erzeugergemeinschaft GmbH,DE,72108,Rottenburg am Neckar,(4)26-50,Nahrungsmittel / Land / Forstwirtschaft
33861,Reformhaus Mayr e.K.,DE,81241,München,(5)51-100,Handel / Konsum
23715,Regensburg Tourismus GmbH (RTG),DE,93055,Regensburg,(4)26-50,Öffentliche Verwaltung
14684,Regina Sörgel,DE,91781,Weißenburg,(1)1-2,Bildung / Universität / FH / Schulen
68219,Regionaldirektion Martin Bantle e.K.,DE,78462,Konstanz,(2)3-10,Versicherung
14909,Regionalenergie Osttirol reg. Gen. m.b.H.,AT,9900,Lienz,(2)3-10,Energiewirtschaft
30153,Regionalkollektiv eG,DE,84034,Landshut,(2)3-10,Nahrungsmittel / Land / Forstwirtschaft
29660,REGIOS EG,DE,83022,Rosenheim,(2)3-10,Finanzen
36662,Reinhard Decker  Unternehmensberater,AT,6835,Dafins,(1)1-2,Beratung / Consulting
53438,Reishofers Pasch UG,DE,83533,Edling,,Beratung / Consulting
19282,Remedia di Satanassi & Bosch Società Agricola S.S.,IT,47027,Sarsina,(4)26-50,Nahrungsmittel / Land / Forstwirtschaft
82902,renergie Allgäu e.V.,DE,87439,Kempten,(3)11-25,Beratung / Consulting
90814,REUTER × BOBETH,DE,10961,Berlin,(2)3-10,Marketing / Werbung / PR
29753,ReWiG München eG,DE,81667,München,(2)3-10,Dienstleistung
14924,Reyerhof,DE,70567,Stuttgart,(2)3-10,Nahrungsmittel / Land / Forstwirtschaft
122149,Rheinsberger Preussenquelle GmbH,DE,16831,Rheinsberg,(3)11-25,Nahrungsmittel / Land / Forstwirtschaft
118851,Rieder.Steuer.Beratung,AT,5721,Piesendorf,(2)3-10,Steuerberatung / Wirtschaftsprüfung
127451,Robi Wache Architekten GmbH,DE,70199,Stuttgart,(2)3-10,Baugewerbe / Architektur
150945,Rofin Gewerbepark Eberswalde,DE,16227,Eberswalde,(2)3-10,Immobilien / Facility Management
14970,rolf dingethal organisations- und managemententwicklung,DE,71263,Weil der Stadt,(1)1-2,Beratung / Consulting
87389,Rolf Schanz Gmbh – Schanz Bänder,DE,72116,Mössingen,(2)3-10,Industrie
29832,Roseli Gonzalves,DE,28215,Bremen,(1)1-2,Beratung / Consulting
83738,RÖSTTROMMEL GMBH KAFFEERÖSTEREI,DE,90429,Nürnberg,(4)26-50,Handel / Konsum
35305,Rosy Green Wool GbR – Rosmary Stegmann und Patrick Gruban,DE,80538,München,,Handel / Konsum
55440,Rudolf Eckel Federnfabrik,DE,57368,Lennestadt,(4)26-50,Industrie
44937,Rudolf Steiner Haus Hamburg e.V.,DE,20148,Hamburg,(2)3-10,Vereine
130935,RUNA REISEN GmbH,DE,33803,Steinhagen,(3)11-25,Tourismus / Hotel / Gastronomie
92345,Ruth Palomero S.L.,ES,46114,Cullera,(8) Todas las tallas,Otros
14728,rw-cct gmbh,DE,86874,Tussenhausen,(1)1-2,Beratung / Consulting
14944,Sabine Lehner – MARKENwerkstatt,AT,5020,Salzburg,(1)1-2,Beratung / Consulting
35671,SÄBU Holzbau GmbH,DE,87640,Biessenhofen,(4)26-50,Baugewerbe / Architektur
14868,Sachranger Dorfladen UG,DE,83229,Aschau,(1)1-2,Handel / Konsum
20289,Sächsische Aufbaubank – Förderbank,DE,01069,Dresden,(7)>250,Banken
35306,SAD Nahverkehr AG,IT,39100,Bozen,,Verkehr / Transport / Logistik
44178,Sadesign SNC,IT,38123,Mattarello,(2)3-10,Dienstleistung
126578,Sadesign SNC,IT,38123,Trento,(3)11-25,Commercio / Consumo
14925,Samariterstiftung,DE,72622,Nürtingen,(7)250-,Gesundheitswesen / Soziales / Pflege
14910,Sanoll,AT,6422,Stams,(2)3-10,Sport / Fitness / Beauty
17818,Saphenus Medical Technology GmbH,AT,3500,Krems,(2)3-10,Medizintechnik
92407,SAPIENS ENERGÍA COOP. V.,ES,46529,Canet d’en Berenguer,(8) Todas las tallas,Otros
44939,satis&fy AG,DE,59368,Werne,(6)101-250,Sonstige Branchen
36838,sattler energie consulting gmbh,AT,4810,gmunden,(2)3-10,Beratung / Consulting
44942,Schachinger Logistik Holding GmbH,AT,4063,Hörsching,(7)>250,Verkehr / Transport / Logistik
14982,Schachtelhalm UG,DE,37213,Witzenhaiusen,(2)3-10,Handel / Konsum
14869,Schäfer Installationen,DE,32805,Horn-Bad Meinberg,(2)3-10,Handwerk
126130,Schamong GmbH & Co. KG,DE,50825,Köln,(3)11-25,Nahrungsmittel / Land / Forstwirtschaft
73570,SCHELP MEDIATION,DE,30173,Hannover,(1)1-2,Dienstleistung
30083,SCHINDEL UND HOLZ,AT,9900,Lienz,(5)51-100,Baugewerbe / Architektur
36845,schink-kantoku,DE,10318,Berlin,(1)1-2,Beratung / Consulting
44946,Schirnhofer Gesellschaft m.b.H.,AT,8224,Kaindorf bei Hartberg,(7)>250,Nahrungsmittel / Land / Forstwirtschaft
30380,Schlaraffenburger Streuobstagentur,DE,63776,Mömbris,(2)3-10,Nahrungsmittel / Land / Forstwirtschaft
20441,Schloss Blumenthal Gmbh & Co. KG,DE,86551,Aichach-Klingen,(4)26-50,Tourismus / Hotel / Gastronomie
87413,Schloss Hamborn Rudolf Steiner Werkgemeinschaft e.V.,DE,33178,Borchen,(6)101-250,Gesundheitswesen / Soziales / Pflege
14914,Schloss Tempelhof eG,DE,74594,Kreßberg,(2)3-10,Immobilien / Facility Management
152355,Schlosshotel & Gasthaus Blumenthal GmbH & Co. KG,DE,86551,Aichach,(4)26-50,Tourismus / Hotel / Gastronomie
39550,Schmedshof,DE,36320,Kirtorf-Heimertshausen,(1)1-2,Nahrungsmittel / Land / Forstwirtschaft
93954,Schöberl & Pöll GmbH,AT,1020,Wien,(2)3-10,Baugewerbe / Architektur
14730,Schubert Bio & Vollwert Bäckerei GmbH & Co KG,DE,86153,Augsburg,(6)101-250,Nahrungsmittel / Land / Forstwirtschaft
112013,Schulte Verpackungs-Systeme GmbH,DE,58675,Hemer,(5)51-100,Druck / Papier / Verpackung
115631,Schütte Baumarkt GmbH & Roggan KG,DE,29439,Lüchow,(4)26-50,Handel / Konsum
33863,"Schwabinger Automobil Haus, Gebr. Herrmann GmbH & Co KG",DE,80807,München,(1)1-2,Sonstige Branchen
90359,Schwarzer Business Quality,DE,35440,Linden,(1)1-2,Beratung / Consulting
25346,Schwarzseher GmbH,DE,26121,Oldenburg,(2)3-10,Marketing / Werbung / PR
93101,sd vybrant GmbH,DE,80637,München,(2)3-10,Marktforschung
92405,Seco Durán S.L.,ES,38190,Santa Cruz de Tenerife,(8) Todas las tallas,Otros
129598,Secur Solutions GmbH,DE,82166,Gräfelfing,(6)101-250,Dienstleistung
14996,Sehen und Hören Maurer GmbH,AT,5730,Mittersill,(3)11-25,Handel / Konsum
14912,Seifenmanufaktur-Neururer gmbh,AT,6441,Umhausen,(1)1-2,Sport / Fitness / Beauty
25101,Seiwald KG des Seiwald Klaus & Co.,IT,39030,Gsies,(3)11-25,Verkehr / Transport / Logistik
41057,SEKEM Holding for Investment S.A.E. 3,DE,11361,Cairo,(7)>250,Nahrungsmittel / Land / Forstwirtschaft
14939,Seminarhaus deinsdorf e.V.,DE,91249,Weigendorf,(2)3-10,Bildung / Universität / FH / Schulen
56033,Sempact AG,DE,86899,Landsberg am Lech,(2)3-10,Beratung / Consulting
55129,Seniorenzentrum Göttingen gGmbH,DE,37083,Göttingen,(6)101-250,Gesundheitswesen / Soziales / Pflege
92441,Seniors Vida Sostenible,ES,03001,Alicante,(8) Todas las tallas,Otros
124371,senne products GmbH,DE,33161,Hövelhof,(5)51-100,sonstiges
24893,SERBUS KG des Christof Haidacher & Co.,IT,39032,Sand in Taufers,(5)51-100,Verkehr / Transport / Logistik
36869,SERI Nachhaltigkeitsforschungs und –kommunikations GmbH,DE,90459,Nürnberg,(3)11-25,Beratung / Consulting
44711,Service für Haus & Garten Markus Brandl,AT,8010,Graz,(1)1-2,Handwerk
14870,SES Stadtentwässerung Stuttgart,DE,70178,Stuttgart,(7)250-,Öffentliche Verwaltung
32906,SFP Architekten GmbH,DE,70199,Stuttgart,(3)11-25,Baugewerbe / Architektur
92415,Shine Psicología y Coaching S.L,ES,38320,La Laguna,(8) Todas las tallas,Otros
41402,siebold/hamburg messebau gmbh,DE,22525,Hamburg,(4)26-50,Dienstleistung
25016,Silbernagl Markus GmbH,IT,39040,Seis,(3)11-25,Verkehr / Transport / Logistik
127444,silberzebra gmbh,DE,79106,Freiburg im Breisgau,(2)3-10,EDV / IT
24903,SiMobil GmbH,IT,39040,Seis-Kastelruth,(5)51-100,Verkehr / Transport / Logistik
19542,Simon Brechel Nachhaltigkeitsmanagement,DE,64289,Darmstadt,(1)1-2,Beratung / Consulting
90090,Simon Veith | Nachhaltige Fotografie,DE,50677,Köln,(1)1-2,Medien
29802,sinnovation – nachhaltig entwickeln,DE,51069,Köln,(1)1-2,Beratung / Consulting
36997,sinnwerkstatt Medienagentur GmbH,DE,10999,Berlin,(2)3-10,Medien
118507,SK SESSELKAMPAGNE GmbH,DE,50678,Köln,(2)3-10,Handel / Konsum
37715,Smaranda Beate Keller Smart Work Design,DE,81669,München,(1)1-2,Beratung / Consulting
25344,smile! Solutions GmbH,DE,10585,Berlin,(2)3-10,Dienstleistung
14731,Snehotta Pflegeteam,DE,86381,Krumbach,(2)3-10,Gesundheitswesen / Soziales / Pflege
127018,Snehotta Pflegeteam,DE,86381,Krumbach,(6)101-250,Dienstleistung
72960,Società Mutua Piemonte ETS,IT,11064,Pinerolo (TO),(2)3-10,Assistenza sanitaria / Servizi sociali / Infermieristica
126590,Società Mutua Piemonte ETS,IT,10064,Pinerolo (TO),(2)3-10,Assistenza sanitaria / Servizi sociali / Infermieristica
14965,SODI – Solidaritätsdienst International e. V.,DE,10317,Berlin,(2)3-10,Sonstige Branchen
92431,Solange A. Ottonello Tuya,ES,38002,Santa Cruz de Tenerife,(8) Todas las tallas,Otros
143248,SOLAR 4 YOU Consulting Ges.m.b.H.,AT,2340,Mödling,(2)3-10,Baugewerbe / Architektur
124375,SOLVIS GmbH,DE,38112,Braunschweig,(6)101-250,Industrie
101562,Sommerland YogaKultur Erbach,DE,89155,Erbach,(1)1-2,Sport / Fitness / Beauty
14734,Sonnendruck GmbH,DE,69168,Wiesloch,(3)11-25,Druck / Papier / Verpackung
14708,Sonnentor Kräuterhandelsgesellschaft mbH,AT,3910,Sprögnitz,(7)250-,Nahrungsmittel / Land / Forstwirtschaft
14871,Sotronik GmbH,CH,8406,Winterthur,(2)3-10,Elektro / Elektronik
14927,soulproducts GmbH,DE,12099,Berlin,(4)26-50,Sonstige Branchen
36756,SOUND STRATEGY e.U.,AT,1190,Wien,(1)1-2,Beratung / Consulting
45839,Soziale Initiative gem. GmbH,AT,4400,Linz,(7)>250,Gesundheitswesen / Soziales / Pflege
14686,SozKom,AT,8564,Krottendorf-Gaisfeld,(4)26-50,Bildung / Universität / FH / Schulen
14687,Sparda-Bank München eG,DE,80335,München,(7)250-,Finanzen
21623,Sparkasse Berchtesgadener Land,DE,83435,Bad Reichenhall,(7)>250,Banken
44951,SPES GmbH,AT,4553,Schlierbach,(4)26-50,Seminar / Messeanbieter
14688,Spider Netzwerk und Software GmbH,DE,73614,Schorndorf,(2)3-10,EDV / IT
37060,SpielScheune der Geschichten,DE,21035,Hamburg,(2)3-10,Gesundheitswesen / Soziales / Pflege
47819,Spielzeugmuseum,DE,90403,Nürnberg,(2)3-10,Kunst / Kultur / Unterhaltung
101570,SPINDLER Dachdeckerei-Spenglerei GmbH,DE,85049,Ingolstadt,(3)11-25,Handwerk
14997,Spitalstiftung Konstanz,DE,78464,Konstanz,(6)101-250,Gesundheitswesen / Soziales / Pflege
53621,Sport Wolf,AT,6020,Innsbruck,(1)1-2,Handel / Konsum
81881,Sportvereinigung Feuerbach 1883 e.V.,DE,70469,Stuttgart,(4)26-50,Sport / Fitness / Beauty
14913,SpreeTrain  Consulting,DE,12167,Berlin,(2)3-10,Beratung / Consulting
44953,Sroka Stahl- und Anlagenbau U.G. & Co. KG,DE,14797,Kloster Lehnin,(2)3-10,Industrie
14872,St Elisabeth-Verein e.V. Marburg Berufliche Bildung (StEEB),DE,35091,Cölbe,(2)3-10,Gesundheitswesen / Soziales / Pflege
37182,St. Gereon Seniorendienste gemeinnützige GmbH,DE,41836,Hückelhoven,(3)11-25,Gesundheitswesen / Soziales / Pflege
14794,St. Virgil Salzburg,AT,5026,Salzburg,(4)26-50,Tourismus / Hotel / Gastronomie
34879,St.Rochus-Apotheke,DE,32839,Steinheim,(4)26-50,Gesundheitswesen / Soziales / Pflege
145504,St.Rochus-Apotheke,DE,32839,Steinheim,(3)11-25,Gesundheitswesen / Soziales / Pflege
139376,"Stadtentwässerungsbetriebe Köln, AöR",DE,51109,Köln,(8)501-1000,sonstiges
131820,Städtische Forggensee-Schifffahrt Füssen Eigenbetrieb der Stadt Füssen,DE,87629,Füssen,(3)11-25,Verkehr / Transport / Logistik
14709,Stadtmobil Rhein-Neckar AG,DE,68161,Mannheim,(4)26-50,Verkehr / Transport / Logistik
95454,Stadtmobil Südbaden AG,DE,79098,Freiburg i.Br.,(3)11-25,Verkehr / Transport / Logistik
77444,Stadtreinigung Hamburg,DE,20537,Hamburg,(7)>250,Sonstige Branchen
34944,Stadtteilzentrum Steglitz e.V,DE,12161,Berlin,(6)101-250,sonstiges
15717,Stadtverwaltung Steinheim,DE,32839,Steinheim,(5)51-100,Öffentliche Verwaltung
15525,"Stadtwerke Kufstein GmbH, Wasserabteilunge",AT,6330,Kufstein,(2)3-10,Öffentliche Verwaltung
14980,Stadtwerke Marburg GmbH,DE,35039,Marburg,(7)250-,Energiewirtschaft
112046,Stadtwerke Menden GmbH,DE,58708,Menden,(6)101-250,Energiewirtschaft
77849,Stadtwerke München GmbH,DE,80992,München,(4)26-50,Energiewirtschaft
14701,"Stadtwerke München GmbH, Geschäftsbereich Bäder",DE,80992,München,(6)101-250,Sport / Fitness / Beauty
126525,Stadtwerke Neumarkt i.d.OPf. Energie GmbH,DE,92318,Neumarkt i.d.OPf.,(6)101-250,Energiewirtschaft
126529,Stadtwerke Neumarkt i.d.OPf. Freizeit & Leben KU,DE,92318,Neumarkt i.d.OPf.,(4)26-50,Öffentliche Verwaltung
36872,STEAUF Stefanie Aufleger,DE,78462,Konstanz,(1)1-2,Beratung / Consulting
40573,STEAUF-Werkstatt,DE,78462,Konstanz,(1)1-2,Beratung / Consulting
23250,Stefan Wladarsch,DE,95447,Bayreuth,(1)1-2,Beratung / Consulting
14971,Steinbeis-Transferzentrum ZEN,DE,79106,Freiburg i.Br.,(1)1-2,Beratung / Consulting
14873,Steinbildhauerei Vincent,DE,58300,Wetter (Ruhr),(1)1-2,Handwerk
25029,Steiner Touring GmbH,IT,39030,Prags,(7)>250,Verkehr / Transport / Logistik
30147,Steinmetz Braun GmbH,DE,84051,Essenbach-Altheim,(2)3-10,Handwerk
106552,step GbR,DE,29468,Bergen an der Dumme,(2)3-10,Beratung / Consulting
44957,Sterntalerhof – Verein für ganzheitliche Lebensbegleitung,AT,7410,Loipersdorf-Kitzladen,(3)11-25,Gesundheitswesen / Soziales / Pflege
96973,Steuerberatungskanzlei Berkelmann,DE,49477,Ibbenbüren,(2)3-10,Steuerberatung / Wirtschaftsprüfung
15515,Steuerkanzlei Heinrich,DE,68219,Mannheim,(2)3-10,Dienstleistung
96622,Steuerkanzlei Pfann,DE,86159,Augsburg,(2)3-10,Steuerberatung / Wirtschaftsprüfung
37370,Steuerkanzlei Uwe K.Eberhardt,DE,78467,Konstanz,(2)3-10,Steuerberatung / Wirtschaftsprüfung
78247,stg – Die MitarbeiterBerater GmbH,DE,91056,Erlangen,(2)3-10,Dienstleistung
63662,Stiegl-Gut Wildshut GmbH,AT,5017,Salzburg,(3)11-25,Tourismus / Hotel / Gastronomie
14874,Stierlin Holz am Bau GmbH,CH,8400,Winterthur,(2)3-10,Handwerk
129757,Stiftung Gemeinwohl-Ökonomie NRW,DE,32756,Detmold,(1)1-2,Sonstige Branchen
45950,Stiftung Praktischer Umweltschutz Schweiz – Pusch,CH,8032,Zürich,(4)26-50,sonstiges
106945,Stiftung Theologische Hochschule Reutlingen der Evangelisch-methodistischen Kirche,DE,72762,Reutlingen,(3)11-25,Bildung / Universität / FH / Schulen
35307,"Stimmumschwung, Hayo Keckeis, Wilhermsdorf",DE,91452,Wilhermsdorf,,Kunst / Kultur / Unterhaltung
133268,STL srl sb,IT,36063,Marostica,(3)11-25,Commercio / Consumo
87391,Strobel AG,DE,91154,Roth,(4)26-50,Druck / Papier / Verpackung
35308,Strom vom Dach,AT,6343,Erl,,Energiewirtschaft
87416,Struck-Leuchten GmbH & Co. KG,DE,32839,Steinheim,(5)51-100,Marketing / Werbung / PR
129593,STUDIO | STADT | REGION – Förster Kurz Architekten & Stadtplaner Partnerschaft mbB,DE,80637,München,(3)11-25,Baugewerbe / Architektur
67263,Stuttgarter Bäder,DE,70176,Stuttgart,(7)>250,Kunst / Kultur / Unterhaltung
92477,Subbética Ecológica,ES,14940,Cabra,(1)1-2,Otros
94655,subject:RESOUL AG,DE,10965,Berlin,(2)3-10,Beratung / Consulting
44961,sun.e-solution GmbH,AT,9991,Dölsach,(2)3-10,Elektro / Elektronik
92453,Supernaranjas,ES,12530,Burriana,(8) Todas las tallas,Otros
152117,Superuse Studios NL BV,NL,3063NS,Rotterdam,(2)3-10,Construction / Architecture
14932,"Susanne Dahncke, Coaching für Querdenker",DE,21079,Hamburg,(1)1-2,Beratung / Consulting
17165,swapwork UG (haftungsbeschränkt),DE,10179,Berlin,(1)1-2,sonstiges
14689,Synthro,DE,55122,Mainz,(2)3-10,Beratung / Consulting
154460,Szene – Verein zur Förderung der Kultur,AT,5020,Salzburg,(3)11-25,Kunst / Kultur / Unterhaltung
25020,Taferner GmbH,IT,39031,Bruneck,(4)26-50,Verkehr / Transport / Logistik
38145,TAGWERK Großhandel für Naturkost GmbH,DE,85748,Garching,(2)3-10,Handel / Konsum
14707,Taifun-Tofu GmbH,DE,79108,Freiburg,(6)101-250,Nahrungsmittel / Land / Forstwirtschaft
44963,Talents4Good GmbH,DE,10117,Berlin,(2)3-10,Personalwesen / Personalbeschaffung
14986,Tannerhof GmbH & Co.KG,DE,83735,Bayrischzell,(4)26-50,Tourismus / Hotel / Gastronomie
37564,Tanzschule Schwebach,AT,1220,Wien,(2)3-10,Dienstleistung
14875,Taoasis GmbH Natur Duft Manufaktur,DE,32758,Detmold,(4)26-50,Gesundheitswesen / Soziales / Pflege
68530,TAOASIS GmbH Natur Duft Manufaktur,DE,32791,Lage,(4)26-50,Chemie
129596,TARABAO Bio.Fair.Direkt GmbH,DE,81735,München,(3)11-25,Handel / Konsum
37001,taz Verlags u. Vertriebs GmbH,DE,10969,Berlin,(7)>250,Medien
14853,Team Christian Felber,AT,1072,Wien,(2)3-10,Beratung / Consulting
76898,Team23 GmbH,DE,86153,Augs,(5)51-100,Internet / Multimedia
30156,Techgenossen eG,DE,81735,München,(2)3-10,EDV / IT
39029,Technischen Hochschule Nürnberg Georg Simon Ohm,DE,90489,Nürnberg,(7)>250,Bildung / Universität / FH / Schulen
78432,TECTUM GmbH,AT,6845,Hohenems,(4)26-50,Baugewerbe / Architektur
126584,Tenero Consulting sas,IT,37059,Zevio,(1)1-2,Assicurazione
144919,Tepui Energy UG,DE,40878,Ratingen,(1)1-2,Beratung / Consulting
62100,TESD GmbH,DE,89075,Ulm,(1)1-2,EDV / IT
25351,tetrateam – Nachhaltige Konzepte OHG,DE,10961,Berlin,(1)1-2,Versicherung
50520,Textlandia Sibylle Reuter,DE,40593,Düsseldorf,(1)1-2,Beratung / Consulting
41216,The Camphill School,US,19343,Glenmoore,(6)101-250,Bildung / Universität / FH / Schulen
112211,The Changer GmbH,DE,12053,Berlin,(2)3-10,Dienstleistung
92473,The Circular Project,ES,28008,Madrid,(1)1-2,Otros
106276,The New School for Information Services,NL,1071 cv,amsterdam,(3)11-25,Bildung / Universität / FH / Schulen
45841,Theater ecce,AT,5020,Salzburg,(2)3-10,Kunst / Kultur / Unterhaltung
35273,"Theater Salz+Pfeffer, Nürnberg",DE,90443,Nürnberg,(2)3-10,Kunst / Kultur / Unterhaltung
14751,TherapieZeitRaum,DE,30659,Hannover,(3)11-25,Gesundheitswesen / Soziales / Pflege
14934,Think fresh,DE,35647,Waldsolms,(1)1-2,Beratung / Consulting
14713,Thomas Henne,DE,88045,Friedrichshafen,(1)1-2,Beratung / Consulting
44779,"Thomas Huber, Bauernhof „Kripp“",AT,6067,Absam,(1)1-2,Nahrungsmittel / Land / Forstwirtschaft
14981,"Thomas Mönius, Gemeinwohlberater",DE,90419,Nürnberg,(1)1-2,Beratung / Consulting
115472,Thomas Schanz Solutions,CH,8232,Merishausen,(1)1-2,Beratung / Consulting
47041,Thomas Uloth Unternehmensberatung,DE,10179,Berlin – Mitte,(1)1-2,Beratung / Consulting
98829,Thomas Uloth Unternehmensberatung,DE,10179,Berlin,(1)1-2,Beratung / Consulting
155753,Thomas Uloth Unternehmensberatung,DE,10179,Berlin – Mitte,(1)1-2,Beratung / Consulting
14969,Tim Weinert,DE,70372,Stuttgart,(1)1-2,Beratung / Consulting
40968,Tischlein Deck Dich e. V.,DE,76135,Karlsruhe,(2)3-10,Tourismus / Hotel / Gastronomie
27432,TLB GmbH,AT,6543,Nauders,(2)3-10,Verkehr / Transport / Logistik
47141,TOFU Manufaktur Christian Nagel GmbH,DE,25474,Ellerbek,(2)3-10,Nahrungsmittel / Land / Forstwirtschaft
56881,Topp Textil GmbH,DE,87471,Durach,(5)51-100,Textilbranche
131835,Tourismusverband Ostallgäu e.V.,DE,87616,Marktoberdorf,(2)3-10,Tourismus / Hotel / Gastronomie
14806,Tourismusverband Wilder Kaiser,AT,6352,Ellmau,(4)26-50,Tourismus / Hotel / Gastronomie
14811,Trafik Doppelhammer,AT,6342,Niederndorf,(2)3-10,Handel / Konsum
33859,Transition Woods gGmbH,DE,80637,München,(2)3-10,Nahrungsmittel / Land / Forstwirtschaft
92439,Trasub La Vila S.L.,ES,03570,Villajoyosa,(8) Todas las tallas,Otros
133348,Treebu Srl società benefit,IT,37133,Verona,(2)3-10,Cibo / Agricoltura / Silvicoltura
91324,TRESS Brüder (TRESS Lebensmittel GmbH & Co. KG & Tress Gastronomie GmbH & Co. KG),DE,72534,Hayingen-Ehestetten,(5)51-100,Tourismus / Hotel / Gastronomie/ Lebensmittel
36883,Trigon Entwicklungsberatung registrierte Genossenschaft mit beschränkter Haftung,AT,8020,Graz,(2)3-10,Beratung / Consulting
14690,Trumer Privatbrauerei,AT,5162,Obertrum,(4)26-50,Nahrungsmittel / Land / Forstwirtschaft
40976,Tut-All Software GmbH,DE,76275,Ettlingen,(1)1-2,EDV / IT
30333,two4science,DE,64297,Darmstadt,(2)3-10,Chemie
132121,TZ Net GmbH,DE,44147,Dortmund,(1)1-2,Öffentliche Verwaltung
62183,Uitgeverij Genoeg,NL,5342 AL,Oss,(1)1-2,Media
14719,Ulenspiegel Druck GmbH & Co. KG,DE,82346,Andechs,(2)3-10,Druck / Papier / Verpackung
14916,Ulmer Weltladen,DE,89073,Ulm,(2)3-10,Handel / Konsum
14691,Ulrike Häussler,DE,68219,Mannheim,(1)1-2,Beratung / Consulting
14983,Universität Kassel Hessische Staatsdomäne,DE,34393,Grebenstein,(3)11-25,Forschung / Entwicklung / Wissenschaft
14977,Unser Kastanienhof,DE,34289,Zierenberg-Oberelsungen,(2)3-10,Nahrungsmittel / Land / Forstwirtschaft
45134,Unternehmensberatung & Training Dr. Sukowski,DE,12623,Berlin,(1)1-2,Steuerberatung / Wirtschaftsprüfung
74298,Unternehmensberatung Hagmann,AT,3123,Großrust,(1)1-2,Beratung / Consulting
14757,UnternehmensGrün e.V.,DE,10117,Berlin,(2)3-10,Vereine
124485,UnternehmensSinn PartG,DE,10179,Berlin,(1)1-2,Beratung / Consulting
25349,UnternehmensSinn PartGes,DE,10585,Berlin,(1)1-2,Beratung / Consulting
83220,upDATE Gesellschaft für Beratung und Training mbH,DE,90449,Nürnberg,(2)3-10,Beratung / Consulting
92383,Urbaser S.A,ES,38110,Santa Cruz de Tenerife,(8) Todas las tallas,Otros
66816,Urpunkt,CH,3012,Bern,(1)1-2,Beratung / Consulting
14876,Urte Töpfer – Wirtschaften mit Menschen,DE,10827,Berlin,(1)1-2,Beratung / Consulting
92463,USS,ES,35010,Las Palmas de Gran Canaria,(1)1-2,Otros
14795,Vägen Ut! Kooperativen,SE,41458,Göteborg,(5)51-100,Handwerk
40899,Vanovi Design,DE,12437,Berlin,(2)3-10,Medien
14917,Vaude,DE,88069,Tettnang,(7)250-,Textilbranche
14749,ver.de für nachhaltige Entwicklung e.G.,DE,80634,München,(1)1-2,Versicherung
44757,Verein freipflanzen,AT,6020,Innsbruck,(1)1-2,Nahrungsmittel / Land / Forstwirtschaft
37618,Vereinigte Volksbank eG,DE,33034,Brakel,(6)101-250,Banken
92461,"Veritable, SL",ES,08028,Barcelona,(1)1-2,Otros
143256,Vermessung Schubert ZT GmbH,AT,3100,St. Pölten,(5)51-100,Dienstleistung
36795,Veronika Lamprecht GAIA-Akademie,AT,4112,St. Gotthard i. M.,(1)1-2,Beratung / Consulting
143242,Versicherungsagentur Halmenschlager GmbH,AT,3071,Böheimkirchen,(2)3-10,Versicherung
82861,vhs Kempten,DE,87435,Kempten,(4)26-50,Bildung / Universität / FH / Schulen
153963,viadee Unternehmensberatung AG,DE,48147,Münster,(6)101-250,Beratung / Consulting
38378,Videotechnik Ing. Friedel HANS e.U.,AT,2380,Perchtoldsdorf,(2)3-10,Handwerk
92375,Viña ecológica Miguel Poveda Justamante,ES,03640,Monòver,(8) Todas las tallas,Otros
21406,Vinzenz Service GmbH,DE,72488,Sigmaringen,(6)101-250,Dienstleistung
102365,Vinzenz Service GmbH,DE,88630,Sigmaringen,(5)51-100,Tourismus / Hotel / Gastronomie
93793,Vision11 GmbH,DE,80336,München,(5)51-100,Beratung / Consulting
25050,visuellverstehen GmbH,DE,24937,Flensburg,(3)11-25,Software · Branding · SEO · Gemeinwohl
15653,Vitark NV,BE,9041,Oostakker,(1)1-2,Beratung / Consulting
94595,Vivat Lingua! Sprachtrainingsprogramme GmbH,DE,72072,Tübingen,(3)11-25,Bildung / Universität / FH / Schulen
14962,Voelkel GmbH,DE,29478,Höhbeck,(6)101-250,Nahrungsmittel / Land / Forstwirtschaft
45136,Volkshilfe Tirol,AT,6020,Innsbruck,(5)51-100,Gesundheitswesen / Soziales / Pflege
61662,Vollkornbäckerei Barth GmbH,DE,56332,Niederfell,(4)26-50,Nahrungsmittel / Land / Forstwirtschaft
14877,Vollkornbäckerei Niemand GmbH,DE,58093,Hagen,(4)26-50,Handwerk
44965,Vorarlberger Gemeindeverband,AT,6850,Dornbirn,(2)3-10,Öffentliche Verwaltung
124636,Vorarlberger Landes-Versicherung V.a.G.,AT,6900,Bregenz,(6)101-250,Versicherung
14972,Vorarlberger Landesversicherung V.a.G,AT,6900,Bregenz,(6)101-250,Finanzen
101572,w e i s s Architekten,DE,85072,Eichstätt,(3)11-25,Baugewerbe / Architektur
45138,Walch Bewegt GmbH,AT,6700,Bludenz,(2)3-10,Handel / Konsum
41075,Waldkindergarten St. Andrä,AT,3423,Wördern,(2)3-10,Bildung / Universität / FH / Schulen
14777,Waldorfschulverein Freiburg St. Georgen,DE,79111,Freiburg,(5)51-100,Bildung / Universität / FH / Schulen
14878,Waldorfschulverein Wetterau e.V.,DE,61231,Bad Nauheim,(5)51-100,Bildung / Universität / FH / Schulen
14918,Waldtraud Dietrich,AT,6414,Mieming,(1)1-2,Beratung / Consulting
14693,Wasmuth & Hörstel,DE,56170,Bendorf,(1)1-2,Dienstleistung
14779,WBS TRAINING AG,DE,12099,Berlin,(7)250-,Bildung / Universität / FH / Schulen
37562,Weingut Jurtschitsch,AT,3550,Langenlois,(4)26-50,Nahrungsmittel / Land / Forstwirtschaft
14694,Weiz Stadtmarketing KG,AT,8160,A-Weiz,(2)3-10,Kunst / Kultur / Unterhaltung
45140,"wellYunit, Sabine Siehl e.K.",DE,20251,Hamburg,(1)1-2,Internet / Multimedia
38148,Weltladen Lienz,AT,9900,Lienz,(2)3-10,Handel / Konsum
41212,Weltweitwandern GmbH,AT,8020,Graz,(2)3-10,Tourismus / Hotel / Gastronomie
115469,WERKHAUS Design + Produktion GmbH,DE,29389,Bad Bodenteich,(6)101-250,Sonstige Branchen
14879,werkzwei – Lutz Dudek,DE,33602,Bielefeld,(1)1-2,Dienstleistung
77336,Werner Furtner Consulting,DE,83533,Edling,(1)1-2,Beratung / Consulting
35667,Wertachtal-Werkstätten gGmbH,DE,87600,Kaufbeuren,(6)101-250,Gesundheitswesen / Soziales / Pflege
14715,Werte-voller-Leben GmbH & Co KG,DE,86356,Steppach/Neusäss,(2)3-10,Gesundheitswesen / Soziales / Pflege
14880,WeShareIT-Ulrich Lang,DE,74348,Lauffen am Neckar,(1)1-2,Beratung
25379,Westerwald-Brauerei H.Schneider GmbH & Co.KG,DE,57627,Hachenburg,(5)51-100,Nahrungsmittel / Land / Forstwirtschaft
14956,"Westphal & Baade, Abyme GbR",DE,10967,Berlin,(1)1-2,Handel / Konsum
35606,WEtell GmbH,DE,79106,Freiburg,(2)3-10,Telekommunikation
92341,WeWater,ES,38480,Buenavista,(8) Todas las tallas,Otros
24791,WFG Bornheim,DE,53332,Bornheim,(2)3-10,Dienstleistung
14919,Wiedemann Jörn,DE,86984,Prem,(1)1-2,Beratung / Consulting
16161,Wiehag Holding GmbH,AT,4950,Altheim,(6)101-250,Baugewerbe / Architektur
48061,Wildbad Rothenburg Evgl. Tagungsstätte KdöR,DE,91541,Rothenburg ob der Tauber,(4)26-50,Tourismus / Hotel / Gastronomie
47816,Willert Holding GmbH,DE,86167,Augsburg,(1)1-2,Immobilien / Facility Management
112793,Willmes und Partner,DE,59759,Arnsberg,(3)11-25,Beratung / Consulting
30343,Windkraft Simonsfeld AG,AT,2115,Ernstbrunn,(5)51-100,Energiewirtschaft
14799,Winkler Solar GmbH,AT,6800,Feldkirch,(3)11-25,Energiewirtschaft
111946,Wino Biolandbau GmbH&Co.KG,DE,74336,Brackenheim,(3)11-25,Nahrungsmittel / Land / Forstwirtschaft
24901,Wipptalreisen OHG,IT,39049,Pfitsch,(2)3-10,Verkehr / Transport / Logistik
14991,Wir Kinder der Erde – Wildnisschule Bayern,DE,86938,Schondorf,(1)1-2,Seminar / Messeanbieter
45142,WirkWandel Impuls GmbH,DE,12435,Berlin,(2)3-10,Beratung / Consulting
102421,Wirtschaftsförderung Münster GmbH,DE,48149,Münster,(3)11-25,Sonstige Branchen
14881,Wissenschaftsladen Hannover e.V.,DE,30451,Hannover,(1)1-2,Bildung / Universität / FH / Schulen
18750,WITTIG HR CONSULTING,DE,63741,Aschaffenburg,(1)1-2,Beratung / Consulting
154693,WITTIG HR Consulting,DE,63741,Aschaffenburg,(1)1-2,Beratung / Consulting
14882,Wittig HR-CONSULTING,DE,63741,Aschaffenburg,(1)1-2,Beratung / Consulting
132129,WMC Diktiersysteme GmbH,DE,44143,Dortmund,(2)3-10,Dienstleistung
55745,wobkom GmbH,DE,42897,Remscheid,(1)1-2,Dienstleistung
37744,Wodara Immobilien e.K.,DE,12681,Berlin,(1)1-2,Beratung / Consulting
36556,Wofgang Biebel,AT,2540,Bad Vöslau,(1)1-2,Beratung / Consulting
14758,Wohnanlage Fasanenhof gGmbH,DE,70565,Stuttgart,(4)26-50,Gesundheitswesen / Soziales / Pflege
25192,Wolf Oeding Unternehmensberatung,DE,22765,Hamburg,(1)1-2,Beratung / Consulting
30100,WOOD Kollnig Handelsagentur,AT,9990,Debant,(1)1-2,Handwerk
46088,Yellow Birds Consulting GmbH & Co. KG,DE,89081,Ulm,(1)1-2,Beratung / Consulting
143436,Yellow Birds GmbH,DE,89075,Ulm,(1)1-2,Beratung / Consulting
19131,Ynova Innovation Company BV,NL,8627SJ,Gauw,(1)1-2,Beratung / Consulting
153924,ZABELDruck GmbH,DE,78315,Radolfzell am Bodensee,(2)3-10,Druck / Papier / Verpackung
14920,Zahnarztpraxis am Kreuzberg,DE,10961,Berlin-Kreuzberg,(2)3-10,Gesundheitswesen / Soziales / Pflege
124481,Zahnarztpraxis am Kreuzberg,DE,10961,Berlin,(2)3-10,Gesundheitswesen / Soziales / Pflege
30353,Zallis Naturkost Cafe,DE,83404,Ainring – Mitterfelden,(1)1-2,Nahrungsmittel / Land / Forstwirtschaft
92485,Zaragoza Vivienda,ES,50003,Zaragoza,(1)1-2,Otros
44959,Zentrum Mensch Andrea Stoffers,DE,41460,Neuss,(1)1-2,Gesundheitswesen / Soziales / Pflege
118849,Zentrum Zeitgenössischer Musik – Kunsthaus Nexus,AT,5760,Saalfelden,(2)3-10,Kunst / Kultur / Unterhaltung
92844,Zimmerei Diedrich – Die Gesundhausbauer GmbH,DE,37434,Rüdershausen,(3)11-25,Baugewerbe / Architektur
45156,zimmerwerkstatt Nicola Bannier und Michael Weber,DE,29456,Hitzacker,(1)1-2,Handwerk
14718,Zukunftswerk eG,DE,82319,Starnberg,(2)3-10,Beratung / Consulting
30321,zündstoff. fair organic clothing S. Klemz & M. Rau GbR,DE,79100,Freiburg,(2)3-10,Textilbranche
